{
  "type": "FeatureCollection",
  "features": [
    {
      "type": "Feature",
      "properties": {
        "building_id": "AI-BLD-upload_1787995849126-0001",
        "height_mean_m": null,
        "height_max_m": null,
        "estimated_floors": null,
        "height_data_available": false,
        "footprint_area_sqm": 142.28,
        "perimeter_m": 48.04,
        "confidence_score": 0.877,
        "extraction_method": "RGB-Only Edge/Contour Segmentation (no DSM/DTM survey)"
      },
      "geometry": {
        "type": "Polygon",
        "coordinates": [
          [
            [
              77.20854806869157,
              28.612764850282943
            ],
            [
              77.20853250058126,
              28.612753825462367
            ],
            [
              77.20852843503158,
              28.61268170906601
            ],
            [
              77.20867891778654,
              28.612665722282607
            ],
            [
              77.20867834469298,
              28.612760471350978
            ],
            [
              77.20854806869157,
              28.612764850282943
            ]
          ]
        ]
      }
    },
    {
      "type": "Feature",
      "properties": {
        "building_id": "AI-BLD-upload_1787995849126-0002",
        "height_mean_m": null,
        "height_max_m": null,
        "estimated_floors": null,
        "height_data_available": false,
        "footprint_area_sqm": 93.2,
        "perimeter_m": 42.19,
        "confidence_score": 0.86,
        "extraction_method": "RGB-Only Edge/Contour Segmentation (no DSM/DTM survey)"
      },
      "geometry": {
        "type": "Polygon",
        "coordinates": [
          [
            [
              77.20908488235679,
              28.612765123376377
            ],
            [
              77.20907513172536,
              28.612751696168786
            ],
            [
              77.209071067063,
              28.61271572301954
            ],
            [
              77.20913234837201,
              28.61271246833593
            ],
            [
              77.20913708142946,
              28.612694345519486
            ],
            [
              77.20922164415788,
              28.612704245510617
            ],
            [
              77.2092253797226,
              28.612760577295745
            ],
            [
              77.20908488235679,
              28.612765123376377
            ]
          ]
        ]
      }
    },
    {
      "type": "Feature",
      "properties": {
        "building_id": "AI-BLD-upload_1787995849126-0003",
        "height_mean_m": null,
        "height_max_m": null,
        "estimated_floors": null,
        "height_data_available": false,
        "footprint_area_sqm": 66.47,
        "perimeter_m": 42.16,
        "confidence_score": 0.842,
        "extraction_method": "RGB-Only Edge/Contour Segmentation (no DSM/DTM survey)"
      },
      "geometry": {
        "type": "Polygon",
        "coordinates": [
          [
            [
              77.20787931985711,
              28.612811838842273
            ],
            [
              77.20770290570329,
              28.612810201535797
            ],
            [
              77.20770243394294,
              28.612787652135438
            ],
            [
              77.20787577372369,
              28.61276452674013
            ],
            [
              77.20787931985711,
              28.612811838842273
            ]
          ]
        ]
      }
    },
    {
      "type": "Feature",
      "properties": {
        "building_id": "AI-BLD-upload_1787995849126-0004",
        "height_mean_m": null,
        "height_max_m": null,
        "estimated_floors": null,
        "height_data_available": false,
        "footprint_area_sqm": 191.81,
        "perimeter_m": 57.65,
        "confidence_score": 0.877,
        "extraction_method": "RGB-Only Edge/Contour Segmentation (no DSM/DTM survey)"
      },
      "geometry": {
        "type": "Polygon",
        "coordinates": [
          [
            [
              77.20828079432425,
              28.612818831478027
            ],
            [
              77.2080890480353,
              28.612817444519113
            ],
            [
              77.20808985757603,
              28.612733970122214
            ],
            [
              77.20827091040584,
              28.612712974258564
            ],
            [
              77.20828079432425,
              28.612818831478027
            ]
          ]
        ]
      }
    },
    {
      "type": "Feature",
      "properties": {
        "building_id": "AI-BLD-upload_1787995849126-0005",
        "height_mean_m": null,
        "height_max_m": null,
        "estimated_floors": null,
        "height_data_available": false,
        "footprint_area_sqm": 151.33,
        "perimeter_m": 53.59,
        "confidence_score": 0.867,
        "extraction_method": "RGB-Only Edge/Contour Segmentation (no DSM/DTM survey)"
      },
      "geometry": {
        "type": "Polygon",
        "coordinates": [
          [
            [
              77.20967989685332,
              28.61285918503435
            ],
            [
              77.20966484760787,
              28.612845041437115
            ],
            [
              77.20966016785415,
              28.612771534158487
            ],
            [
              77.20985754407528,
              28.612797639859995
            ],
            [
              77.20985872462842,
              28.61285401327856
            ],
            [
              77.20967989685332,
              28.61285918503435
            ]
          ]
        ]
      }
    },
    {
      "type": "Feature",
      "properties": {
        "building_id": "AI-BLD-upload_1787995849126-0006",
        "height_mean_m": null,
        "height_max_m": null,
        "estimated_floors": null,
        "height_data_available": false,
        "footprint_area_sqm": 404.66,
        "perimeter_m": 81.07,
        "confidence_score": 0.888,
        "extraction_method": "RGB-Only Edge/Contour Segmentation (no DSM/DTM survey)"
      },
      "geometry": {
        "type": "Polygon",
        "coordinates": [
          [
            [
              77.20910256856571,
              28.612999428636115
            ],
            [
              77.20908658227532,
              28.612962036771133
            ],
            [
              77.20908029090423,
              28.61279001100531
            ],
            [
              77.20922594622479,
              28.61278763654844
            ],
            [
              77.20930902344676,
              28.612981953177435
            ],
            [
              77.20910256856571,
              28.612999428636115
            ]
          ]
        ]
      }
    },
    {
      "type": "Feature",
      "properties": {
        "building_id": "AI-BLD-upload_1787995849126-0007",
        "height_mean_m": null,
        "height_max_m": null,
        "estimated_floors": null,
        "height_data_available": false,
        "footprint_area_sqm": 320.81,
        "perimeter_m": 74.8,
        "confidence_score": 0.884,
        "extraction_method": "RGB-Only Edge/Contour Segmentation (no DSM/DTM survey)"
      },
      "geometry": {
        "type": "Polygon",
        "coordinates": [
          [
            [
              77.20867582308854,
              28.61300638459492
            ],
            [
              77.20855061031506,
              28.613008425310287
            ],
            [
              77.20854786617423,
              28.612999447201616
            ],
            [
              77.20853581103827,
              28.612789862837374
            ],
            [
              77.20867891105496,
              28.612787530613662
            ],
            [
              77.20867582308854,
              28.61300638459492
            ]
          ]
        ]
      }
    },
    {
      "type": "Feature",
      "properties": {
        "building_id": "AI-BLD-upload_1787995849126-0008",
        "height_mean_m": null,
        "height_max_m": null,
        "estimated_floors": null,
        "height_data_available": false,
        "footprint_area_sqm": 343.41,
        "perimeter_m": 80.92,
        "confidence_score": 0.842,
        "extraction_method": "RGB-Only Edge/Contour Segmentation (no DSM/DTM survey)"
      },
      "geometry": {
        "type": "Polygon",
        "coordinates": [
          [
            [
              77.20809627467438,
              28.613040641882275
            ],
            [
              77.2080855910543,
              28.61302777934402
            ],
            [
              77.20808880471199,
              28.612927978188058
            ],
            [
              77.20817559263413,
              28.61292205261475
            ],
            [
              77.20817649647375,
              28.612843088100846
            ],
            [
              77.20827875803789,
              28.612843677449373
            ],
            [
              77.20829805406832,
              28.61303284248734
            ],
            [
              77.20809627467438,
              28.613040641882275
            ]
          ]
        ]
      }
    },
    {
      "type": "Feature",
      "properties": {
        "building_id": "AI-BLD-upload_1787995849126-0009",
        "height_mean_m": null,
        "height_max_m": null,
        "estimated_floors": null,
        "height_data_available": false,
        "footprint_area_sqm": 119.62,
        "perimeter_m": 58.17,
        "confidence_score": 0.861,
        "extraction_method": "RGB-Only Edge/Contour Segmentation (no DSM/DTM survey)"
      },
      "geometry": {
        "type": "Polygon",
        "coordinates": [
          [
            [
              77.20762627622871,
              28.613057322138015
            ],
            [
              77.20763703245001,
              28.612838343176755
            ],
            [
              77.20767782386324,
              28.612833167232402
            ],
            [
              77.2076874162976,
              28.613047303275042
            ],
            [
              77.20762627622871,
              28.613057322138015
            ]
          ]
        ]
      }
    },
    {
      "type": "Feature",
      "properties": {
        "building_id": "AI-BLD-upload_1787995849126-0010",
        "height_mean_m": null,
        "height_max_m": null,
        "estimated_floors": null,
        "height_data_available": false,
        "footprint_area_sqm": 146.48,
        "perimeter_m": 51.93,
        "confidence_score": 0.887,
        "extraction_method": "RGB-Only Edge/Contour Segmentation (no DSM/DTM survey)"
      },
      "geometry": {
        "type": "Polygon",
        "coordinates": [
          [
            [
              77.20972052996203,
              28.61321266844863
            ],
            [
              77.20971354949057,
              28.61320149597354
            ],
            [
              77.20971135283447,
              28.613140635474455
            ],
            [
              77.20989779994865,
              28.613133083699893
            ],
            [
              77.20989680296421,
              28.613207538278306
            ],
            [
              77.20972052996203,
              28.61321266844863
            ]
          ]
        ]
      }
    },
    {
      "type": "Feature",
      "properties": {
        "building_id": "AI-BLD-upload_1787995849126-0011",
        "height_mean_m": null,
        "height_max_m": null,
        "estimated_floors": null,
        "height_data_available": false,
        "footprint_area_sqm": 335.11,
        "perimeter_m": 72.67,
        "confidence_score": 0.892,
        "extraction_method": "RGB-Only Edge/Contour Segmentation (no DSM/DTM survey)"
      },
      "geometry": {
        "type": "Polygon",
        "coordinates": [
          [
            [
              77.20993167033691,
              28.61340772756045
            ],
            [
              77.20992137513642,
              28.61339877023781
            ],
            [
              77.20992557312346,
              28.613238648997697
            ],
            [
              77.21010444873396,
              28.613235731819262
            ],
            [
              77.21011049900451,
              28.613402555422095
            ],
            [
              77.20993167033691,
              28.61340772756045
            ]
          ]
        ]
      }
    },
    {
      "type": "Feature",
      "properties": {
        "building_id": "AI-BLD-upload_1787995849126-0012",
        "height_mean_m": null,
        "height_max_m": null,
        "estimated_floors": null,
        "height_data_available": false,
        "footprint_area_sqm": 58.4,
        "perimeter_m": 50.06,
        "confidence_score": 0.854,
        "extraction_method": "RGB-Only Edge/Contour Segmentation (no DSM/DTM survey)"
      },
      "geometry": {
        "type": "Polygon",
        "coordinates": [
          [
            [
              77.20760887591436,
              28.613569651434656
            ],
            [
              77.20757566684898,
              28.613568727262905
            ],
            [
              77.20757690351701,
              28.613534124178972
            ],
            [
              77.20758207813839,
              28.613389333610677
            ],
            [
              77.20759185327182,
              28.613366914981263
            ],
            [
              77.20760973504188,
              28.613367412612973
            ],
            [
              77.2076031566788,
              28.613551482452337
            ],
            [
              77.20760887591436,
              28.613569651434656
            ]
          ]
        ]
      }
    },
    {
      "type": "Feature",
      "properties": {
        "building_id": "AI-BLD-upload_1787995849126-0013",
        "height_mean_m": null,
        "height_max_m": null,
        "estimated_floors": null,
        "height_data_available": false,
        "footprint_area_sqm": 306.37,
        "perimeter_m": 72.03,
        "confidence_score": 0.887,
        "extraction_method": "RGB-Only Edge/Contour Segmentation (no DSM/DTM survey)"
      },
      "geometry": {
        "type": "Polygon",
        "coordinates": [
          [
            [
              77.20782362201311,
              28.61357066430238
            ],
            [
              77.20781071624448,
              28.613559053918248
            ],
            [
              77.20781923428459,
              28.613360954916452
            ],
            [
              77.20794700291044,
              28.613358873218488
            ],
            [
              77.20795389908693,
              28.613566286011437
            ],
            [
              77.20782362201311,
              28.61357066430238
            ]
          ]
        ]
      }
    },
    {
      "type": "Feature",
      "properties": {
        "building_id": "AI-BLD-upload_1787995849126-0014",
        "height_mean_m": null,
        "height_max_m": null,
        "estimated_floors": null,
        "height_data_available": false,
        "footprint_area_sqm": 305.76,
        "perimeter_m": 72.31,
        "confidence_score": 0.888,
        "extraction_method": "RGB-Only Edge/Contour Segmentation (no DSM/DTM survey)"
      },
      "geometry": {
        "type": "Polygon",
        "coordinates": [
          [
            [
              77.20814309137285,
              28.61356771472599
            ],
            [
              77.20813100813622,
              28.613557975382417
            ],
            [
              77.20812583177772,
              28.61335370370008
            ],
            [
              77.20825360036832,
              28.61335162171367
            ],
            [
              77.20827071865197,
              28.613558867892362
            ],
            [
              77.20814309137285,
              28.61356771472599
            ]
          ]
        ]
      }
    },
    {
      "type": "Feature",
      "properties": {
        "building_id": "AI-BLD-upload_1787995849126-0015",
        "height_mean_m": null,
        "height_max_m": null,
        "estimated_floors": null,
        "height_data_available": false,
        "footprint_area_sqm": 316.41,
        "perimeter_m": 71.26,
        "confidence_score": 0.89,
        "extraction_method": "RGB-Only Edge/Contour Segmentation (no DSM/DTM survey)"
      },
      "geometry": {
        "type": "Polygon",
        "coordinates": [
          [
            [
              77.20992252979362,
              28.613581566027705
            ],
            [
              77.20992187387812,
              28.61342818867864
            ],
            [
              77.21011097129123,
              28.613425104783715
            ],
            [
              77.21011669100015,
              28.6135761438281
            ],
            [
              77.20992252979362,
              28.613581566027705
            ]
          ]
        ]
      }
    },
    {
      "type": "Feature",
      "properties": {
        "building_id": "AI-BLD-upload_1787995849126-0016",
        "height_mean_m": null,
        "height_max_m": null,
        "estimated_floors": null,
        "height_data_available": false,
        "footprint_area_sqm": 21.97,
        "perimeter_m": 23.27,
        "confidence_score": 0.864,
        "extraction_method": "RGB-Only Edge/Contour Segmentation (no DSM/DTM survey)"
      },
      "geometry": {
        "type": "Polygon",
        "coordinates": [
          [
            [
              77.20832934367787,
              28.613672953646507
            ],
            [
              77.20832504223245,
              28.61358956255329
            ],
            [
              77.20835315138255,
              28.613589104481864
            ],
            [
              77.20834978671229,
              28.613672620502687
            ],
            [
              77.20832934367787,
              28.613672953646507
            ]
          ]
        ]
      }
    },
    {
      "type": "Feature",
      "properties": {
        "building_id": "AI-BLD-upload_1787995849126-0017",
        "height_mean_m": null,
        "height_max_m": null,
        "estimated_floors": null,
        "height_data_available": false,
        "footprint_area_sqm": 480.86,
        "perimeter_m": 88.84,
        "confidence_score": 0.894,
        "extraction_method": "RGB-Only Edge/Contour Segmentation (no DSM/DTM survey)"
      },
      "geometry": {
        "type": "Polygon",
        "coordinates": [
          [
            [
              77.20798667943117,
              28.613789067009485
            ],
            [
              77.2079134195279,
              28.613598984889837
            ],
            [
              77.20810267943783,
              28.613542185536204
            ],
            [
              77.20819131657616,
              28.613772164698922
            ],
            [
              77.20798667943117,
              28.613789067009485
            ]
          ]
        ]
      }
    },
    {
      "type": "Feature",
      "properties": {
        "building_id": "AI-BLD-upload_1787995849126-0018",
        "height_mean_m": null,
        "height_max_m": null,
        "estimated_floors": null,
        "height_data_available": false,
        "footprint_area_sqm": 27.06,
        "perimeter_m": 46.24,
        "confidence_score": 0.856,
        "extraction_method": "RGB-Only Edge/Contour Segmentation (no DSM/DTM survey)"
      },
      "geometry": {
        "type": "Polygon",
        "coordinates": [
          [
            [
              77.20761614887894,
              28.61379510379336
            ],
            [
              77.20761455277865,
              28.61359662745535
            ],
            [
              77.20762728249615,
              28.61359416436881
            ],
            [
              77.20762878426724,
              28.613788130825785
            ],
            [
              77.20761614887894,
              28.61379510379336
            ]
          ]
        ]
      }
    },
    {
      "type": "Feature",
      "properties": {
        "building_id": "AI-BLD-upload_1787995849126-0019",
        "height_mean_m": null,
        "height_max_m": null,
        "estimated_floors": null,
        "height_data_available": false,
        "footprint_area_sqm": 148.85,
        "perimeter_m": 52.73,
        "confidence_score": 0.874,
        "extraction_method": "RGB-Only Edge/Contour Segmentation (no DSM/DTM survey)"
      },
      "geometry": {
        "type": "Polygon",
        "coordinates": [
          [
            [
              77.21032494682368,
              28.613755459362768
            ],
            [
              77.21028468006743,
              28.613601571411266
            ],
            [
              77.21032796181079,
              28.613592752687122
            ],
            [
              77.21036659328672,
              28.6135848814496
            ],
            [
              77.21040959378487,
              28.61374921647661
            ],
            [
              77.21032494682368,
              28.613755459362768
            ]
          ]
        ]
      }
    },
    {
      "type": "Feature",
      "properties": {
        "building_id": "AI-BLD-upload_1787995849126-0020",
        "height_mean_m": null,
        "height_max_m": null,
        "estimated_floors": null,
        "height_data_available": false,
        "footprint_area_sqm": 314.28,
        "perimeter_m": 70.36,
        "confidence_score": 0.892,
        "extraction_method": "RGB-Only Edge/Contour Segmentation (no DSM/DTM survey)"
      },
      "geometry": {
        "type": "Polygon",
        "coordinates": [
          [
            [
              77.20972968529561,
              28.613771934424935
            ],
            [
              77.20971922767336,
              28.613760826418577
            ],
            [
              77.20971852481327,
              28.61360519411939
            ],
            [
              77.20989484569496,
              28.61360231885229
            ],
            [
              77.20989318233504,
              28.61376701255422
            ],
            [
              77.20972968529561,
              28.613771934424935
            ]
          ]
        ]
      }
    },
    {
      "type": "Feature",
      "properties": {
        "building_id": "AI-BLD-upload_1787995849126-0021",
        "height_mean_m": null,
        "height_max_m": null,
        "estimated_floors": null,
        "height_data_available": false,
        "footprint_area_sqm": 20.64,
        "perimeter_m": 30.96,
        "confidence_score": 0.832,
        "extraction_method": "RGB-Only Edge/Contour Segmentation (no DSM/DTM survey)"
      },
      "geometry": {
        "type": "Polygon",
        "coordinates": [
          [
            [
              77.2077808729049,
              28.613848812896013
            ],
            [
              77.2076427928936,
              28.613835813603917
            ],
            [
              77.20763715806612,
              28.613821830033398
            ],
            [
              77.20778201771762,
              28.613835467587677
            ],
            [
              77.2077808729049,
              28.613848812896013
            ]
          ]
        ]
      }
    },
    {
      "type": "Feature",
      "properties": {
        "building_id": "AI-BLD-upload_1787995849126-0022",
        "height_mean_m": null,
        "height_max_m": null,
        "estimated_floors": null,
        "height_data_available": false,
        "footprint_area_sqm": 16007.37,
        "perimeter_m": 1772.62,
        "confidence_score": 0.68,
        "extraction_method": "RGB-Only Edge/Contour Segmentation (no DSM/DTM survey)"
      },
      "geometry": {
        "type": "Polygon",
        "coordinates": [
          [
            [
              77.2088268206963,
              28.613991923353126
            ],
            [
              77.20841436519218,
              28.61394902014734
            ],
            [
              77.20839126392069,
              28.61392202193093
            ],
            [
              77.20836138130967,
              28.61394193213598
            ],
            [
              77.20833495946079,
              28.61394129135681
            ],
            [
              77.20749978057411,
              28.613853392199786
            ],
            [
              77.20746665491316,
              28.61385844323186
            ],
            [
              77.20746613600977,
              28.613833638891336
            ],
            [
              77.20747891293321,
              28.61383343075709
            ],
            [
              77.20780680419251,
              28.613866436083015
            ],
            [
              77.20780822724933,
              28.613812275901108
            ],
            [
              77.20795383692209,
              28.613807647794232
            ],
            [
              77.20796369821758,
              28.61381917269231
            ],
            [
              77.20796566270023,
              28.61388414918612
            ],
            [
              77.20814240894477,
              28.61390157062414
            ],
            [
              77.20814033269626,
              28.61380235330735
            ],
            [
              77.20827827616831,
              28.613797849771114
            ],
            [
              77.20829152444425,
              28.61381333294738
            ],
            [
              77.20829866495814,
              28.61391707003127
            ],
            [
              77.2083575803949,
              28.61392287705635
            ],
            [
              77.20836801172823,
              28.613566305234627
            ],
            [
              77.20829385861218,
              28.613565257933303
            ],
            [
              77.20827423209889,
              28.613360308340607
            ],
            [
              77.20828729247089,
              28.61335160644006
            ],
            [
              77.2083736556397,
              28.613347409597946
            ],
            [
              77.20837844307604,
              28.613209733398612
            ],
            [
              77.2083756045608,
              28.61319624540843
            ],
            [
              77.20824286699789,
              28.613205175597898
            ],
            [
              77.20824815930366,
              28.61333592042227
            ],
            [
              77.2081228989171,
              28.61333570582487
            ],
            [
              77.2081214361518,
              28.61326580270872
            ],
            [
              77.20817500454292,
              28.613260418414946
            ],
            [
              77.20817387205584,
              28.613206299874793
            ],
            [
              77.20780107130047,
              28.613225908328932
            ],
            [
              77.2077958113185,
              28.613341035151915
            ],
            [
              77.20765020226966,
              28.61334566305415
            ],
            [
              77.20763212595915,
              28.613336934699973
            ],
            [
              77.20763354911784,
              28.61328277451145
            ],
            [
              77.2076999415872,
              28.613279437197328
            ],
            [
              77.20770150624286,
              28.61323204182931
            ],
            [
              77.20745377686775,
              28.61324284456937
            ],
            [
              77.20745283343709,
              28.613197745763845
            ],
            [
              77.207925293582,
              28.613176514560834
            ],
            [
              77.20792563142155,
              28.613070490765708
            ],
            [
              77.20798946837313,
              28.613067194951743
            ],
            [
              77.20806106578218,
              28.613068284076178
            ],
            [
              77.20806058652543,
              28.61316754304608
            ],
            [
              77.20833126669508,
              28.613154109492786
            ],
            [
              77.2083240324149,
              28.613052720522553
            ],
            [
              77.20837769506444,
              28.613051846032846
            ],
            [
              77.20838252264659,
              28.61303823311349
            ],
            [
              77.20839291389927,
              28.612557597966184
            ],
            [
              77.20844657629465,
              28.612556723463
            ],
            [
              77.208435996518,
              28.613028338845673
            ],
            [
              77.20853059215933,
              28.61302905292566
            ],
            [
              77.20854066516749,
              28.61314392986022
            ],
            [
              77.20870406699598,
              28.613134499598278
            ],
            [
              77.20869948212022,
              28.61303757889531
            ],
            [
              77.20871102026761,
              28.61302989114919
            ],
            [
              77.208873105208,
              28.61302798184311
            ],
            [
              77.20887257951163,
              28.61312498583628
            ],
            [
              77.20929904214697,
              28.613104499606898
            ],
            [
              77.209301361457,
              28.613093183259068
            ],
            [
              77.2092756189798,
              28.613084580109852
            ],
            [
              77.20927174173467,
              28.61302148351799
            ],
            [
              77.20928191597213,
              28.61301906194132
            ],
            [
              77.20940973127085,
              28.613019233824993
            ],
            [
              77.20941649445369,
              28.61309807330722
            ],
            [
              77.20953139137576,
              28.61309168857115
            ],
            [
              77.20952685296163,
              28.612997022874517
            ],
            [
              77.20943481275248,
              28.612996267826507
            ],
            [
              77.20942894661815,
              28.612960272154332
            ],
            [
              77.20942719973264,
              28.61287683947175
            ],
            [
              77.20946032496079,
              28.61287178798155
            ],
            [
              77.20946099177218,
              28.612781548824636
            ],
            [
              77.20951200445768,
              28.612776205681826
            ],
            [
              77.20949682555137,
              28.61253960391572
            ],
            [
              77.2095479325478,
              28.61253877064039
            ],
            [
              77.20957734636472,
              28.61296687539319
            ],
            [
              77.20962074026792,
              28.612963912137886
            ],
            [
              77.20962150137134,
              28.612878182863017
            ],
            [
              77.209654721023,
              28.61287764119985
            ],
            [
              77.2096845714999,
              28.613082423793625
            ],
            [
              77.21003442000558,
              28.613065440206636
            ],
            [
              77.21002945610937,
              28.612950480123374
            ],
            [
              77.2100984035702,
              28.612947099975024
            ],
            [
              77.21009935319536,
              28.612870390464085
            ],
            [
              77.21012987579302,
              28.61286312555071
            ],
            [
              77.21020147300557,
              28.61286421354997
            ],
            [
              77.21020804289668,
              28.61305584144716
            ],
            [
              77.21025143680433,
              28.613052877988768
            ],
            [
              77.21024864528881,
              28.613041644986566
            ],
            [
              77.2102358684851,
              28.613041853376576
            ],
            [
              77.21022962915703,
              28.61286601003625
            ],
            [
              77.21025532441392,
              28.612872358066916
            ],
            [
              77.21028210113586,
              28.613052377847033
            ],
            [
              77.21051449724827,
              28.6130418200731
            ],
            [
              77.2105154419807,
              28.613086918786326
            ],
            [
              77.21028560113145,
              28.613097434888406
            ],
            [
              77.2103050820581,
              28.613120201499775
            ],
            [
              77.21029804248973,
              28.61320325016283
            ],
            [
              77.2102865044495,
              28.613210938038666
            ],
            [
              77.21013208546844,
              28.613212724022155
            ],
            [
              77.21012475499889,
              28.61310682537188
            ],
            [
              77.20959110906692,
              28.613135829012123
            ],
            [
              77.20961011861864,
              28.61343327236266
            ],
            [
              77.20968938234635,
              28.613434235611532
            ],
            [
              77.20969264601466,
              28.613468017995217
            ],
            [
              77.2096924988592,
              28.613583061438373
            ],
            [
              77.2096184402064,
              28.61358652473738
            ],
            [
              77.20964322184513,
              28.61391545383552
            ],
            [
              77.21011033730368,
              28.613883023513672
            ],
            [
              77.21011227870018,
              28.613853667668923
            ],
            [
              77.21012250022261,
              28.613853500962016
            ],
            [
              77.21012562236166,
              28.613880518517036
            ],
            [
              77.21014606541144,
              28.613880185100168
            ],
            [
              77.21014729834373,
              28.613817005215953
            ],
            [
              77.2102060248432,
              28.613813791690813
            ],
            [
              77.21021037989728,
              28.61377762935991
            ],
            [
              77.21023333107253,
              28.613774999316718
            ],
            [
              77.21029470738839,
              28.61377625394727
            ],
            [
              77.21029659672519,
              28.613866451377035
            ],
            [
              77.2105314555256,
              28.61385134192553
            ],
            [
              77.21053183343389,
              28.613869381408502
            ],
            [
              77.20968193035243,
              28.613932868305223
            ],
            [
              77.20964359960266,
              28.613933493329153
            ],
            [
              77.2096099546477,
              28.613913740577008
            ],
            [
              77.20958221200675,
              28.613932225355185
            ],
            [
              77.20956576918853,
              28.613943181114358
            ],
            [
              77.2088268206963,
              28.613991923353126
            ]
          ]
        ]
      }
    },
    {
      "type": "Feature",
      "properties": {
        "building_id": "AI-BLD-upload_1787995849126-0023",
        "height_mean_m": null,
        "height_max_m": null,
        "estimated_floors": null,
        "height_data_available": false,
        "footprint_area_sqm": 291.88,
        "perimeter_m": 71.77,
        "confidence_score": 0.891,
        "extraction_method": "RGB-Only Edge/Contour Segmentation (no DSM/DTM survey)"
      },
      "geometry": {
        "type": "Polygon",
        "coordinates": [
          [
            [
              77.20764384939632,
              28.61426383984829
            ],
            [
              77.20763083653542,
              28.614252773302628
            ],
            [
              77.20762649624258,
              28.614045318850224
            ],
            [
              77.20775171032403,
              28.614043278920942
            ],
            [
              77.20775368418815,
              28.614259794746484
            ],
            [
              77.20764384939632,
              28.61426383984829
            ]
          ]
        ]
      }
    },
    {
      "type": "Feature",
      "properties": {
        "building_id": "AI-BLD-upload_1787995849126-0024",
        "height_mean_m": null,
        "height_max_m": null,
        "estimated_floors": null,
        "height_data_available": false,
        "footprint_area_sqm": 174.71,
        "perimeter_m": 64.23,
        "confidence_score": 0.848,
        "extraction_method": "RGB-Only Edge/Contour Segmentation (no DSM/DTM survey)"
      },
      "geometry": {
        "type": "Polygon",
        "coordinates": [
          [
            [
              77.20797363683576,
              28.614265233911826
            ],
            [
              77.20796062394228,
              28.614254167399764
            ],
            [
              77.20800198934147,
              28.614142624506623
            ],
            [
              77.20800613104518,
              28.614131456280578
            ],
            [
              77.2080394734272,
              28.61404154748313
            ],
            [
              77.20807108675598,
              28.614035819557472
            ],
            [
              77.20807069462751,
              28.61426139673721
            ],
            [
              77.20797363683576,
              28.614265233911826
            ]
          ]
        ]
      }
    },
    {
      "type": "Feature",
      "properties": {
        "building_id": "AI-BLD-upload_1787995849126-0025",
        "height_mean_m": null,
        "height_max_m": null,
        "estimated_floors": null,
        "height_data_available": false,
        "footprint_area_sqm": 390.31,
        "perimeter_m": 81.62,
        "confidence_score": 0.89,
        "extraction_method": "RGB-Only Edge/Contour Segmentation (no DSM/DTM survey)"
      },
      "geometry": {
        "type": "Polygon",
        "coordinates": [
          [
            [
              77.21011647224732,
              28.614297973402234
            ],
            [
              77.20996825953901,
              28.61430039060459
            ],
            [
              77.20995143657372,
              28.614257558815947
            ],
            [
              77.20995610680426,
              28.61408629669509
            ],
            [
              77.21009860589646,
              28.614042715047404
            ],
            [
              77.21011647224732,
              28.614297973402234
            ]
          ]
        ]
      }
    },
    {
      "type": "Feature",
      "properties": {
        "building_id": "AI-BLD-upload_1787995849126-0026",
        "height_mean_m": null,
        "height_max_m": null,
        "estimated_floors": null,
        "height_data_available": false,
        "footprint_area_sqm": 327.81,
        "perimeter_m": 81.33,
        "confidence_score": 0.847,
        "extraction_method": "RGB-Only Edge/Contour Segmentation (no DSM/DTM survey)"
      },
      "geometry": {
        "type": "Polygon",
        "coordinates": [
          [
            [
              77.20779242449449,
              28.614523081423947
            ],
            [
              77.20777917568002,
              28.614500740198814
            ],
            [
              77.20778197461284,
              28.61439016490274
            ],
            [
              77.20784832058486,
              28.614384572539024
            ],
            [
              77.20784884714821,
              28.61428756851439
            ],
            [
              77.20793828597095,
              28.614286111275916
            ],
            [
              77.20794059054893,
              28.61451841164399
            ],
            [
              77.20779242449449,
              28.614523081423947
            ]
          ]
        ]
      }
    },
    {
      "type": "Feature",
      "properties": {
        "building_id": "AI-BLD-upload_1787995849126-0027",
        "height_mean_m": null,
        "height_max_m": null,
        "estimated_floors": null,
        "height_data_available": false,
        "footprint_area_sqm": 203.95,
        "perimeter_m": 68.15,
        "confidence_score": 0.891,
        "extraction_method": "RGB-Only Edge/Contour Segmentation (no DSM/DTM survey)"
      },
      "geometry": {
        "type": "Polygon",
        "coordinates": [
          [
            [
              77.20810934134364,
              28.614520173402713
            ],
            [
              77.2080963755913,
              28.61451136184546
            ],
            [
              77.20816562611562,
              28.614294219112377
            ],
            [
              77.20825264668605,
              28.614283244594763
            ],
            [
              77.20818132973602,
              28.61450686746562
            ],
            [
              77.20810934134364,
              28.614520173402713
            ]
          ]
        ]
      }
    },
    {
      "type": "Feature",
      "properties": {
        "building_id": "AI-BLD-upload_1787995849126-0028",
        "height_mean_m": null,
        "height_max_m": null,
        "estimated_floors": null,
        "height_data_available": false,
        "footprint_area_sqm": 434.65,
        "perimeter_m": 92.88,
        "confidence_score": 0.845,
        "extraction_method": "RGB-Only Edge/Contour Segmentation (no DSM/DTM survey)"
      },
      "geometry": {
        "type": "Polygon",
        "coordinates": [
          [
            [
              77.20976206490845,
              28.614585716467374
            ],
            [
              77.2097510161531,
              28.614573096321976
            ],
            [
              77.20975142365093,
              28.614443780490664
            ],
            [
              77.2098356572507,
              28.614437895461833
            ],
            [
              77.20983599308367,
              28.61433187178558
            ],
            [
              77.2099407641786,
              28.614330163190836
            ],
            [
              77.2099536725863,
              28.614580336071068
            ],
            [
              77.20976206490845,
              28.614585716467374
            ]
          ]
        ]
      }
    },
    {
      "type": "Feature",
      "properties": {
        "building_id": "AI-BLD-upload_1787995849126-0029",
        "height_mean_m": null,
        "height_max_m": null,
        "estimated_floors": null,
        "height_data_available": false,
        "footprint_area_sqm": 136.22,
        "perimeter_m": 67.46,
        "confidence_score": 0.857,
        "extraction_method": "RGB-Only Edge/Contour Segmentation (no DSM/DTM survey)"
      },
      "geometry": {
        "type": "Polygon",
        "coordinates": [
          [
            [
              77.21028861867984,
              28.614583896027142
            ],
            [
              77.21028574210968,
              28.614324536758556
            ],
            [
              77.21034692980282,
              28.614316771605637
            ],
            [
              77.21032429978011,
              28.61457880261862
            ],
            [
              77.21028861867984,
              28.614583896027142
            ]
          ]
        ]
      }
    },
    {
      "type": "Feature",
      "properties": {
        "building_id": "AI-BLD-upload_1787995849126-0030",
        "height_mean_m": null,
        "height_max_m": null,
        "estimated_floors": null,
        "height_data_available": false,
        "footprint_area_sqm": 19.1,
        "perimeter_m": 23.75,
        "confidence_score": 0.899,
        "extraction_method": "RGB-Only Edge/Contour Segmentation (no DSM/DTM survey)"
      },
      "geometry": {
        "type": "Polygon",
        "coordinates": [
          [
            [
              77.20904691837279,
              28.61485903850902
            ],
            [
              77.209046976715,
              28.61484085559408
            ],
            [
              77.20914877117723,
              28.61484110988324
            ],
            [
              77.2091487185132,
              28.614857528080545
            ],
            [
              77.20904691837279,
              28.61485903850902
            ]
          ]
        ]
      }
    },
    {
      "type": "Feature",
      "properties": {
        "building_id": "AI-BLD-upload_1787995849126-0031",
        "height_mean_m": null,
        "height_max_m": null,
        "estimated_floors": null,
        "height_data_available": false,
        "footprint_area_sqm": 121.41,
        "perimeter_m": 46.82,
        "confidence_score": 0.848,
        "extraction_method": "RGB-Only Edge/Contour Segmentation (no DSM/DTM survey)"
      },
      "geometry": {
        "type": "Polygon",
        "coordinates": [
          [
            [
              77.20806743490623,
              28.614960719262488
            ],
            [
              77.20792050248177,
              28.614902209286175
            ],
            [
              77.207922019826,
              28.614852558991217
            ],
            [
              77.20805485387727,
              28.614848138880436
            ],
            [
              77.20806743490623,
              28.614960719262488
            ]
          ]
        ]
      }
    },
    {
      "type": "Feature",
      "properties": {
        "building_id": "AI-BLD-upload_1787995849126-0032",
        "height_mean_m": null,
        "height_max_m": null,
        "estimated_floors": null,
        "height_data_available": false,
        "footprint_area_sqm": 205.62,
        "perimeter_m": 58.43,
        "confidence_score": 0.865,
        "extraction_method": "RGB-Only Edge/Contour Segmentation (no DSM/DTM survey)"
      },
      "geometry": {
        "type": "Polygon",
        "coordinates": [
          [
            [
              77.20819392418773,
              28.61501956220763
            ],
            [
              77.20809582755835,
              28.61497379085676
            ],
            [
              77.20808040795943,
              28.614847722486335
            ],
            [
              77.20821324198702,
              28.614843302220887
            ],
            [
              77.20821162330769,
              28.61501025095823
            ],
            [
              77.20819392418773,
              28.61501956220763
            ]
          ]
        ]
      }
    },
    {
      "type": "Feature",
      "properties": {
        "building_id": "AI-BLD-upload_1787995849126-0033",
        "height_mean_m": null,
        "height_max_m": null,
        "estimated_floors": null,
        "height_data_available": false,
        "footprint_area_sqm": 225.12,
        "perimeter_m": 60.39,
        "confidence_score": 0.886,
        "extraction_method": "RGB-Only Edge/Contour Segmentation (no DSM/DTM survey)"
      },
      "geometry": {
        "type": "Polygon",
        "coordinates": [
          [
            [
              77.20852901351952,
              28.615029891256725
            ],
            [
              77.20851410461486,
              28.615018178082334
            ],
            [
              77.20851023562908,
              28.614865530665476
            ],
            [
              77.20864056142383,
              28.61486340656634
            ],
            [
              77.20863884902259,
              28.61502584539543
            ],
            [
              77.20852901351952,
              28.615029891256725
            ]
          ]
        ]
      }
    },
    {
      "type": "Feature",
      "properties": {
        "building_id": "AI-BLD-upload_1787995849126-0034",
        "height_mean_m": null,
        "height_max_m": null,
        "estimated_floors": null,
        "height_data_available": false,
        "footprint_area_sqm": 274.51,
        "perimeter_m": 71.9,
        "confidence_score": 0.848,
        "extraction_method": "RGB-Only Edge/Contour Segmentation (no DSM/DTM survey)"
      },
      "geometry": {
        "type": "Polygon",
        "coordinates": [
          [
            [
              77.20883826551528,
              28.615027106392024
            ],
            [
              77.20882559577214,
              28.615011250568237
            ],
            [
              77.20882610849313,
              28.61493482056684
            ],
            [
              77.20890527896395,
              28.61493127433776
            ],
            [
              77.20890897360383,
              28.61486354290206
            ],
            [
              77.20901374529208,
              28.614861834994787
            ],
            [
              77.20902220790072,
              28.615021852229575
            ],
            [
              77.20883826551528,
              28.615027106392024
            ]
          ]
        ]
      }
    },
    {
      "type": "Feature",
      "properties": {
        "building_id": "AI-BLD-upload_1787995849126-0035",
        "height_mean_m": null,
        "height_max_m": null,
        "estimated_floors": null,
        "height_data_available": false,
        "footprint_area_sqm": 45.28,
        "perimeter_m": 39.77,
        "confidence_score": 0.853,
        "extraction_method": "RGB-Only Edge/Contour Segmentation (no DSM/DTM survey)"
      },
      "geometry": {
        "type": "Polygon",
        "coordinates": [
          [
            [
              77.20961260208814,
              28.615016737905478
            ],
            [
              77.20960934384026,
              28.61486114729274
            ],
            [
              77.20963234249291,
              28.61486077227441
            ],
            [
              77.20964326700337,
              28.615016237876965
            ],
            [
              77.20961260208814,
              28.615016737905478
            ]
          ]
        ]
      }
    },
    {
      "type": "Feature",
      "properties": {
        "building_id": "AI-BLD-upload_1787995849126-0036",
        "height_mean_m": null,
        "height_max_m": null,
        "estimated_floors": null,
        "height_data_available": false,
        "footprint_area_sqm": 269.49,
        "perimeter_m": 70.68,
        "confidence_score": 0.851,
        "extraction_method": "RGB-Only Edge/Contour Segmentation (no DSM/DTM survey)"
      },
      "geometry": {
        "type": "Polygon",
        "coordinates": [
          [
            [
              77.20942875423216,
              28.6150265027411
            ],
            [
              77.20940931051496,
              28.615012395664678
            ],
            [
              77.20939861440824,
              28.614929998777306
            ],
            [
              77.2094726267992,
              28.614924280610243
            ],
            [
              77.20947371844974,
              28.614854335908355
            ],
            [
              77.20957849008886,
              28.614852627565146
            ],
            [
              77.2095820316132,
              28.615021747799936
            ],
            [
              77.20942875423216,
              28.6150265027411
            ]
          ]
        ]
      }
    },
    {
      "type": "Feature",
      "properties": {
        "building_id": "AI-BLD-upload_1787995849126-0037",
        "height_mean_m": null,
        "height_max_m": null,
        "estimated_floors": null,
        "height_data_available": false,
        "footprint_area_sqm": 335.39,
        "perimeter_m": 79.27,
        "confidence_score": 0.829,
        "extraction_method": "RGB-Only Edge/Contour Segmentation (no DSM/DTM survey)"
      },
      "geometry": {
        "type": "Polygon",
        "coordinates": [
          [
            [
              77.20980089431127,
              28.615097128593515
            ],
            [
              77.209795977642,
              28.61498442346097
            ],
            [
              77.20988532248357,
              28.614978455033647
            ],
            [
              77.20988622495096,
              28.61489949059994
            ],
            [
              77.21000637627155,
              28.61489978681608
            ],
            [
              77.20999875225765,
              28.615023974989857
            ],
            [
              77.2099035797875,
              28.615112434012538
            ],
            [
              77.20980089431127,
              28.615097128593515
            ]
          ]
        ]
      }
    },
    {
      "type": "Feature",
      "properties": {
        "building_id": "AI-BLD-upload_1787995849126-0038",
        "height_mean_m": null,
        "height_max_m": null,
        "estimated_floors": null,
        "height_data_available": false,
        "footprint_area_sqm": 99.31,
        "perimeter_m": 45.76,
        "confidence_score": 0.848,
        "extraction_method": "RGB-Only Edge/Contour Segmentation (no DSM/DTM survey)"
      },
      "geometry": {
        "type": "Polygon",
        "coordinates": [
          [
            [
              77.20942042127751,
              28.61511686686849
            ],
            [
              77.20941701595626,
              28.61507631967387
            ],
            [
              77.20948085402148,
              28.61507302309359
            ],
            [
              77.20949301723437,
              28.615043500586033
            ],
            [
              77.20957994840839,
              28.615044338832426
            ],
            [
              77.20958131780597,
              28.61510973198851
            ],
            [
              77.20942042127751,
              28.61511686686849
            ]
          ]
        ]
      }
    },
    {
      "type": "Feature",
      "properties": {
        "building_id": "AI-BLD-upload_1787995849126-0039",
        "height_mean_m": null,
        "height_max_m": null,
        "estimated_floors": null,
        "height_data_available": false,
        "footprint_area_sqm": 112.62,
        "perimeter_m": 42.54,
        "confidence_score": 0.883,
        "extraction_method": "RGB-Only Edge/Contour Segmentation (no DSM/DTM survey)"
      },
      "geometry": {
        "type": "Polygon",
        "coordinates": [
          [
            [
              77.20905793033975,
              28.615140822348636
            ],
            [
              77.209048328518,
              28.61504849489775
            ],
            [
              77.20916587743567,
              28.61504657857145
            ],
            [
              77.20917027410883,
              28.615134479455588
            ],
            [
              77.20905793033975,
              28.615140822348636
            ]
          ]
        ]
      }
    },
    {
      "type": "Feature",
      "properties": {
        "building_id": "AI-BLD-upload_1787995849126-0040",
        "height_mean_m": null,
        "height_max_m": null,
        "estimated_floors": null,
        "height_data_available": false,
        "footprint_area_sqm": 123.0,
        "perimeter_m": 44.53,
        "confidence_score": 0.887,
        "extraction_method": "RGB-Only Edge/Contour Segmentation (no DSM/DTM survey)"
      },
      "geometry": {
        "type": "Polygon",
        "coordinates": [
          [
            [
              77.20853184541234,
              28.615165187537375
            ],
            [
              77.20852442187355,
              28.61505477887175
            ],
            [
              77.20863430460325,
              28.615052987950627
            ],
            [
              77.20863141219591,
              28.615159053330473
            ],
            [
              77.20853184541234,
              28.615165187537375
            ]
          ]
        ]
      }
    },
    {
      "type": "Feature",
      "properties": {
        "building_id": "AI-BLD-upload_1787995849126-0041",
        "height_mean_m": null,
        "height_max_m": null,
        "estimated_floors": null,
        "height_data_available": false,
        "footprint_area_sqm": 14263.1,
        "perimeter_m": 1663.65,
        "confidence_score": 0.666,
        "extraction_method": "RGB-Only Edge/Contour Segmentation (no DSM/DTM survey)"
      },
      "geometry": {
        "type": "Polygon",
        "coordinates": [
          [
            [
              77.20832683892303,
              28.61526326832245
            ],
            [
              77.2083404460493,
              28.614814160792655
            ],
            [
              77.20824073798352,
              28.614813529953306
            ],
            [
              77.20824131135136,
              28.614718780891135
            ],
            [
              77.20803673738997,
              28.614715347321496
            ],
            [
              77.2080403780969,
              28.61476716927699
            ],
            [
              77.20803015647161,
              28.61476733583176
            ],
            [
              77.20802140495951,
              28.614715597152543
            ],
            [
              77.20790887276178,
              28.61471291931579
            ],
            [
              77.20789859649054,
              28.614832639267796
            ],
            [
              77.20778109489214,
              28.6148368094215
            ],
            [
              77.20771227240462,
              28.614800449747705
            ],
            [
              77.20771480348935,
              28.61472284834911
            ],
            [
              77.20773524673557,
              28.61472251528681
            ],
            [
              77.2077349636527,
              28.614708985650722
            ],
            [
              77.20749461399257,
              28.614706134116823
            ],
            [
              77.20748557259179,
              28.61470135741651
            ],
            [
              77.20748344886842,
              28.614661201835272
            ],
            [
              77.20796419515406,
              28.614669159465738
            ],
            [
              77.20796519344502,
              28.61459470484064
            ],
            [
              77.20800854091058,
              28.61458948712431
            ],
            [
              77.20801005821917,
              28.614539836828765
            ],
            [
              77.20806367444885,
              28.61453670748301
            ],
            [
              77.20807687613923,
              28.614556793737762
            ],
            [
              77.20807672730317,
              28.614671837259035
            ],
            [
              77.20827874577341,
              28.614675312416026
            ],
            [
              77.2082809778715,
              28.614537677877934
            ],
            [
              77.20834481568511,
              28.614534381848927
            ],
            [
              77.20835653516174,
              28.61399507673695
            ],
            [
              77.20807729014308,
              28.613965791531047
            ],
            [
              77.208073170281,
              28.614013228528407
            ],
            [
              77.20796589116416,
              28.61401723223832
            ],
            [
              77.20795543369192,
              28.61400612408726
            ],
            [
              77.20795425409872,
              28.61394975060576
            ],
            [
              77.20759820613041,
              28.613914948639703
            ],
            [
              77.2075978680188,
              28.614020972440017
            ],
            [
              77.20755702896926,
              28.61402389344506
            ],
            [
              77.20754084748525,
              28.61398355429849
            ],
            [
              77.20754700405068,
              28.61391127133678
            ],
            [
              77.20746755120241,
              28.613901287092535
            ],
            [
              77.20746717381724,
              28.613883247572286
            ],
            [
              77.20834584169243,
              28.613972693924836
            ],
            [
              77.20838615683867,
              28.613993992802598
            ],
            [
              77.20840996232172,
              28.61398292751532
            ],
            [
              77.20844062696159,
              28.61398242777527
            ],
            [
              77.20883519489361,
              28.614025622463796
            ],
            [
              77.20956769358934,
              28.613970822333524
            ],
            [
              77.20959069204868,
              28.61397044733289
            ],
            [
              77.20962536432052,
              28.613988764594843
            ],
            [
              77.20964482050688,
              28.613960087450465
            ],
            [
              77.21053249477424,
              28.61390095050357
            ],
            [
              77.21053287268349,
              28.61391898998639
            ],
            [
              77.21035162952457,
              28.6139309692173
            ],
            [
              77.21035191293365,
              28.61394449883102
            ],
            [
              77.2103774667574,
              28.61394408201595
            ],
            [
              77.21037169002445,
              28.614034404483924
            ],
            [
              77.21035910204245,
              28.61404363263442
            ],
            [
              77.21030032819085,
              28.614044591296967
            ],
            [
              77.21029247310096,
              28.61403569659532
            ],
            [
              77.21029574175314,
              28.613947670742935
            ],
            [
              77.21031618481358,
              28.613947337299706
            ],
            [
              77.21031590140905,
              28.613933807685658
            ],
            [
              77.21011170696384,
              28.61394841665751
            ],
            [
              77.21011378507764,
              28.61404763383994
            ],
            [
              77.21010635857141,
              28.614058580115312
            ],
            [
              77.20995042931268,
              28.61405932080874
            ],
            [
              77.20994669326706,
              28.614002989077434
            ],
            [
              77.21001308603496,
              28.613999650608694
            ],
            [
              77.21001474409229,
              28.61395676514744
            ],
            [
              77.20964728826196,
              28.613987570141724
            ],
            [
              77.2096512130275,
              28.61405292163685
            ],
            [
              77.2097100341309,
              28.61405421819201
            ],
            [
              77.20971225896724,
              28.614038391966762
            ],
            [
              77.20972248051031,
              28.614038225289036
            ],
            [
              77.20972541366949,
              28.6140562231118
            ],
            [
              77.20972564977808,
              28.614067497794462
            ],
            [
              77.20965154356838,
              28.614068706193382
            ],
            [
              77.20965920424332,
              28.614190389433986
            ],
            [
              77.20968977447515,
              28.61418537953499
            ],
            [
              77.20969034657698,
              28.614090630530328
            ],
            [
              77.20972867738261,
              28.614090005490045
            ],
            [
              77.20973142165721,
              28.614098983566368
            ],
            [
              77.20973070253392,
              28.614308775998627
            ],
            [
              77.20966956200135,
              28.6143187958119
            ],
            [
              77.20968270587315,
              28.614580243435977
            ],
            [
              77.20969089151205,
              28.614604922727786
            ],
            [
              77.20972666710493,
              28.614604339347498
            ],
            [
              77.20972614228856,
              28.61470134328035
            ],
            [
              77.2101583357414,
              28.61471008483248
            ],
            [
              77.21015616306467,
              28.61460635779134
            ],
            [
              77.21025833177664,
              28.614602435679096
            ],
            [
              77.21026878954248,
              28.614613543634828
            ],
            [
              77.21026831246009,
              28.614712802477722
            ],
            [
              77.21054959551549,
              28.614717237048758
            ],
            [
              77.21055054032855,
              28.614762335749763
            ],
            [
              77.21030763542123,
              28.614759530905527
            ],
            [
              77.2102967478241,
              28.614849936729165
            ],
            [
              77.21024880918718,
              28.614880042828716
            ],
            [
              77.2102233023686,
              28.61488271456746
            ],
            [
              77.2102108974958,
              28.6148761612491
            ],
            [
              77.21020532486192,
              28.61475668825644
            ],
            [
              77.21001608338788,
              28.614753007606165
            ],
            [
              77.21001404750706,
              28.614777853576612
            ],
            [
              77.2100012704912,
              28.614778061956027
            ],
            [
              77.2100007982014,
              28.614755512597238
            ],
            [
              77.20998271518846,
              28.61474595954362
            ],
            [
              77.20969897731705,
              28.61474690037976
            ],
            [
              77.20972976249085,
              28.61524039805133
            ],
            [
              77.20967609877789,
              28.61524127313718
            ],
            [
              77.20964966367391,
              28.61483342135414
            ],
            [
              77.20960106375485,
              28.614831958123975
            ],
            [
              77.20959666675397,
              28.614744057269245
            ],
            [
              77.20935631719674,
              28.61474120904677
            ],
            [
              77.20936076121295,
              28.614831364857192
            ],
            [
              77.20919470705051,
              28.61483632783715
            ],
            [
              77.20918150511615,
              28.614816241705768
            ],
            [
              77.20919262973254,
              28.614737110604608
            ],
            [
              77.20879625889162,
              28.61473003777281
            ],
            [
              77.20879857185358,
              28.61484052972049
            ],
            [
              77.20867340411584,
              28.614844825606298
            ],
            [
              77.2086643626549,
              28.614840048988366
            ],
            [
              77.20866328347017,
              28.614727693787238
            ],
            [
              77.20847915275894,
              28.61472392768229
            ],
            [
              77.2084816069784,
              28.61484118446827
            ],
            [
              77.20838965950541,
              28.614844938674743
            ],
            [
              77.20838050269612,
              28.615262393770077
            ],
            [
              77.20832683892303,
              28.61526326832245
            ]
          ]
        ]
      }
    }
  ]
}