{
  "type": "FeatureCollection",
  "features": [
    {
      "type": "Feature",
      "properties": {
        "road_id": "AI-RD-001",
        "hierarchy": "Secondary Access",
        "estimated_width_m": 6.0,
        "length_m": 118.27,
        "surface_type": "Paved Asphalt",
        "connectivity_degree": 2
      },
      "geometry": {
        "type": "LineString",
        "coordinates": [
          [
            77.20952842407706,
            28.612568461139347
          ],
          [
            77.20959367805725,
            28.613633895425963
          ]
        ]
      }
    },
    {
      "type": "Feature",
      "properties": {
        "road_id": "AI-RD-002",
        "hierarchy": "Secondary Access",
        "estimated_width_m": 6.0,
        "length_m": 118.27,
        "surface_type": "Paved Asphalt",
        "connectivity_degree": 2
      },
      "geometry": {
        "type": "LineString",
        "coordinates": [
          [
            77.2083957171014,
            28.613653423424207
          ],
          [
            77.20841633501762,
            28.612586588721413
          ]
        ]
      }
    },
    {
      "type": "Feature",
      "properties": {
        "road_id": "AI-RD-003",
        "hierarchy": "Secondary Access",
        "estimated_width_m": 6.0,
        "length_m": 102.27,
        "surface_type": "Paved Asphalt",
        "connectivity_degree": 2
      },
      "geometry": {
        "type": "LineString",
        "coordinates": [
          [
            77.20961874406514,
            28.613951992500343
          ],
          [
            77.20967586774456,
            28.61487319386094
          ]
        ]
      }
    },
    {
      "type": "Feature",
      "properties": {
        "road_id": "AI-RD-004",
        "hierarchy": "Secondary Access",
        "estimated_width_m": 6.0,
        "length_m": 105.87,
        "surface_type": "Paved Asphalt",
        "connectivity_degree": 2
      },
      "geometry": {
        "type": "LineString",
        "coordinates": [
          [
            77.2095540537166,
            28.61296234085182
          ],
          [
            77.2096128777924,
            28.613915996847208
          ]
        ]
      }
    },
    {
      "type": "Feature",
      "properties": {
        "road_id": "AI-RD-005",
        "hierarchy": "Secondary Access",
        "estimated_width_m": 6.0,
        "length_m": 109.57,
        "surface_type": "Paved Asphalt",
        "connectivity_degree": 2
      },
      "geometry": {
        "type": "LineString",
        "coordinates": [
          [
            77.20838283539459,
            28.614161618728676
          ],
          [
            77.2084030511544,
            28.613173289276272
          ]
        ]
      }
    },
    {
      "type": "Feature",
      "properties": {
        "road_id": "AI-RD-006",
        "hierarchy": "Secondary Access",
        "estimated_width_m": 6.0,
        "length_m": 112.27,
        "surface_type": "Paved Asphalt",
        "connectivity_degree": 2
      },
      "geometry": {
        "type": "LineString",
        "coordinates": [
          [
            77.20963620408307,
            28.61419983552959
          ],
          [
            77.20969828362703,
            28.615211184279715
          ]
        ]
      }
    },
    {
      "type": "Feature",
      "properties": {
        "road_id": "AI-RD-007",
        "hierarchy": "Major Arterial",
        "estimated_width_m": 10.0,
        "length_m": 153.86,
        "surface_type": "Paved Asphalt",
        "connectivity_degree": 2
      },
      "geometry": {
        "type": "LineString",
        "coordinates": [
          [
            77.2089654153173,
            28.614003246671967
          ],
          [
            77.2105324374082,
            28.613882954019207
          ]
        ]
      }
    },
    {
      "type": "Feature",
      "properties": {
        "road_id": "AI-RD-008",
        "hierarchy": "Secondary Access",
        "estimated_width_m": 6.0,
        "length_m": 62.54,
        "surface_type": "Paved Asphalt",
        "connectivity_degree": 2
      },
      "geometry": {
        "type": "LineString",
        "coordinates": [
          [
            77.20835475798178,
            28.615262861558787
          ],
          [
            77.20836646917287,
            28.614698743846702
          ]
        ]
      }
    },
    {
      "type": "Feature",
      "properties": {
        "road_id": "AI-RD-009",
        "hierarchy": "Secondary Access",
        "estimated_width_m": 6.0,
        "length_m": 112.07,
        "surface_type": "Paved Asphalt",
        "connectivity_degree": 2
      },
      "geometry": {
        "type": "LineString",
        "coordinates": [
          [
            77.20837095702018,
            28.614668895370148
          ],
          [
            77.20839070072873,
            28.61365801658954
          ]
        ]
      }
    },
    {
      "type": "Feature",
      "properties": {
        "road_id": "AI-RD-010",
        "hierarchy": "Major Arterial",
        "estimated_width_m": 10.0,
        "length_m": 134.48,
        "surface_type": "Paved Asphalt",
        "connectivity_degree": 2
      },
      "geometry": {
        "type": "LineString",
        "coordinates": [
          [
            77.20746967235993,
            28.613865209431015
          ],
          [
            77.20883467394088,
            28.614009889231557
          ]
        ]
      }
    },
    {
      "type": "Feature",
      "properties": {
        "road_id": "AI-RD-011",
        "hierarchy": "Secondary Access",
        "estimated_width_m": 6.0,
        "length_m": 75.05,
        "surface_type": "Paved Asphalt",
        "connectivity_degree": 2
      },
      "geometry": {
        "type": "LineString",
        "coordinates": [
          [
            77.20872985490696,
            28.61315442888263
          ],
          [
            77.2094959356795,
            28.61311667652752
          ]
        ]
      }
    },
    {
      "type": "Feature",
      "properties": {
        "road_id": "AI-RD-012",
        "hierarchy": "Secondary Access",
        "estimated_width_m": 6.0,
        "length_m": 81.56,
        "surface_type": "Paved Asphalt",
        "connectivity_degree": 2
      },
      "geometry": {
        "type": "LineString",
        "coordinates": [
          [
            77.20920734671088,
            28.614716617540697
          ],
          [
            77.2100409745802,
            28.61473009282024
          ]
        ]
      }
    },
    {
      "type": "Feature",
      "properties": {
        "road_id": "AI-RD-013",
        "hierarchy": "Secondary Access",
        "estimated_width_m": 6.0,
        "length_m": 66.05,
        "surface_type": "Paved Asphalt",
        "connectivity_degree": 2
      },
      "geometry": {
        "type": "LineString",
        "coordinates": [
          [
            77.20958783434057,
            28.613110666716988
          ],
          [
            77.21026197781342,
            28.613077115919914
          ]
        ]
      }
    },
    {
      "type": "Feature",
      "properties": {
        "road_id": "AI-RD-014",
        "hierarchy": "Secondary Access",
        "estimated_width_m": 6.0,
        "length_m": 70.36,
        "surface_type": "Paved Asphalt",
        "connectivity_degree": 2
      },
      "geometry": {
        "type": "LineString",
        "coordinates": [
          [
            77.2088377404048,
            28.61400983924821
          ],
          [
            77.20955438616465,
            28.613954846454458
          ]
        ]
      }
    },
    {
      "type": "Feature",
      "properties": {
        "road_id": "AI-RD-015",
        "hierarchy": "Secondary Access",
        "estimated_width_m": 6.0,
        "length_m": 75.05,
        "surface_type": "Paved Asphalt",
        "connectivity_degree": 2
      },
      "geometry": {
        "type": "LineString",
        "coordinates": [
          [
            77.20745311461826,
            28.61322034649777
          ],
          [
            77.20821919683486,
            28.61318260131393
          ]
        ]
      }
    },
    {
      "type": "Feature",
      "properties": {
        "road_id": "AI-RD-016",
        "hierarchy": "Secondary Access",
        "estimated_width_m": 6.0,
        "length_m": 59.03,
        "surface_type": "Paved Asphalt",
        "connectivity_degree": 2
      },
      "geometry": {
        "type": "LineString",
        "coordinates": [
          [
            77.20952473442533,
            28.612538745963118
          ],
          [
            77.20955632008595,
            28.61307057783458
          ]
        ]
      }
    },
    {
      "type": "Feature",
      "properties": {
        "road_id": "AI-RD-017",
        "hierarchy": "Secondary Access",
        "estimated_width_m": 6.0,
        "length_m": 68.85,
        "surface_type": "Paved Asphalt",
        "connectivity_degree": 2
      },
      "geometry": {
        "type": "LineString",
        "coordinates": [
          [
            77.20984666956467,
            28.614728750219115
          ],
          [
            77.21055038846724,
            28.614739829397628
          ]
        ]
      }
    },
    {
      "type": "Feature",
      "properties": {
        "road_id": "AI-RD-018",
        "hierarchy": "Secondary Access",
        "estimated_width_m": 6.0,
        "length_m": 75.05,
        "surface_type": "Paved Asphalt",
        "connectivity_degree": 2
      },
      "geometry": {
        "type": "LineString",
        "coordinates": [
          [
            77.20786731447177,
            28.614690636441917
          ],
          [
            77.20863446429028,
            28.61470339895471
          ]
        ]
      }
    },
    {
      "type": "Feature",
      "properties": {
        "road_id": "AI-RD-019",
        "hierarchy": "Access Lane / Footpath",
        "estimated_width_m": 3.5,
        "length_m": 37.53,
        "surface_type": "Paved Asphalt",
        "connectivity_degree": 2
      },
      "geometry": {
        "type": "LineString",
        "coordinates": [
          [
            77.20748368290714,
            28.614681547624294
          ],
          [
            77.20786727672517,
            28.614688832490593
          ]
        ]
      }
    },
    {
      "type": "Feature",
      "properties": {
        "road_id": "AI-RD-020",
        "hierarchy": "Secondary Access",
        "estimated_width_m": 6.0,
        "length_m": 57.04,
        "surface_type": "Paved Asphalt",
        "connectivity_degree": 2
      },
      "geometry": {
        "type": "LineString",
        "coordinates": [
          [
            77.2096707634327,
            28.614727107320014
          ],
          [
            77.20970197347404,
            28.615240899432546
          ]
        ]
      }
    },
    {
      "type": "Feature",
      "properties": {
        "road_id": "AI-RD-021",
        "hierarchy": "Secondary Access",
        "estimated_width_m": 6.0,
        "length_m": 56.34,
        "surface_type": "Paved Asphalt",
        "connectivity_degree": 2
      },
      "geometry": {
        "type": "LineString",
        "coordinates": [
          [
            77.20994019111096,
            28.61309138676508
          ],
          [
            77.21051528070723,
            28.613063961441316
          ]
        ]
      }
    },
    {
      "type": "Feature",
      "properties": {
        "road_id": "AI-RD-022",
        "hierarchy": "Secondary Access",
        "estimated_width_m": 6.0,
        "length_m": 81.26,
        "surface_type": "Paved Asphalt",
        "connectivity_degree": 2
      },
      "geometry": {
        "type": "LineString",
        "coordinates": [
          [
            77.2081558237156,
            28.613183633972586
          ],
          [
            77.20898524043483,
            28.613143047876026
          ]
        ]
      }
    },
    {
      "type": "Feature",
      "properties": {
        "road_id": "AI-RD-023",
        "hierarchy": "Access Lane / Footpath",
        "estimated_width_m": 3.5,
        "length_m": 48.23,
        "surface_type": "Paved Asphalt",
        "connectivity_degree": 2
      },
      "geometry": {
        "type": "LineString",
        "coordinates": [
          [
            77.20961949957331,
            28.613988071487956
          ],
          [
            77.20964598024342,
            28.614422539926917
          ]
        ]
      }
    },
    {
      "type": "Feature",
      "properties": {
        "road_id": "AI-RD-024",
        "hierarchy": "Access Lane / Footpath",
        "estimated_width_m": 3.5,
        "length_m": 33.03,
        "surface_type": "Paved Asphalt",
        "connectivity_degree": 2
      },
      "geometry": {
        "type": "LineString",
        "coordinates": [
          [
            77.20881654119273,
            28.614706747185295
          ],
          [
            77.20915413767291,
            28.614714778148603
          ]
        ]
      }
    },
    {
      "type": "Feature",
      "properties": {
        "road_id": "AI-RD-025",
        "hierarchy": "Access Lane / Footpath",
        "estimated_width_m": 3.5,
        "length_m": 42.89,
        "surface_type": "Paved Asphalt",
        "connectivity_degree": 2
      },
      "geometry": {
        "type": "LineString",
        "coordinates": [
          [
            77.20843289435409,
            28.613964105218464
          ],
          [
            77.20886840504362,
            28.614009339410984
          ]
        ]
      }
    },
    {
      "type": "Feature",
      "properties": {
        "road_id": "AI-RD-026",
        "hierarchy": "Secondary Access",
        "estimated_width_m": 6.0,
        "length_m": 73.19,
        "surface_type": "Paved Asphalt",
        "connectivity_degree": 2
      },
      "geometry": {
        "type": "LineString",
        "coordinates": [
          [
            77.20746664363584,
            28.613867063335217
          ],
          [
            77.2082095927662,
            28.61394518710146
          ]
        ]
      }
    },
    {
      "type": "Feature",
      "properties": {
        "road_id": "AI-RD-027",
        "hierarchy": "Access Lane / Footpath",
        "estimated_width_m": 3.5,
        "length_m": 27.82,
        "surface_type": "Paved Asphalt",
        "connectivity_degree": 2
      },
      "geometry": {
        "type": "LineString",
        "coordinates": [
          [
            77.20841584903174,
            28.612807656028025
          ],
          [
            77.208420822803,
            28.612556740240326
          ]
        ]
      }
    },
    {
      "type": "Feature",
      "properties": {
        "road_id": "AI-RD-028",
        "hierarchy": "Access Lane / Footpath",
        "estimated_width_m": 3.5,
        "length_m": 24.71,
        "surface_type": "Paved Asphalt",
        "connectivity_degree": 2
      },
      "geometry": {
        "type": "LineString",
        "coordinates": [
          [
            77.20836820591319,
            28.614781725579014
          ],
          [
            77.20836865396097,
            28.61455885437543
          ]
        ]
      }
    },
    {
      "type": "Feature",
      "properties": {
        "road_id": "AI-RD-029",
        "hierarchy": "Secondary Access",
        "estimated_width_m": 6.0,
        "length_m": 65.34,
        "surface_type": "Paved Asphalt",
        "connectivity_degree": 2
      },
      "geometry": {
        "type": "LineString",
        "coordinates": [
          [
            77.20840759558696,
            28.613146146723043
          ],
          [
            77.20841877852129,
            28.61255677355473
          ]
        ]
      }
    },
    {
      "type": "Feature",
      "properties": {
        "road_id": "AI-RD-030",
        "hierarchy": "Secondary Access",
        "estimated_width_m": 6.0,
        "length_m": 74.67,
        "surface_type": "Paved Asphalt",
        "connectivity_degree": 2
      },
      "geometry": {
        "type": "LineString",
        "coordinates": [
          [
            77.20976884951448,
            28.613942326573852
          ],
          [
            77.2105294087423,
            28.613884807988967
          ]
        ]
      }
    },
    {
      "type": "Feature",
      "properties": {
        "road_id": "AI-RD-031",
        "hierarchy": "Access Lane / Footpath",
        "estimated_width_m": 3.5,
        "length_m": 12.5,
        "surface_type": "Paved Asphalt",
        "connectivity_degree": 2
      },
      "geometry": {
        "type": "LineString",
        "coordinates": [
          [
            77.20863450205002,
            28.61470520290509
          ],
          [
            77.20876232887527,
            28.614705826275028
          ]
        ]
      }
    },
    {
      "type": "Feature",
      "properties": {
        "road_id": "AI-RD-032",
        "hierarchy": "Access Lane / Footpath",
        "estimated_width_m": 3.5,
        "length_m": 12.5,
        "surface_type": "Paved Asphalt",
        "connectivity_degree": 2
      },
      "geometry": {
        "type": "LineString",
        "coordinates": [
          [
            77.2096106112856,
            28.613807759882075
          ],
          [
            77.20961501653693,
            28.613920473386848
          ]
        ]
      }
    },
    {
      "type": "Feature",
      "properties": {
        "road_id": "AI-RD-033",
        "hierarchy": "Access Lane / Footpath",
        "estimated_width_m": 3.5,
        "length_m": 41.23,
        "surface_type": "Paved Asphalt",
        "connectivity_degree": 2
      },
      "geometry": {
        "type": "LineString",
        "coordinates": [
          [
            77.20910810264807,
            28.614713724065826
          ],
          [
            77.20952951632987,
            28.61472038765481
          ]
        ]
      }
    },
    {
      "type": "Feature",
      "properties": {
        "road_id": "AI-RD-034",
        "hierarchy": "Secondary Access",
        "estimated_width_m": 6.0,
        "length_m": 69.96,
        "surface_type": "Paved Asphalt",
        "connectivity_degree": 2
      },
      "geometry": {
        "type": "LineString",
        "coordinates": [
          [
            77.20887044935284,
            28.61400930608825
          ],
          [
            77.20958300646546,
            28.613954379789458
          ]
        ]
      }
    },
    {
      "type": "Feature",
      "properties": {
        "road_id": "AI-RD-035",
        "hierarchy": "Access Lane / Footpath",
        "estimated_width_m": 3.5,
        "length_m": 40.53,
        "surface_type": "Paved Asphalt",
        "connectivity_degree": 2
      },
      "geometry": {
        "type": "LineString",
        "coordinates": [
          [
            77.20835271364756,
            28.61526289487507
          ],
          [
            77.20836040062419,
            28.614897345002486
          ]
        ]
      }
    },
    {
      "type": "Feature",
      "properties": {
        "road_id": "AI-RD-036",
        "hierarchy": "Access Lane / Footpath",
        "estimated_width_m": 3.5,
        "length_m": 20.81,
        "surface_type": "Paved Asphalt",
        "connectivity_degree": 2
      },
      "geometry": {
        "type": "LineString",
        "coordinates": [
          [
            77.20959888324597,
            28.61363832196648
          ],
          [
            77.20960792257888,
            28.613825849376934
          ]
        ]
      }
    },
    {
      "type": "Feature",
      "properties": {
        "road_id": "AI-RD-037",
        "hierarchy": "Access Lane / Footpath",
        "estimated_width_m": 3.5,
        "length_m": 44.23,
        "surface_type": "Paved Asphalt",
        "connectivity_degree": 2
      },
      "geometry": {
        "type": "LineString",
        "coordinates": [
          [
            77.20837266986736,
            28.61450645651417
          ],
          [
            77.20837965844684,
            28.614107533518773
          ]
        ]
      }
    },
    {
      "type": "Feature",
      "properties": {
        "road_id": "AI-RD-038",
        "hierarchy": "Access Lane / Footpath",
        "estimated_width_m": 3.5,
        "length_m": 12.5,
        "surface_type": "Paved Asphalt",
        "connectivity_degree": 2
      },
      "geometry": {
        "type": "LineString",
        "coordinates": [
          [
            77.20780390268665,
            28.614689865034286
          ],
          [
            77.20793171066987,
            28.614689587213913
          ]
        ]
      }
    },
    {
      "type": "Feature",
      "properties": {
        "road_id": "AI-RD-039",
        "hierarchy": "Access Lane / Footpath",
        "estimated_width_m": 3.5,
        "length_m": 9.3,
        "surface_type": "Paved Asphalt",
        "connectivity_degree": 2
      },
      "geometry": {
        "type": "LineString",
        "coordinates": [
          [
            77.20959294506763,
            28.613110583385374
          ],
          [
            77.20968796681193,
            28.613107229432767
          ]
        ]
      }
    },
    {
      "type": "Feature",
      "properties": {
        "road_id": "AI-RD-040",
        "hierarchy": "Access Lane / Footpath",
        "estimated_width_m": 3.5,
        "length_m": 34.32,
        "surface_type": "Paved Asphalt",
        "connectivity_degree": 2
      },
      "geometry": {
        "type": "LineString",
        "coordinates": [
          [
            77.20968527282855,
            28.6149316888617
          ],
          [
            77.20970401780598,
            28.615240866095938
          ]
        ]
      }
    },
    {
      "type": "Feature",
      "properties": {
        "road_id": "AI-RD-041",
        "hierarchy": "Access Lane / Footpath",
        "estimated_width_m": 3.5,
        "length_m": 10.5,
        "surface_type": "Paved Asphalt",
        "connectivity_degree": 2
      },
      "geometry": {
        "type": "LineString",
        "coordinates": [
          [
            77.20942949621772,
            28.61311775977616
          ],
          [
            77.20953678372766,
            28.613114205947102
          ]
        ]
      }
    }
  ]
}