{
  "type": "FeatureCollection",
  "features": [
    {
      "type": "Feature",
      "properties": {
        "road_id": "AI-RD-001",
        "hierarchy": "Access Lane / Footpath",
        "estimated_width_m": 3.5,
        "length_m": 23.6,
        "surface_type": "Paved Asphalt",
        "connectivity_degree": 2
      },
      "geometry": {
        "type": "LineString",
        "coordinates": [
          [
            77.20797022284698,
            28.613891341378416
          ],
          [
            77.20821145118853,
            28.613887410696808
          ]
        ]
      }
    },
    {
      "type": "Feature",
      "properties": {
        "road_id": "AI-RD-002",
        "hierarchy": "Access Lane / Footpath",
        "estimated_width_m": 3.5,
        "length_m": 23.6,
        "surface_type": "Paved Asphalt",
        "connectivity_degree": 2
      },
      "geometry": {
        "type": "LineString",
        "coordinates": [
          [
            77.20904323932606,
            28.614594777858947
          ],
          [
            77.20904769580272,
            28.614807643945515
          ]
        ]
      }
    },
    {
      "type": "Feature",
      "properties": {
        "road_id": "AI-RD-003",
        "hierarchy": "Access Lane / Footpath",
        "estimated_width_m": 3.5,
        "length_m": 26.7,
        "surface_type": "Paved Asphalt",
        "connectivity_degree": 2
      },
      "geometry": {
        "type": "LineString",
        "coordinates": [
          [
            77.21008214248234,
            28.613864132503252
          ],
          [
            77.21035505713402,
            28.61385968122407
          ]
        ]
      }
    },
    {
      "type": "Feature",
      "properties": {
        "road_id": "AI-RD-004",
        "hierarchy": "Secondary Access",
        "estimated_width_m": 6.0,
        "length_m": 93.7,
        "surface_type": "Paved Asphalt",
        "connectivity_degree": 2
      },
      "geometry": {
        "type": "LineString",
        "coordinates": [
          [
            77.20899404213021,
            28.612781991205235
          ],
          [
            77.20901173441433,
            28.61362714193775
          ]
        ]
      }
    },
    {
      "type": "Feature",
      "properties": {
        "road_id": "AI-RD-005",
        "hierarchy": "Access Lane / Footpath",
        "estimated_width_m": 3.5,
        "length_m": 28.1,
        "surface_type": "Paved Asphalt",
        "connectivity_degree": 2
      },
      "geometry": {
        "type": "LineString",
        "coordinates": [
          [
            77.21007504409029,
            28.613866955119356
          ],
          [
            77.21036226888086,
            28.613862270439245
          ]
        ]
      }
    },
    {
      "type": "Feature",
      "properties": {
        "road_id": "AI-RD-006",
        "hierarchy": "Access Lane / Footpath",
        "estimated_width_m": 3.5,
        "length_m": 24.8,
        "surface_type": "Paved Asphalt",
        "connectivity_degree": 2
      },
      "geometry": {
        "type": "LineString",
        "coordinates": [
          [
            77.20901100806404,
            28.61339707163295
          ],
          [
            77.20901569084165,
            28.613620761463018
          ]
        ]
      }
    },
    {
      "type": "Feature",
      "properties": {
        "road_id": "AI-RD-007",
        "hierarchy": "Access Lane / Footpath",
        "estimated_width_m": 3.5,
        "length_m": 23.3,
        "surface_type": "Paved Asphalt",
        "connectivity_degree": 2
      },
      "geometry": {
        "type": "LineString",
        "coordinates": [
          [
            77.20897381976211,
            28.612548629537837
          ],
          [
            77.20897821907687,
            28.6127587897729
          ]
        ]
      }
    },
    {
      "type": "Feature",
      "properties": {
        "road_id": "AI-RD-008",
        "hierarchy": "Access Lane / Footpath",
        "estimated_width_m": 3.5,
        "length_m": 15.4,
        "surface_type": "Paved Asphalt",
        "connectivity_degree": 2
      },
      "geometry": {
        "type": "LineString",
        "coordinates": [
          [
            77.20866017666148,
            28.613880097822342
          ],
          [
            77.20881758829121,
            28.6138775321345
          ]
        ]
      }
    },
    {
      "type": "Feature",
      "properties": {
        "road_id": "AI-RD-009",
        "hierarchy": "Access Lane / Footpath",
        "estimated_width_m": 3.5,
        "length_m": 13.9,
        "surface_type": "Paved Asphalt",
        "connectivity_degree": 2
      },
      "geometry": {
        "type": "LineString",
        "coordinates": [
          [
            77.2103891282497,
            28.61387536656409
          ],
          [
            77.21053120740628,
            28.613873048977425
          ]
        ]
      }
    },
    {
      "type": "Feature",
      "properties": {
        "road_id": "AI-RD-010",
        "hierarchy": "Access Lane / Footpath",
        "estimated_width_m": 3.5,
        "length_m": 24.4,
        "surface_type": "Paved Asphalt",
        "connectivity_degree": 2
      },
      "geometry": {
        "type": "LineString",
        "coordinates": [
          [
            77.20904538220132,
            28.614892496240813
          ],
          [
            77.20905407846786,
            28.61511251146351
          ]
        ]
      }
    },
    {
      "type": "Feature",
      "properties": {
        "road_id": "AI-RD-011",
        "hierarchy": "Access Lane / Footpath",
        "estimated_width_m": 3.5,
        "length_m": 14.2,
        "surface_type": "Paved Asphalt",
        "connectivity_degree": 2
      },
      "geometry": {
        "type": "LineString",
        "coordinates": [
          [
            77.20762575686877,
            28.613896953515308
          ],
          [
            77.20777090278257,
            28.613894588863904
          ]
        ]
      }
    },
    {
      "type": "Feature",
      "properties": {
        "road_id": "AI-RD-012",
        "hierarchy": "Access Lane / Footpath",
        "estimated_width_m": 3.5,
        "length_m": 28.21,
        "surface_type": "Paved Asphalt",
        "connectivity_degree": 2
      },
      "geometry": {
        "type": "LineString",
        "coordinates": [
          [
            77.2093003278602,
            28.613883196954138
          ],
          [
            77.2095884427867,
            28.613872183423084
          ]
        ]
      }
    },
    {
      "type": "Feature",
      "properties": {
        "road_id": "AI-RD-013",
        "hierarchy": "Access Lane / Footpath",
        "estimated_width_m": 3.5,
        "length_m": 27.4,
        "surface_type": "Paved Asphalt",
        "connectivity_degree": 2
      },
      "geometry": {
        "type": "LineString",
        "coordinates": [
          [
            77.20969173687867,
            28.613873205969877
          ],
          [
            77.2099717500214,
            28.6138659328648
          ]
        ]
      }
    },
    {
      "type": "Feature",
      "properties": {
        "road_id": "AI-RD-014",
        "hierarchy": "Access Lane / Footpath",
        "estimated_width_m": 3.5,
        "length_m": 13.2,
        "surface_type": "Paved Asphalt",
        "connectivity_degree": 2
      },
      "geometry": {
        "type": "LineString",
        "coordinates": [
          [
            77.20903883954693,
            28.614384617690035
          ],
          [
            77.20904133211988,
            28.61450367838746
          ]
        ]
      }
    },
    {
      "type": "Feature",
      "properties": {
        "road_id": "AI-RD-015",
        "hierarchy": "Access Lane / Footpath",
        "estimated_width_m": 3.5,
        "length_m": 18.4,
        "surface_type": "Paved Asphalt",
        "connectivity_degree": 2
      },
      "geometry": {
        "type": "LineString",
        "coordinates": [
          [
            77.20903494965269,
            28.614198810839465
          ],
          [
            77.20903147521517,
            28.61403284743425
          ]
        ]
      }
    },
    {
      "type": "Feature",
      "properties": {
        "road_id": "AI-RD-016",
        "hierarchy": "Access Lane / Footpath",
        "estimated_width_m": 3.5,
        "length_m": 18.4,
        "surface_type": "Paved Asphalt",
        "connectivity_degree": 2
      },
      "geometry": {
        "type": "LineString",
        "coordinates": [
          [
            77.20931552796124,
            28.613876633160867
          ],
          [
            77.20950360410227,
            28.613873566733684
          ]
        ]
      }
    },
    {
      "type": "Feature",
      "properties": {
        "road_id": "AI-RD-017",
        "hierarchy": "Access Lane / Footpath",
        "estimated_width_m": 3.5,
        "length_m": 23.61,
        "surface_type": "Paved Asphalt",
        "connectivity_degree": 2
      },
      "geometry": {
        "type": "LineString",
        "coordinates": [
          [
            77.20840770471892,
            28.61388421253788
          ],
          [
            77.20864908400766,
            28.613887496881116
          ]
        ]
      }
    },
    {
      "type": "Feature",
      "properties": {
        "road_id": "AI-RD-018",
        "hierarchy": "Access Lane / Footpath",
        "estimated_width_m": 3.5,
        "length_m": 15.8,
        "surface_type": "Paved Asphalt",
        "connectivity_degree": 2
      },
      "geometry": {
        "type": "LineString",
        "coordinates": [
          [
            77.20899996220732,
            28.61286941615499
          ],
          [
            77.20900294550346,
            28.61301192823723
          ]
        ]
      }
    },
    {
      "type": "Feature",
      "properties": {
        "road_id": "AI-RD-019",
        "hierarchy": "Access Lane / Footpath",
        "estimated_width_m": 3.5,
        "length_m": 27.4,
        "surface_type": "Paved Asphalt",
        "connectivity_degree": 2
      },
      "geometry": {
        "type": "LineString",
        "coordinates": [
          [
            77.2096988352828,
            28.613870383373282
          ],
          [
            77.2099789617607,
            28.613868522100876
          ]
        ]
      }
    },
    {
      "type": "Feature",
      "properties": {
        "road_id": "AI-RD-020",
        "hierarchy": "Access Lane / Footpath",
        "estimated_width_m": 3.5,
        "length_m": 19.21,
        "surface_type": "Paved Asphalt",
        "connectivity_degree": 2
      },
      "geometry": {
        "type": "LineString",
        "coordinates": [
          [
            77.20902800226953,
            28.614208849203486
          ],
          [
            77.20903878289772,
            28.614381911765065
          ]
        ]
      }
    },
    {
      "type": "Feature",
      "properties": {
        "road_id": "AI-RD-021",
        "hierarchy": "Access Lane / Footpath",
        "estimated_width_m": 3.5,
        "length_m": 11.31,
        "surface_type": "Paved Asphalt",
        "connectivity_degree": 2
      },
      "geometry": {
        "type": "LineString",
        "coordinates": [
          [
            77.20899889459885,
            28.613746452584532
          ],
          [
            77.20900084951634,
            28.613644462748987
          ]
        ]
      }
    }
  ]
}