{
  "type": "FeatureCollection",
  "features": [
    {
      "type": "Feature",
      "properties": {
        "road_id": "AI-RD-001",
        "hierarchy": "Major Arterial",
        "estimated_width_m": 10.0,
        "length_m": 599.5,
        "surface_type": "Paved Asphalt",
        "connectivity_degree": 2
      },
      "geometry": {
        "type": "LineString",
        "coordinates": [
          [
            80.22734450932013,
            12.913823088234489
          ],
          [
            80.2274570629073,
            12.919221547422945
          ]
        ]
      }
    },
    {
      "type": "Feature",
      "properties": {
        "road_id": "AI-RD-002",
        "hierarchy": "Major Arterial",
        "estimated_width_m": 10.0,
        "length_m": 413.5,
        "surface_type": "Paved Asphalt",
        "connectivity_degree": 2
      },
      "geometry": {
        "type": "LineString",
        "coordinates": [
          [
            80.22742765180558,
            12.915168221591843
          ],
          [
            80.2312235194156,
            12.915092048692058
          ]
        ]
      }
    },
    {
      "type": "Feature",
      "properties": {
        "road_id": "AI-RD-003",
        "hierarchy": "Major Arterial",
        "estimated_width_m": 10.0,
        "length_m": 599.5,
        "surface_type": "Paved Asphalt",
        "connectivity_degree": 2
      },
      "geometry": {
        "type": "LineString",
        "coordinates": [
          [
            80.22936406861807,
            12.913782572532357
          ],
          [
            80.22947666520582,
            12.919181014218157
          ]
        ]
      }
    },
    {
      "type": "Feature",
      "properties": {
        "road_id": "AI-RD-004",
        "hierarchy": "Major Arterial",
        "estimated_width_m": 10.0,
        "length_m": 193.5,
        "surface_type": "Paved Asphalt",
        "connectivity_degree": 2
      },
      "geometry": {
        "type": "LineString",
        "coordinates": [
          [
            80.22951671666179,
            12.918459516246482
          ],
          [
            80.23129303778269,
            12.918423854331126
          ]
        ]
      }
    },
    {
      "type": "Feature",
      "properties": {
        "road_id": "AI-RD-005",
        "hierarchy": "Major Arterial",
        "estimated_width_m": 10.0,
        "length_m": 174.0,
        "surface_type": "Paved Asphalt",
        "connectivity_degree": 2
      },
      "geometry": {
        "type": "LineString",
        "coordinates": [
          [
            80.2257577279337,
            12.917003459827665
          ],
          [
            80.22735504058711,
            12.916971418822293
          ]
        ]
      }
    },
    {
      "type": "Feature",
      "properties": {
        "road_id": "AI-RD-006",
        "hierarchy": "Access Lane / Footpath",
        "estimated_width_m": 3.5,
        "length_m": 28.0,
        "surface_type": "Paved Asphalt",
        "connectivity_degree": 2
      },
      "geometry": {
        "type": "LineString",
        "coordinates": [
          [
            80.22759351027341,
            12.91849811344197
          ],
          [
            80.22785055015189,
            12.918492955680057
          ]
        ]
      }
    },
    {
      "type": "Feature",
      "properties": {
        "road_id": "AI-RD-007",
        "hierarchy": "Access Lane / Footpath",
        "estimated_width_m": 3.5,
        "length_m": 28.0,
        "surface_type": "Paved Asphalt",
        "connectivity_degree": 2
      },
      "geometry": {
        "type": "LineString",
        "coordinates": [
          [
            80.22859892188625,
            12.916946460640373
          ],
          [
            80.22885595976294,
            12.91694130249768
          ]
        ]
      }
    },
    {
      "type": "Feature",
      "properties": {
        "road_id": "AI-RD-008",
        "hierarchy": "Access Lane / Footpath",
        "estimated_width_m": 3.5,
        "length_m": 28.0,
        "surface_type": "Paved Asphalt",
        "connectivity_degree": 2
      },
      "geometry": {
        "type": "LineString",
        "coordinates": [
          [
            80.22966379236406,
            12.916925089558971
          ],
          [
            80.229920829779,
            12.916919930377027
          ]
        ]
      }
    },
    {
      "type": "Feature",
      "properties": {
        "road_id": "AI-RD-009",
        "hierarchy": "Access Lane / Footpath",
        "estimated_width_m": 3.5,
        "length_m": 24.0,
        "surface_type": "Paved Asphalt",
        "connectivity_degree": 2
      },
      "geometry": {
        "type": "LineString",
        "coordinates": [
          [
            80.22915430715861,
            12.916935315053202
          ],
          [
            80.22937462513903,
            12.916930893338805
          ]
        ]
      }
    },
    {
      "type": "Feature",
      "properties": {
        "road_id": "AI-RD-010",
        "hierarchy": "Access Lane / Footpath",
        "estimated_width_m": 3.5,
        "length_m": 28.0,
        "surface_type": "Paved Asphalt",
        "connectivity_degree": 2
      },
      "geometry": {
        "type": "LineString",
        "coordinates": [
          [
            80.22681259962675,
            12.915180558846709
          ],
          [
            80.2270696364358,
            12.91517540315368
          ]
        ]
      }
    },
    {
      "type": "Feature",
      "properties": {
        "road_id": "AI-RD-011",
        "hierarchy": "Access Lane / Footpath",
        "estimated_width_m": 3.5,
        "length_m": 28.0,
        "surface_type": "Paved Asphalt",
        "connectivity_degree": 2
      },
      "geometry": {
        "type": "LineString",
        "coordinates": [
          [
            80.22785993737004,
            12.916961288903277
          ],
          [
            80.2281169755671,
            12.916956131481792
          ]
        ]
      }
    },
    {
      "type": "Feature",
      "properties": {
        "road_id": "AI-RD-012",
        "hierarchy": "Access Lane / Footpath",
        "estimated_width_m": 3.5,
        "length_m": 28.0,
        "surface_type": "Paved Asphalt",
        "connectivity_degree": 2
      },
      "geometry": {
        "type": "LineString",
        "coordinates": [
          [
            80.23070112124864,
            12.91690426703808
          ],
          [
            80.23095815821368,
            12.916899106843777
          ]
        ]
      }
    },
    {
      "type": "Feature",
      "properties": {
        "road_id": "AI-RD-013",
        "hierarchy": "Access Lane / Footpath",
        "estimated_width_m": 3.5,
        "length_m": 28.0,
        "surface_type": "Paved Asphalt",
        "connectivity_degree": 2
      },
      "geometry": {
        "type": "LineString",
        "coordinates": [
          [
            80.22808004994923,
            12.918488350323482
          ],
          [
            80.2283370896168,
            12.918483192086676
          ]
        ]
      }
    },
    {
      "type": "Feature",
      "properties": {
        "road_id": "AI-RD-014",
        "hierarchy": "Access Lane / Footpath",
        "estimated_width_m": 3.5,
        "length_m": 28.0,
        "surface_type": "Paved Asphalt",
        "connectivity_degree": 2
      },
      "geometry": {
        "type": "LineString",
        "coordinates": [
          [
            80.2263536050478,
            12.915189764817544
          ],
          [
            80.22661064205579,
            12.915184609572412
          ]
        ]
      }
    },
    {
      "type": "Feature",
      "properties": {
        "road_id": "AI-RD-015",
        "hierarchy": "Access Lane / Footpath",
        "estimated_width_m": 3.5,
        "length_m": 28.0,
        "surface_type": "Paved Asphalt",
        "connectivity_degree": 2
      },
      "geometry": {
        "type": "LineString",
        "coordinates": [
          [
            80.22640469938611,
            12.918521964827328
          ],
          [
            80.22666173977989,
            12.91851680822577
          ]
        ]
      }
    },
    {
      "type": "Feature",
      "properties": {
        "road_id": "AI-RD-016",
        "hierarchy": "Access Lane / Footpath",
        "estimated_width_m": 3.5,
        "length_m": 28.0,
        "surface_type": "Paved Asphalt",
        "connectivity_degree": 2
      },
      "geometry": {
        "type": "LineString",
        "coordinates": [
          [
            80.2300080388766,
            12.916918179883302
          ],
          [
            80.23026507614225,
            12.9169130203654
          ]
        ]
      }
    },
    {
      "type": "Feature",
      "properties": {
        "road_id": "AI-RD-017",
        "hierarchy": "Access Lane / Footpath",
        "estimated_width_m": 3.5,
        "length_m": 28.0,
        "surface_type": "Paved Asphalt",
        "connectivity_degree": 2
      },
      "geometry": {
        "type": "LineString",
        "coordinates": [
          [
            80.22895214836893,
            12.918470848144468
          ],
          [
            80.22920918765838,
            12.918465689056442
          ]
        ]
      }
    },
    {
      "type": "Feature",
      "properties": {
        "road_id": "AI-RD-018",
        "hierarchy": "Access Lane / Footpath",
        "estimated_width_m": 3.5,
        "length_m": 28.0,
        "surface_type": "Paved Asphalt",
        "connectivity_degree": 2
      },
      "geometry": {
        "type": "LineString",
        "coordinates": [
          [
            80.23037064498692,
            12.916910901205018
          ],
          [
            80.23062768209529,
            12.916905741333236
          ]
        ]
      }
    },
    {
      "type": "Feature",
      "properties": {
        "road_id": "AI-RD-019",
        "hierarchy": "Access Lane / Footpath",
        "estimated_width_m": 3.5,
        "length_m": 28.0,
        "surface_type": "Paved Asphalt",
        "connectivity_degree": 2
      },
      "geometry": {
        "type": "LineString",
        "coordinates": [
          [
            80.22832811400276,
            12.916951894840766
          ],
          [
            80.22858515199685,
            12.916946736962366
          ]
        ]
      }
    },
    {
      "type": "Feature",
      "properties": {
        "road_id": "AI-RD-020",
        "hierarchy": "Access Lane / Footpath",
        "estimated_width_m": 3.5,
        "length_m": 28.0,
        "surface_type": "Paved Asphalt",
        "connectivity_degree": 2
      },
      "geometry": {
        "type": "LineString",
        "coordinates": [
          [
            80.2259909990793,
            12.91519703696899
          ],
          [
            80.22624803624441,
            12.915191882077702
          ]
        ]
      }
    },
    {
      "type": "Feature",
      "properties": {
        "road_id": "AI-RD-021",
        "hierarchy": "Access Lane / Footpath",
        "estimated_width_m": 3.5,
        "length_m": 28.0,
        "surface_type": "Paved Asphalt",
        "connectivity_degree": 2
      },
      "geometry": {
        "type": "LineString",
        "coordinates": [
          [
            80.227524869553,
            12.916968011593926
          ],
          [
            80.22778190789532,
            12.916962854499449
          ]
        ]
      }
    },
    {
      "type": "Feature",
      "properties": {
        "road_id": "AI-RD-022",
        "hierarchy": "Access Lane / Footpath",
        "estimated_width_m": 3.5,
        "length_m": 28.0,
        "surface_type": "Paved Asphalt",
        "connectivity_degree": 2
      },
      "geometry": {
        "type": "LineString",
        "coordinates": [
          [
            80.22673058986643,
            12.918515426950606
          ],
          [
            80.22698763011898,
            12.918510270030957
          ]
        ]
      }
    },
    {
      "type": "Feature",
      "properties": {
        "road_id": "AI-RD-023",
        "hierarchy": "Access Lane / Footpath",
        "estimated_width_m": 3.5,
        "length_m": 28.0,
        "surface_type": "Paved Asphalt",
        "connectivity_degree": 2
      },
      "geometry": {
        "type": "LineString",
        "coordinates": [
          [
            80.228603309155,
            12.91847784936264
          ],
          [
            80.22886034859569,
            12.918472690615104
          ]
        ]
      }
    },
    {
      "type": "Feature",
      "properties": {
        "road_id": "AI-RD-024",
        "hierarchy": "Access Lane / Footpath",
        "estimated_width_m": 3.5,
        "length_m": 28.0,
        "surface_type": "Paved Asphalt",
        "connectivity_degree": 2
      },
      "geometry": {
        "type": "LineString",
        "coordinates": [
          [
            80.2270564801677,
            12.918508888670594
          ],
          [
            80.22731352027897,
            12.918503731432857
          ]
        ]
      }
    },
    {
      "type": "Feature",
      "properties": {
        "road_id": "AI-RD-025",
        "hierarchy": "Access Lane / Footpath",
        "estimated_width_m": 3.5,
        "length_m": 28.0,
        "surface_type": "Paved Asphalt",
        "connectivity_degree": 2
      },
      "geometry": {
        "type": "LineString",
        "coordinates": [
          [
            80.22594110839427,
            12.918531264492264
          ],
          [
            80.22619814898896,
            12.918526108343201
          ]
        ]
      }
    },
    {
      "type": "Feature",
      "properties": {
        "road_id": "AI-RD-026",
        "hierarchy": "Access Lane / Footpath",
        "estimated_width_m": 3.5,
        "length_m": 26.5,
        "surface_type": "Paved Asphalt",
        "connectivity_degree": 2
      },
      "geometry": {
        "type": "LineString",
        "coordinates": [
          [
            80.22834167960984,
            12.918483099973026
          ],
          [
            80.22858494919069,
            12.918478217835005
          ]
        ]
      }
    },
    {
      "type": "Feature",
      "properties": {
        "road_id": "AI-RD-027",
        "hierarchy": "Access Lane / Footpath",
        "estimated_width_m": 3.5,
        "length_m": 20.0,
        "surface_type": "Paved Asphalt",
        "connectivity_degree": 2
      },
      "geometry": {
        "type": "LineString",
        "coordinates": [
          [
            80.22713389562064,
            12.915174114191236
          ],
          [
            80.2273174932533,
            12.915170431355005
          ]
        ]
      }
    },
    {
      "type": "Feature",
      "properties": {
        "road_id": "AI-RD-028",
        "hierarchy": "Access Lane / Footpath",
        "estimated_width_m": 3.5,
        "length_m": 26.0,
        "surface_type": "Paved Asphalt",
        "connectivity_degree": 2
      },
      "geometry": {
        "type": "LineString",
        "coordinates": [
          [
            80.22574773165974,
            12.915201915474364
          ],
          [
            80.22598640912892,
            12.915197129018345
          ]
        ]
      }
    },
    {
      "type": "Feature",
      "properties": {
        "road_id": "AI-RD-029",
        "hierarchy": "Access Lane / Footpath",
        "estimated_width_m": 3.5,
        "length_m": 15.0,
        "surface_type": "Paved Asphalt",
        "connectivity_degree": 2
      },
      "geometry": {
        "type": "LineString",
        "coordinates": [
          [
            80.22620273899857,
            12.91852601626683
          ],
          [
            80.22634043927026,
            12.918523253938515
          ]
        ]
      }
    },
    {
      "type": "Feature",
      "properties": {
        "road_id": "AI-RD-030",
        "hierarchy": "Access Lane / Footpath",
        "estimated_width_m": 3.5,
        "length_m": 28.0,
        "surface_type": "Paved Asphalt",
        "connectivity_degree": 2
      },
      "geometry": {
        "type": "LineString",
        "coordinates": [
          [
            80.23096733810323,
            12.916898922546483
          ],
          [
            80.23122437495279,
            12.916893762092375
          ]
        ]
      }
    },
    {
      "type": "Feature",
      "properties": {
        "road_id": "AI-RD-031",
        "hierarchy": "Access Lane / Footpath",
        "estimated_width_m": 3.5,
        "length_m": 18.0,
        "surface_type": "Paved Asphalt",
        "connectivity_degree": 2
      },
      "geometry": {
        "type": "LineString",
        "coordinates": [
          [
            80.228860549724,
            12.916941210385708
          ],
          [
            80.22902578829888,
            12.91693789430149
          ]
        ]
      }
    },
    {
      "type": "Feature",
      "properties": {
        "road_id": "AI-RD-032",
        "hierarchy": "Access Lane / Footpath",
        "estimated_width_m": 3.5,
        "length_m": 16.0,
        "surface_type": "Paved Asphalt",
        "connectivity_degree": 2
      },
      "geometry": {
        "type": "LineString",
        "coordinates": [
          [
            80.22578963799167,
            12.91853430281976
          ],
          [
            80.22593651838264,
            12.91853135656407
          ]
        ]
      }
    }
  ]
}