{
  "type": "FeatureCollection",
  "features": [
    {
      "type": "Feature",
      "properties": {
        "road_id": "AI-RD-001",
        "hierarchy": "Access Lane / Footpath",
        "estimated_width_m": 3.5,
        "length_m": 31.5,
        "surface_type": "Paved Asphalt",
        "connectivity_degree": 2
      },
      "geometry": {
        "type": "LineString",
        "coordinates": [
          [
            77.2313273637767,
            28.614288323203052
          ],
          [
            77.2316493383751,
            28.614283021110268
          ]
        ]
      }
    },
    {
      "type": "Feature",
      "properties": {
        "road_id": "AI-RD-002",
        "hierarchy": "Access Lane / Footpath",
        "estimated_width_m": 3.5,
        "length_m": 31.5,
        "surface_type": "Paved Asphalt",
        "connectivity_degree": 2
      },
      "geometry": {
        "type": "LineString",
        "coordinates": [
          [
            77.2327582450258,
            28.61522567716595
          ],
          [
            77.23276425728265,
            28.61550979466602
          ]
        ]
      }
    },
    {
      "type": "Feature",
      "properties": {
        "road_id": "AI-RD-003",
        "hierarchy": "Access Lane / Footpath",
        "estimated_width_m": 3.5,
        "length_m": 35.5,
        "surface_type": "Paved Asphalt",
        "connectivity_degree": 2
      },
      "geometry": {
        "type": "LineString",
        "coordinates": [
          [
            77.23414355186351,
            28.614250944656703
          ],
          [
            77.23450641129229,
            28.614244961697487
          ]
        ]
      }
    },
    {
      "type": "Feature",
      "properties": {
        "road_id": "AI-RD-004",
        "hierarchy": "Major Arterial",
        "estimated_width_m": 10.0,
        "length_m": 125.0,
        "surface_type": "Paved Asphalt",
        "connectivity_degree": 2
      },
      "geometry": {
        "type": "LineString",
        "coordinates": [
          [
            77.23269176474876,
            28.612808675591584
          ],
          [
            77.23271562032237,
            28.613936126364777
          ]
        ]
      }
    },
    {
      "type": "Feature",
      "properties": {
        "road_id": "AI-RD-005",
        "hierarchy": "Access Lane / Footpath",
        "estimated_width_m": 3.5,
        "length_m": 37.5,
        "surface_type": "Paved Asphalt",
        "connectivity_degree": 2
      },
      "geometry": {
        "type": "LineString",
        "coordinates": [
          [
            77.23413342595641,
            28.614255622974824
          ],
          [
            77.23451672818624,
            28.614249302946302
          ]
        ]
      }
    },
    {
      "type": "Feature",
      "properties": {
        "road_id": "AI-RD-006",
        "hierarchy": "Access Lane / Footpath",
        "estimated_width_m": 3.5,
        "length_m": 33.0,
        "surface_type": "Paved Asphalt",
        "connectivity_degree": 2
      },
      "geometry": {
        "type": "LineString",
        "coordinates": [
          [
            77.23271424214258,
            28.613629375570287
          ],
          [
            77.2327205401586,
            28.613927022553806
          ]
        ]
      }
    },
    {
      "type": "Feature",
      "properties": {
        "road_id": "AI-RD-007",
        "hierarchy": "Access Lane / Footpath",
        "estimated_width_m": 3.5,
        "length_m": 31.0,
        "surface_type": "Paved Asphalt",
        "connectivity_degree": 2
      },
      "geometry": {
        "type": "LineString",
        "coordinates": [
          [
            77.23266473838284,
            28.612497835942495
          ],
          [
            77.2326706542895,
            28.612777443771417
          ]
        ]
      }
    },
    {
      "type": "Feature",
      "properties": {
        "road_id": "AI-RD-008",
        "hierarchy": "Access Lane / Footpath",
        "estimated_width_m": 3.5,
        "length_m": 20.5,
        "surface_type": "Paved Asphalt",
        "connectivity_degree": 2
      },
      "geometry": {
        "type": "LineString",
        "coordinates": [
          [
            77.23224729096997,
            28.614273172340262
          ],
          [
            77.23245682984249,
            28.61426972043861
          ]
        ]
      }
    },
    {
      "type": "Feature",
      "properties": {
        "road_id": "AI-RD-009",
        "hierarchy": "Access Lane / Footpath",
        "estimated_width_m": 3.5,
        "length_m": 18.5,
        "surface_type": "Paved Asphalt",
        "connectivity_degree": 2
      },
      "geometry": {
        "type": "LineString",
        "coordinates": [
          [
            77.23455288507387,
            28.61426675220897
          ],
          [
            77.23474198082171,
            28.614263633877364
          ]
        ]
      }
    },
    {
      "type": "Feature",
      "properties": {
        "road_id": "AI-RD-010",
        "hierarchy": "Access Lane / Footpath",
        "estimated_width_m": 3.5,
        "length_m": 32.5,
        "surface_type": "Paved Asphalt",
        "connectivity_degree": 2
      },
      "geometry": {
        "type": "LineString",
        "coordinates": [
          [
            77.23276153235481,
            28.615622623913982
          ],
          [
            77.23277284637196,
            28.615915676786297
          ]
        ]
      }
    },
    {
      "type": "Feature",
      "properties": {
        "road_id": "AI-RD-011",
        "hierarchy": "Access Lane / Footpath",
        "estimated_width_m": 3.5,
        "length_m": 19.0,
        "surface_type": "Paved Asphalt",
        "connectivity_degree": 2
      },
      "geometry": {
        "type": "LineString",
        "coordinates": [
          [
            77.23086739991388,
            28.61429589629645
          ],
          [
            77.23106160689981,
            28.61429269895825
          ]
        ]
      }
    },
    {
      "type": "Feature",
      "properties": {
        "road_id": "AI-RD-012",
        "hierarchy": "Access Lane / Footpath",
        "estimated_width_m": 3.5,
        "length_m": 37.51,
        "surface_type": "Paved Asphalt",
        "connectivity_degree": 2
      },
      "geometry": {
        "type": "LineString",
        "coordinates": [
          [
            77.23310116011328,
            28.614277149336058
          ],
          [
            77.23348427177336,
            28.614261812621436
          ]
        ]
      }
    },
    {
      "type": "Feature",
      "properties": {
        "road_id": "AI-RD-013",
        "hierarchy": "Access Lane / Footpath",
        "estimated_width_m": 3.5,
        "length_m": 36.5,
        "surface_type": "Paved Asphalt",
        "connectivity_degree": 2
      },
      "geometry": {
        "type": "LineString",
        "coordinates": [
          [
            77.2336223561247,
            28.61426404799578
          ],
          [
            77.23399534164248,
            28.614253388121593
          ]
        ]
      }
    },
    {
      "type": "Feature",
      "properties": {
        "road_id": "AI-RD-014",
        "hierarchy": "Access Lane / Footpath",
        "estimated_width_m": 3.5,
        "length_m": 17.5,
        "surface_type": "Paved Asphalt",
        "connectivity_degree": 2
      },
      "geometry": {
        "type": "LineString",
        "coordinates": [
          [
            77.23275232828655,
            28.614946069454717
          ],
          [
            77.23275566837093,
            28.615103912519068
          ]
        ]
      }
    },
    {
      "type": "Feature",
      "properties": {
        "road_id": "AI-RD-015",
        "hierarchy": "Access Lane / Footpath",
        "estimated_width_m": 3.5,
        "length_m": 24.5,
        "surface_type": "Paved Asphalt",
        "connectivity_degree": 2
      },
      "geometry": {
        "type": "LineString",
        "coordinates": [
          [
            77.23274707963677,
            28.61469803034544
          ],
          [
            77.23274240362282,
            28.614477050039685
          ]
        ]
      }
    },
    {
      "type": "Feature",
      "properties": {
        "road_id": "AI-RD-016",
        "hierarchy": "Access Lane / Footpath",
        "estimated_width_m": 3.5,
        "length_m": 24.5,
        "surface_type": "Paved Asphalt",
        "connectivity_degree": 2
      },
      "geometry": {
        "type": "LineString",
        "coordinates": [
          [
            77.23312141203317,
            28.6142677928482
          ],
          [
            77.23337183637273,
            28.614263665753167
          ]
        ]
      }
    },
    {
      "type": "Feature",
      "properties": {
        "road_id": "AI-RD-017",
        "hierarchy": "Access Lane / Footpath",
        "estimated_width_m": 3.5,
        "length_m": 31.52,
        "surface_type": "Paved Asphalt",
        "connectivity_degree": 2
      },
      "geometry": {
        "type": "LineString",
        "coordinates": [
          [
            77.23190998441487,
            28.61427872838053
          ],
          [
            77.23223214966735,
            28.614282444513616
          ]
        ]
      }
    },
    {
      "type": "Feature",
      "properties": {
        "road_id": "AI-RD-018",
        "hierarchy": "Access Lane / Footpath",
        "estimated_width_m": 3.5,
        "length_m": 21.0,
        "surface_type": "Paved Asphalt",
        "connectivity_degree": 2
      },
      "geometry": {
        "type": "LineString",
        "coordinates": [
          [
            77.23269935630246,
            28.61292584627948
          ],
          [
            77.23270336397616,
            28.613115258019494
          ]
        ]
      }
    },
    {
      "type": "Feature",
      "properties": {
        "road_id": "AI-RD-019",
        "hierarchy": "Access Lane / Footpath",
        "estimated_width_m": 3.5,
        "length_m": 36.5,
        "surface_type": "Paved Asphalt",
        "connectivity_degree": 2
      },
      "geometry": {
        "type": "LineString",
        "coordinates": [
          [
            77.23363248205798,
            28.614259369714585
          ],
          [
            77.23400565851904,
            28.61425772941046
          ]
        ]
      }
    },
    {
      "type": "Feature",
      "properties": {
        "road_id": "AI-RD-020",
        "hierarchy": "Access Lane / Footpath",
        "estimated_width_m": 3.5,
        "length_m": 25.52,
        "surface_type": "Paved Asphalt",
        "connectivity_degree": 2
      },
      "geometry": {
        "type": "LineString",
        "coordinates": [
          [
            77.23273714447673,
            28.614711728168878
          ],
          [
            77.23275223285596,
            28.61494155965282
          ]
        ]
      }
    },
    {
      "type": "Feature",
      "properties": {
        "road_id": "AI-RD-021",
        "hierarchy": "Access Lane / Footpath",
        "estimated_width_m": 3.5,
        "length_m": 15.01,
        "surface_type": "Paved Asphalt",
        "connectivity_degree": 2
      },
      "geometry": {
        "type": "LineString",
        "coordinates": [
          [
            77.23269851743449,
            28.614094306279362
          ],
          [
            77.23270076538432,
            28.613958927994087
          ]
        ]
      }
    }
  ]
}