{
  "type": "FeatureCollection",
  "features": [
    {
      "type": "Feature",
      "properties": {
        "conflict_id": "CONF-ENC-0001",
        "type": "Building Encroachment",
        "severity": "Critical",
        "building_id": "AI-BLD-upload_1787995594662-0001",
        "parcels_involved": [
          "UNSURVEYED-32",
          "UNSURVEYED-33"
        ],
        "encroachment_type": "Multi-Parcel Straddle",
        "description": "Building AI-BLD-upload_1787995594662-0001 extends across boundary of UNSURVEYED-32, UNSURVEYED-33",
        "suggested_action": "Verify setback in field with GNSS CORS survey or initiate boundary adjustment",
        "status": "Open"
      },
      "geometry": {
        "type": "Polygon",
        "coordinates": [
          [
            [
              77.23264828573382,
              28.612701569511398
            ],
            [
              77.23262510838433,
              28.612677095758933
            ],
            [
              77.23261542740894,
              28.61259834921766
            ],
            [
              77.23265785267608,
              28.612567062848765
            ],
            [
              77.23268137798681,
              28.612549714175135
            ],
            [
              77.23271024490316,
              28.612580195745394
            ],
            [
              77.23271897573011,
              28.612659802465483
            ],
            [
              77.23267655044714,
              28.612691088854195
            ],
            [
              77.23264828573382,
              28.612701569511398
            ]
          ]
        ]
      }
    },
    {
      "type": "Feature",
      "properties": {
        "conflict_id": "CONF-ENC-0002",
        "type": "Building Encroachment",
        "severity": "Critical",
        "building_id": "AI-BLD-upload_1787995594662-0015",
        "parcels_involved": [
          "UNSURVEYED-15",
          "UNSURVEYED-23"
        ],
        "encroachment_type": "Multi-Parcel Straddle",
        "description": "Building AI-BLD-upload_1787995594662-0015 extends across boundary of UNSURVEYED-15, UNSURVEYED-23",
        "suggested_action": "Verify setback in field with GNSS CORS survey or initiate boundary adjustment",
        "status": "Open"
      },
      "geometry": {
        "type": "Polygon",
        "coordinates": [
          [
            [
              77.2317614451958,
              28.613555293790153
            ],
            [
              77.23174899605097,
              28.613226173015903
            ],
            [
              77.23207126027819,
              28.613216680666422
            ],
            [
              77.23208369789184,
              28.613545470082318
            ],
            [
              77.2317614451958,
              28.613555293790153
            ]
          ]
        ]
      }
    },
    {
      "type": "Feature",
      "properties": {
        "conflict_id": "CONF-ENC-0003",
        "type": "Building Encroachment",
        "severity": "Critical",
        "building_id": "AI-BLD-upload_1787995594662-0021",
        "parcels_involved": [
          "UNSURVEYED-31",
          "UNSURVEYED-41"
        ],
        "encroachment_type": "Multi-Parcel Straddle",
        "description": "Building AI-BLD-upload_1787995594662-0021 extends across boundary of UNSURVEYED-31, UNSURVEYED-41",
        "suggested_action": "Verify setback in field with GNSS CORS survey or initiate boundary adjustment",
        "status": "Open"
      },
      "geometry": {
        "type": "Polygon",
        "coordinates": [
          [
            [
              77.23360987715225,
              28.613930862653856
            ],
            [
              77.23359837049736,
              28.613628790289308
            ],
            [
              77.23360840091092,
              28.613619602212683
            ],
            [
              77.23397646444678,
              28.613618046352933
            ],
            [
              77.23397784629499,
              28.613924796930956
            ],
            [
              77.23360987715225,
              28.613930862653856
            ]
          ]
        ]
      }
    },
    {
      "type": "Feature",
      "properties": {
        "conflict_id": "CONF-ENC-0004",
        "type": "Building Encroachment",
        "severity": "Critical",
        "building_id": "AI-BLD-upload_1787995594662-0022",
        "parcels_involved": [
          "UNSURVEYED-27",
          "UNSURVEYED-31"
        ],
        "encroachment_type": "Multi-Parcel Straddle",
        "description": "Building AI-BLD-upload_1787995594662-0022 extends across boundary of UNSURVEYED-27, UNSURVEYED-31",
        "suggested_action": "Verify setback in field with GNSS CORS survey or initiate boundary adjustment",
        "status": "Open"
      },
      "geometry": {
        "type": "Polygon",
        "coordinates": [
          [
            [
              77.23309880870983,
              28.61393928561414
            ],
            [
              77.2330947243736,
              28.613628075916107
            ],
            [
              77.2334653772456,
              28.613624287582432
            ],
            [
              77.23346943255657,
              28.613933203022977
            ],
            [
              77.23309880870983,
              28.61393928561414
            ]
          ]
        ]
      }
    },
    {
      "type": "Feature",
      "properties": {
        "conflict_id": "CONF-ENC-0005",
        "type": "Building Encroachment",
        "severity": "Critical",
        "building_id": "AI-BLD-upload_1787995594662-0027",
        "parcels_involved": [
          "UNSURVEYED-27",
          "UNSURVEYED-28",
          "UNSURVEYED-31",
          "UNSURVEYED-33",
          "UNSURVEYED-35",
          "UNSURVEYED-41",
          "UNSURVEYED-42",
          "UNSURVEYED-45"
        ],
        "encroachment_type": "Multi-Parcel Straddle",
        "description": "Building AI-BLD-upload_1787995594662-0027 extends across boundary of UNSURVEYED-27, UNSURVEYED-28, UNSURVEYED-31, UNSURVEYED-33, UNSURVEYED-35, UNSURVEYED-41, UNSURVEYED-42, UNSURVEYED-45",
        "suggested_action": "Verify setback in field with GNSS CORS survey or initiate boundary adjustment",
        "status": "Open"
      },
      "geometry": {
        "type": "Polygon",
        "coordinates": [
          [
            [
              77.23292413381103,
              28.61414066448254
            ],
            [
              77.23289838946407,
              28.614132065945856
            ],
            [
              77.23287207252652,
              28.61409640859154
            ],
            [
              77.23285836011925,
              28.61249519529458
            ],
            [
              77.23287397450774,
              28.612495091176118
            ],
            [
              77.2328876463633,
              28.614091541987875
            ],
            [
              77.23291825963958,
              28.614104670280934
            ],
            [
              77.2347379380704,
              28.61409252218792
            ],
            [
              77.23473809459868,
              28.614110761041722
            ],
            [
              77.23292413381103,
              28.61414066448254
            ]
          ]
        ]
      }
    },
    {
      "type": "Feature",
      "properties": {
        "conflict_id": "CONF-ENC-0006",
        "type": "Building Encroachment",
        "severity": "Critical",
        "building_id": "AI-BLD-upload_1787995594662-0029",
        "parcels_involved": [
          "UNSURVEYED-2",
          "UNSURVEYED-4",
          "UNSURVEYED-16",
          "UNSURVEYED-17",
          "UNSURVEYED-22",
          "UNSURVEYED-23",
          "UNSURVEYED-24"
        ],
        "encroachment_type": "Multi-Parcel Straddle",
        "description": "Building AI-BLD-upload_1787995594662-0029 extends across boundary of UNSURVEYED-2, UNSURVEYED-4, UNSURVEYED-16, UNSURVEYED-17, UNSURVEYED-22, UNSURVEYED-23, UNSURVEYED-24",
        "suggested_action": "Verify setback in field with GNSS CORS survey or initiate boundary adjustment",
        "status": "Open"
      },
      "geometry": {
        "type": "Polygon",
        "coordinates": [
          [
            [
              77.23065498268052,
              28.614178036503628
            ],
            [
              77.2306543153153,
              28.614146467841483
            ],
            [
              77.232478739861,
              28.614111911940604
            ],
            [
              77.23247530491321,
              28.61394955901989
            ],
            [
              77.23222478576122,
              28.613949174613488
            ],
            [
              77.23221791672148,
              28.613624468703666
            ],
            [
              77.23247325953506,
              28.613611239559255
            ],
            [
              77.23246671766802,
              28.61354367669942
            ],
            [
              77.2322161994793,
              28.613543292223547
            ],
            [
              77.23220933058158,
              28.61321858629238
            ],
            [
              77.23246467241819,
              28.61320535721797
            ],
            [
              77.23245813060036,
              28.613137794352276
            ],
            [
              77.23220761337491,
              28.613137409806924
            ],
            [
              77.2322007446192,
              28.61281270385442
            ],
            [
              77.23245608547886,
              28.612799474850014
            ],
            [
              77.23244978850286,
              28.61250182776322
            ],
            [
              77.23249067344777,
              28.612501154223764
            ],
            [
              77.23249658889425,
              28.6127807620858
            ],
            [
              77.23253861890167,
              28.612834206174
            ],
            [
              77.23254434372794,
              28.61310479440563
            ],
            [
              77.23250883945352,
              28.613161805543175
            ],
            [
              77.23250517598265,
              28.61318664444365
            ],
            [
              77.23254711075559,
              28.613235578713336
            ],
            [
              77.2325529311153,
              28.613510676730844
            ],
            [
              77.23251742672467,
              28.613567687874824
            ],
            [
              77.23251376324855,
              28.613592526774827
            ],
            [
              77.2325557936172,
              28.61364597083331
            ],
            [
              77.23256161409857,
              28.613921068832546
            ],
            [
              77.23252813007153,
              28.613974835609504
            ],
            [
              77.23252454528938,
              28.614102134552866
            ],
            [
              77.2325013207199,
              28.614139427190437
            ],
            [
              77.23247439248878,
              28.61414807456395
            ],
            [
              77.23065498268052,
              28.614178036503628
            ]
          ]
        ]
      }
    },
    {
      "type": "Feature",
      "properties": {
        "conflict_id": "CONF-ENC-0007",
        "type": "Building Encroachment",
        "severity": "Critical",
        "building_id": "AI-BLD-upload_1787995594662-0030",
        "parcels_involved": [
          "UNSURVEYED-45",
          "UNSURVEYED-46"
        ],
        "encroachment_type": "Multi-Parcel Straddle",
        "description": "Building AI-BLD-upload_1787995594662-0030 extends across boundary of UNSURVEYED-45, UNSURVEYED-46",
        "suggested_action": "Verify setback in field with GNSS CORS survey or initiate boundary adjustment",
        "status": "Open"
      },
      "geometry": {
        "type": "Polygon",
        "coordinates": [
          [
            [
              77.2345586468907,
              28.614312221506037
            ],
            [
              77.23450726119913,
              28.614294212113776
            ],
            [
              77.23453209386918,
              28.61423903994613
            ],
            [
              77.23455673679,
              28.61422202557037
            ],
            [
              77.23462828650545,
              28.61422084569174
            ],
            [
              77.23466446604942,
              28.61423352568766
            ],
            [
              77.23467485580821,
              28.614247145957098
            ],
            [
              77.23465376063771,
              28.614294014471476
            ],
            [
              77.23463019666718,
              28.614311041623008
            ],
            [
              77.2345586468907,
              28.614312221506037
            ]
          ]
        ]
      }
    },
    {
      "type": "Feature",
      "properties": {
        "conflict_id": "CONF-ENC-0008",
        "type": "Building Encroachment",
        "severity": "Critical",
        "building_id": "AI-BLD-upload_1787995594662-0032",
        "parcels_involved": [
          "UNSURVEYED-37",
          "UNSURVEYED-42",
          "UNSURVEYED-46"
        ],
        "encroachment_type": "Multi-Parcel Straddle",
        "description": "Building AI-BLD-upload_1787995594662-0032 extends across boundary of UNSURVEYED-37, UNSURVEYED-42, UNSURVEYED-46",
        "suggested_action": "Verify setback in field with GNSS CORS survey or initiate boundary adjustment",
        "status": "Open"
      },
      "geometry": {
        "type": "Polygon",
        "coordinates": [
          [
            [
              77.23414979094252,
              28.614318962971225
            ],
            [
              77.23409840530634,
              28.614300953420138
            ],
            [
              77.234123238197,
              28.614245781315535
            ],
            [
              77.23414788119062,
              28.614228767010438
            ],
            [
              77.23421943093064,
              28.61422758734733
            ],
            [
              77.23425561043561,
              28.61424026745507
            ],
            [
              77.23426600014456,
              28.614253887758757
            ],
            [
              77.23424490478665,
              28.614300756219592
            ],
            [
              77.23422134074359,
              28.614317783303715
            ],
            [
              77.23414979094252,
              28.614318962971225
            ]
          ]
        ]
      }
    },
    {
      "type": "Feature",
      "properties": {
        "conflict_id": "CONF-ENC-0009",
        "type": "Building Encroachment",
        "severity": "Critical",
        "building_id": "AI-BLD-upload_1787995594662-0040",
        "parcels_involved": [
          "UNSURVEYED-17",
          "UNSURVEYED-24"
        ],
        "encroachment_type": "Multi-Parcel Straddle",
        "description": "Building AI-BLD-upload_1787995594662-0040 extends across boundary of UNSURVEYED-17, UNSURVEYED-24",
        "suggested_action": "Verify setback in field with GNSS CORS survey or initiate boundary adjustment",
        "status": "Open"
      },
      "geometry": {
        "type": "Polygon",
        "coordinates": [
          [
            [
              77.23210550909643,
              28.614352651824174
            ],
            [
              77.23205412373721,
              28.614334641478955
            ],
            [
              77.23207895773092,
              28.614279469689617
            ],
            [
              77.23210360108843,
              28.614262455737848
            ],
            [
              77.23217515095124,
              28.614261277152327
            ],
            [
              77.23221133026121,
              28.614273957819197
            ],
            [
              77.23222171972091,
              28.614287578294157
            ],
            [
              77.23220062342595,
              28.61433444648718
            ],
            [
              77.23217705902027,
              28.614351473234265
            ],
            [
              77.23210550909643,
              28.614352651824174
            ]
          ]
        ]
      }
    },
    {
      "type": "Feature",
      "properties": {
        "conflict_id": "CONF-ENC-0010",
        "type": "Building Encroachment",
        "severity": "Critical",
        "building_id": "AI-BLD-upload_1787995594662-0046",
        "parcels_involved": [
          "UNSURVEYED-2",
          "UNSURVEYED-4"
        ],
        "encroachment_type": "Multi-Parcel Straddle",
        "description": "Building AI-BLD-upload_1787995594662-0046 extends across boundary of UNSURVEYED-2, UNSURVEYED-4",
        "suggested_action": "Verify setback in field with GNSS CORS survey or initiate boundary adjustment",
        "status": "Open"
      },
      "geometry": {
        "type": "Polygon",
        "coordinates": [
          [
            [
              77.23087893830548,
              28.614372850357498
            ],
            [
              77.23082755311249,
              28.614354839535807
            ],
            [
              77.23085238776801,
              28.614299667935658
            ],
            [
              77.23087703134384,
              28.6142826541959
            ],
            [
              77.23094858128024,
              28.61428147625693
            ],
            [
              77.23098476047319,
              28.614294157259273
            ],
            [
              77.23099514978334,
              28.614307777836995
            ],
            [
              77.23097405292619,
              28.61435464586929
            ],
            [
              77.23095048830294,
              28.614371672414144
            ],
            [
              77.23087893830548,
              28.614372850357498
            ]
          ]
        ]
      }
    },
    {
      "type": "Feature",
      "properties": {
        "conflict_id": "CONF-ENC-0011",
        "type": "Building Encroachment",
        "severity": "Critical",
        "building_id": "AI-BLD-upload_1787995594662-0048",
        "parcels_involved": [
          "UNSURVEYED-24",
          "UNSURVEYED-28"
        ],
        "encroachment_type": "Multi-Parcel Straddle",
        "description": "Building AI-BLD-upload_1787995594662-0048 extends across boundary of UNSURVEYED-24, UNSURVEYED-28",
        "suggested_action": "Verify setback in field with GNSS CORS survey or initiate boundary adjustment",
        "status": "Open"
      },
      "geometry": {
        "type": "Polygon",
        "coordinates": [
          [
            [
              77.23268645439674,
              28.614505490731773
            ],
            [
              77.23265801122214,
              28.614485810345254
            ],
            [
              77.23265359534705,
              28.61440227050599
            ],
            [
              77.23267761608257,
              28.614375238207572
            ],
            [
              77.23269398958635,
              28.614356811890946
            ],
            [
              77.23269314506078,
              28.614338459629874
            ],
            [
              77.23265332468385,
              28.614310907084818
            ],
            [
              77.23263625932825,
              28.61430781726293
            ],
            [
              77.2326178680598,
              28.614328514306965
            ],
            [
              77.23258591564556,
              28.61434473771122
            ],
            [
              77.23249382749992,
              28.614341743508184
            ],
            [
              77.23246538440475,
              28.614322063076315
            ],
            [
              77.23246703355696,
              28.61428353705553
            ],
            [
              77.23250115014937,
              28.614245143227663
            ],
            [
              77.23258400722774,
              28.614254541654386
            ],
            [
              77.23264571735044,
              28.614271570434195
            ],
            [
              77.23266444253012,
              28.614190057169957
            ],
            [
              77.23272046936728,
              28.61418011130623
            ],
            [
              77.23274891246605,
              28.61419979168439
            ],
            [
              77.23275237411742,
              28.614238233495623
            ],
            [
              77.2327694399886,
              28.614250041718478
            ],
            [
              77.23282449651761,
              28.614264113381445
            ],
            [
              77.23283576766892,
              28.614313552782896
            ],
            [
              77.23281346502779,
              28.614338651665438
            ],
            [
              77.23273422156502,
              28.61434680558234
            ],
            [
              77.23275580953243,
              28.614400586378693
            ],
            [
              77.2327524165376,
              28.614481847027108
            ],
            [
              77.23273011384292,
              28.61450694589843
            ],
            [
              77.23268645439674,
              28.614505490731773
            ]
          ]
        ]
      }
    },
    {
      "type": "Feature",
      "properties": {
        "conflict_id": "CONF-ENC-0012",
        "type": "Building Encroachment",
        "severity": "Critical",
        "building_id": "AI-BLD-upload_1787995594662-0050",
        "parcels_involved": [
          "UNSURVEYED-24",
          "UNSURVEYED-25"
        ],
        "encroachment_type": "Multi-Parcel Straddle",
        "description": "Building AI-BLD-upload_1787995594662-0050 extends across boundary of UNSURVEYED-24, UNSURVEYED-25",
        "suggested_action": "Verify setback in field with GNSS CORS survey or initiate boundary adjustment",
        "status": "Open"
      },
      "geometry": {
        "type": "Polygon",
        "coordinates": [
          [
            [
              77.2326940885502,
              28.614866274912625
            ],
            [
              77.23267091067898,
              28.614841801202243
            ],
            [
              77.23266122935554,
              28.61476305470043
            ],
            [
              77.23270365543317,
              28.614731768278777
            ],
            [
              77.23272718119333,
              28.614714419575893
            ],
            [
              77.23275604875948,
              28.61474490109374
            ],
            [
              77.23276477991665,
              28.614824507775488
            ],
            [
              77.23272235382318,
              28.61485579421696
            ],
            [
              77.2326940885502,
              28.614866274912625
            ]
          ]
        ]
      }
    },
    {
      "type": "Feature",
      "properties": {
        "conflict_id": "CONF-ENC-0013",
        "type": "Building Encroachment",
        "severity": "Critical",
        "building_id": "AI-BLD-upload_1787995594662-0053",
        "parcels_involved": [
          "UNSURVEYED-37",
          "UNSURVEYED-40"
        ],
        "encroachment_type": "Multi-Parcel Straddle",
        "description": "Building AI-BLD-upload_1787995594662-0053 extends across boundary of UNSURVEYED-37, UNSURVEYED-40",
        "suggested_action": "Verify setback in field with GNSS CORS survey or initiate boundary adjustment",
        "status": "Open"
      },
      "geometry": {
        "type": "Polygon",
        "coordinates": [
          [
            [
              77.23363469832927,
              28.615103410524007
            ],
            [
              77.23363090822237,
              28.614814752398512
            ],
            [
              77.23402730047736,
              28.614810699182378
            ],
            [
              77.23403105946218,
              28.615096905161526
            ],
            [
              77.23363469832927,
              28.615103410524007
            ]
          ]
        ]
      }
    },
    {
      "type": "Feature",
      "properties": {
        "conflict_id": "CONF-ENC-0014",
        "type": "Building Encroachment",
        "severity": "Critical",
        "building_id": "AI-BLD-upload_1787995594662-0055",
        "parcels_involved": [
          "UNSURVEYED-10",
          "UNSURVEYED-21"
        ],
        "encroachment_type": "Multi-Parcel Straddle",
        "description": "Building AI-BLD-upload_1787995594662-0055 extends across boundary of UNSURVEYED-10, UNSURVEYED-21",
        "suggested_action": "Verify setback in field with GNSS CORS survey or initiate boundary adjustment",
        "status": "Open"
      },
      "geometry": {
        "type": "Polygon",
        "coordinates": [
          [
            [
              77.23179994125447,
              28.615133641470088
            ],
            [
              77.23178952897828,
              28.615124790208668
            ],
            [
              77.23179420981302,
              28.614831630935846
            ],
            [
              77.23179435664093,
              28.614822435179644
            ],
            [
              77.23212558149687,
              28.61482655284024
            ],
            [
              77.23213599914475,
              28.614826682335288
            ],
            [
              77.23213133263921,
              28.615119003481418
            ],
            [
              77.23213118588646,
              28.615128196459118
            ],
            [
              77.23179994125447,
              28.615133641470088
            ]
          ]
        ]
      }
    },
    {
      "type": "Feature",
      "properties": {
        "conflict_id": "CONF-ENC-0015",
        "type": "Building Encroachment",
        "severity": "Critical",
        "building_id": "AI-BLD-upload_1787995594662-0075",
        "parcels_involved": [
          "UNSURVEYED-20",
          "UNSURVEYED-25",
          "UNSURVEYED-28",
          "UNSURVEYED-29",
          "UNSURVEYED-30",
          "UNSURVEYED-37",
          "UNSURVEYED-38",
          "UNSURVEYED-42",
          "UNSURVEYED-49"
        ],
        "encroachment_type": "Multi-Parcel Straddle",
        "description": "Building AI-BLD-upload_1787995594662-0075 extends across boundary of UNSURVEYED-20, UNSURVEYED-25, UNSURVEYED-28, UNSURVEYED-29, UNSURVEYED-30, UNSURVEYED-37, UNSURVEYED-38, UNSURVEYED-42, UNSURVEYED-49",
        "suggested_action": "Verify setback in field with GNSS CORS survey or initiate boundary adjustment",
        "status": "Open"
      },
      "geometry": {
        "type": "Polygon",
        "coordinates": [
          [
            [
              77.23291444665175,
              28.616098760395943
            ],
            [
              77.23288047065839,
              28.614493271162917
            ],
            [
              77.23289021491124,
              28.614470553727163
            ],
            [
              77.23293062342479,
              28.614447331004296
            ],
            [
              77.23307883402593,
              28.61444488868826
            ],
            [
              77.23311905159615,
              28.614412646309663
            ],
            [
              77.23315974637063,
              28.61440295292539
            ],
            [
              77.23345105667697,
              28.61439815187202
            ],
            [
              77.23349213324839,
              28.614406497589894
            ],
            [
              77.23353368713502,
              28.614437392294104
            ],
            [
              77.23358990492297,
              28.614436465667644
            ],
            [
              77.23363012232305,
              28.61440422314609
            ],
            [
              77.23367081703638,
              28.614394529611015
            ],
            [
              77.23396212721774,
              28.6143897274608
            ],
            [
              77.2340032038152,
              28.614398073021597
            ],
            [
              77.23404475783688,
              28.61442896756088
            ],
            [
              77.23410097560071,
              28.61442804072275
            ],
            [
              77.23414119283063,
              28.614395798058236
            ],
            [
              77.23418188748283,
              28.61438610437237
            ],
            [
              77.23447319753916,
              28.614381301125313
            ],
            [
              77.23451427416269,
              28.61438964652903
            ],
            [
              77.2345558283194,
              28.61442054090338
            ],
            [
              77.23474492434232,
              28.614417422552396
            ],
            [
              77.23474568845207,
              28.614453500921137
            ],
            [
              77.23453113434164,
              28.61446155045271
            ],
            [
              77.23453070338032,
              28.61468261476485
            ],
            [
              77.23413717814452,
              28.614689103442746
            ],
            [
              77.23412218232022,
              28.61446378206899
            ],
            [
              77.23402006365195,
              28.614469977028126
            ],
            [
              77.23401963162028,
              28.61469104139797
            ],
            [
              77.23362610621561,
              28.61469752859415
            ],
            [
              77.23361111147688,
              28.614472207103418
            ],
            [
              77.23350899274294,
              28.614478401679264
            ],
            [
              77.23350855964094,
              28.614699466106778
            ],
            [
              77.23311503406737,
              28.614705951821254
            ],
            [
              77.23310524656978,
              28.614485055793104
            ],
            [
              77.23292126092649,
              28.614488087649185
            ],
            [
              77.23295022218618,
              28.616098170859466
            ],
            [
              77.23291444665175,
              28.616098760395943
            ]
          ]
        ]
      }
    },
    {
      "type": "Feature",
      "properties": {
        "conflict_id": "CONF-ENC-0016",
        "type": "Building Encroachment",
        "severity": "Critical",
        "building_id": "AI-BLD-upload_1787995594662-0077",
        "parcels_involved": [
          "UNSURVEYED-2",
          "UNSURVEYED-4",
          "UNSURVEYED-10",
          "UNSURVEYED-11",
          "UNSURVEYED-12",
          "UNSURVEYED-17",
          "UNSURVEYED-18",
          "UNSURVEYED-20",
          "UNSURVEYED-24",
          "UNSURVEYED-25",
          "UNSURVEYED-26"
        ],
        "encroachment_type": "Multi-Parcel Straddle",
        "description": "Building AI-BLD-upload_1787995594662-0077 extends across boundary of UNSURVEYED-2, UNSURVEYED-4, UNSURVEYED-10, UNSURVEYED-11, UNSURVEYED-12, UNSURVEYED-17, UNSURVEYED-18, UNSURVEYED-20, UNSURVEYED-24, UNSURVEYED-25, UNSURVEYED-26",
        "suggested_action": "Verify setback in field with GNSS CORS survey or initiate boundary adjustment",
        "status": "Open"
      },
      "geometry": {
        "type": "Polygon",
        "coordinates": [
          [
            [
              77.23252602649448,
              28.61610516047074
            ],
            [
              77.23251728955655,
              28.61593387220261
            ],
            [
              77.23227708267902,
              28.615937829550287
            ],
            [
              77.23226437618064,
              28.615931742928765
            ],
            [
              77.23226046843436,
              28.615635841148183
            ],
            [
              77.2322673661503,
              28.615624628820544
            ],
            [
              77.23251572066646,
              28.615618101854693
            ],
            [
              77.23250870144336,
              28.615527990012563
            ],
            [
              77.23226849548799,
              28.615531947293878
            ],
            [
              77.23225578904064,
              28.615525860668463
            ],
            [
              77.23225188141473,
              28.61522995886909
            ],
            [
              77.23225877910814,
              28.615218746542688
            ],
            [
              77.23250713267174,
              28.6152122196453
            ],
            [
              77.23250011350773,
              28.615122107795834
            ],
            [
              77.2322599084745,
              28.615126065010784
            ],
            [
              77.23224720207817,
              28.615119978381486
            ],
            [
              77.23224329457264,
              28.614824076563316
            ],
            [
              77.23225019224351,
              28.61481286423816
            ],
            [
              77.23249352954397,
              28.614810931411615
            ],
            [
              77.23249673189365,
              28.614720651156
            ],
            [
              77.23225132163853,
              28.614720182701024
            ],
            [
              77.23223861529321,
              28.61471409606784
            ],
            [
              77.23223121910455,
              28.614494945084573
            ],
            [
              77.23212910019339,
              28.614501138625542
            ],
            [
              77.23213358412168,
              28.61471309941518
            ],
            [
              77.23212668644375,
              28.614724311734875
            ],
            [
              77.23179135618427,
              28.61472775903327
            ],
            [
              77.2317786498615,
              28.614721672355504
            ],
            [
              77.23177125462536,
              28.614502521294277
            ],
            [
              77.23166913565514,
              28.614508714490288
            ],
            [
              77.2316736186613,
              28.61472067534627
            ],
            [
              77.23166672093237,
              28.61473188764527
            ],
            [
              77.23133139055254,
              28.614735333806824
            ],
            [
              77.23131868425229,
              28.614729247084483
            ],
            [
              77.23131128996867,
              28.61451009594531
            ],
            [
              77.2312091709394,
              28.61451628879636
            ],
            [
              77.23121365302345,
              28.61472824971867
            ],
            [
              77.23120675524349,
              28.614739461996972
            ],
            [
              77.23087142474334,
              28.614742907021682
            ],
            [
              77.23085871846563,
              28.614736820254766
            ],
            [
              77.23085653120381,
              28.614522094708768
            ],
            [
              77.23066222842904,
              28.61452078196795
            ],
            [
              77.23066146571271,
              28.614484703498917
            ],
            [
              77.23083011947503,
              28.614481927118465
            ],
            [
              77.2308585598507,
              28.614435697781044
            ],
            [
              77.23092598358713,
              28.61442170099929
            ],
            [
              77.23117650402851,
              28.614422087746334
            ],
            [
              77.23120069601796,
              28.614433676549982
            ],
            [
              77.23123386626366,
              28.61447527978062
            ],
            [
              77.2312900841601,
              28.614474354106683
            ],
            [
              77.2313185243254,
              28.614428124683922
            ],
            [
              77.23138594797969,
              28.614414127676802
            ],
            [
              77.23163646834406,
              28.61441451357382
            ],
            [
              77.2316606603764,
              28.614426102292597
            ],
            [
              77.23169383079296,
              28.61446770540066
            ],
            [
              77.23175004866772,
              28.614466779536215
            ],
            [
              77.23177848862268,
              28.61442055002812
            ],
            [
              77.23184591219479,
              28.614406552795632
            ],
            [
              77.23209643248215,
              28.61440693784263
            ],
            [
              77.2321206245574,
              28.61441852647654
            ],
            [
              77.2321537951448,
              28.614460129462028
            ],
            [
              77.23221001299785,
              28.614459203407083
            ],
            [
              77.23223845274245,
              28.614412973813657
            ],
            [
              77.2323058762324,
              28.614398976355794
            ],
            [
              77.23251541534623,
              28.614395524349774
            ],
            [
              77.23257535094888,
              28.614424234814507
            ],
            [
              77.23259871344914,
              28.61446633398116
            ],
            [
              77.23260262577523,
              28.61465123588863
            ],
            [
              77.23257008974137,
              28.614704124391345
            ],
            [
              77.23254621158588,
              28.61474293916243
            ],
            [
              77.23253904900699,
              28.614787624595042
            ],
            [
              77.23259143872086,
              28.61481272029587
            ],
            [
              77.2326014274075,
              28.614836221994288
            ],
            [
              77.23261121393733,
              28.615057118105117
            ],
            [
              77.23257867779722,
              28.61511000661369
            ],
            [
              77.23255479956374,
              28.615148821389063
            ],
            [
              77.23254763697322,
              28.61519350682099
            ],
            [
              77.23260002689746,
              28.615218602505795
            ],
            [
              77.23261001563087,
              28.61524210420004
            ],
            [
              77.232619802277,
              28.615463000294927
            ],
            [
              77.23258726603062,
              28.615515888809355
            ],
            [
              77.23256338771915,
              28.61555470358903
            ],
            [
              77.23255622511701,
              28.61559938902027
            ],
            [
              77.23260861525162,
              28.615624484689043
            ],
            [
              77.2326186040318,
              28.61564798637911
            ],
            [
              77.23262839079422,
              28.61586888245806
            ],
            [
              77.23259585444157,
              28.615921770978343
            ],
            [
              77.23257197605213,
              28.615960585762323
            ],
            [
              77.2325669128328,
              28.616104486831002
            ],
            [
              77.23252602649448,
              28.61610516047074
            ]
          ]
        ]
      }
    }
  ]
}