{
  "type": "FeatureCollection",
  "features": [
    {
      "type": "Feature",
      "properties": {
        "parcel_id": "ULPIN-2026-3038-00001",
        "survey_number": "UNSURVEYED-1",
        "area_sqm": 134201.1,
        "perimeter_m": 2367.87,
        "confidence_score": 0.604,
        "verification_status": "Needs GT Verification",
        "building_count": 9,
        "building_coverage_ratio": 0.024,
        "landuse_class": "Vacant/Green",
        "owner_record": "Unregistered / Pending Survey",
        "has_gnss_control": false,
        "tax_assessment_annual_inr": 60390495,
        "tax_rate_per_sqm": 450,
        "lulc_confidence": 0.951
      },
      "geometry": {
        "type": "Polygon",
        "coordinates": [
          [
            [
              77.20748155162083,
              28.616180455212714
            ],
            [
              77.20747984874038,
              28.616179051579824
            ],
            [
              77.2074773643153,
              28.61617655844926
            ],
            [
              77.20747516878869,
              28.616173862443336
            ],
            [
              77.2074732833047,
              28.61617098952607
            ],
            [
              77.20747172602151,
              28.616167967365254
            ],
            [
              77.20747051193662,
              28.616164825065937
            ],
            [
              77.20746965274229,
              28.61616159289021
            ],
            [
              77.20746915671303,
              28.616158301965704
            ],
            [
              77.2074690286258,
              28.616154983985805
            ],
            [
              77.20746926971412,
              28.6161516709045
            ],
            [
              77.20746987765618,
              28.616148394628567
            ],
            [
              77.20747084659709,
              28.616145186710316
            ],
            [
              77.20747216720541,
              28.61614207804376
            ],
            [
              77.20747382676292,
              28.616139098567057
            ],
            [
              77.20757970830502,
              28.615970451265763
            ],
            [
              77.20758169082349,
              28.615967629671584
            ],
            [
              77.20758397721552,
              28.615964993134487
            ],
            [
              77.20758654546192,
              28.615962567045745
            ],
            [
              77.20758937082907,
              28.615960374769895
            ],
            [
              77.20759242610711,
              28.615958437419746
            ],
            [
              77.2075956818721,
              28.615956773653032
            ],
            [
              77.20759910676924,
              28.615955399492705
            ],
            [
              77.20760266781491,
              28.61595432817267
            ],
            [
              77.20760633071433,
              28.615953570010326
            ],
            [
              77.20761006019178,
              28.61595313230718
            ],
            [
              77.20761382033044,
              28.61595301927853
            ],
            [
              77.2076150186702,
              28.615953087176297
            ],
            [
              77.2076157846471,
              28.615953008296398
            ],
            [
              77.20761954635721,
              28.61595294853339
            ],
            [
              77.20762329659206,
              28.615953214412844
            ],
            [
              77.2076269992349,
              28.6159538033742
            ],
            [
              77.2076306186273,
              28.615954709745427
            ],
            [
              77.20763411991253,
              28.615955924797703
            ],
            [
              77.20763746937133,
              28.6159574368294
            ],
            [
              77.20764063474664,
              28.615959231278847
            ],
            [
              77.20764358555415,
              28.615961290864522
            ],
            [
              77.20764629337599,
              28.615963595751506
            ],
            [
              77.20764873213434,
              28.615966123742496
            ],
            [
              77.20765087834266,
              28.615968850491573
            ],
            [
              77.20765271133175,
              28.61597174973865
            ],
            [
              77.20765421344892,
              28.615974793562437
            ],
            [
              77.20765537022791,
              28.61597795264923
            ],
            [
              77.20765617052832,
              28.615981196575323
            ],
            [
              77.20765660664277,
              28.61598449409994
            ],
            [
              77.20765667437121,
              28.615987813466123
            ],
            [
              77.20765637306133,
              28.61599112270655
            ],
            [
              77.2076557056149,
              28.615994389951457
            ],
            [
              77.20765467845973,
              28.615997583735446
            ],
            [
              77.20765330148787,
              28.616000673300654
            ],
            [
              77.2076515879603,
              28.616003628892855
            ],
            [
              77.20754458997257,
              28.616167783019307
            ],
            [
              77.20754255638565,
              28.616170576173197
            ],
            [
              77.20754022232934,
              28.616173179990252
            ],
            [
              77.20753957038566,
              28.616173776364157
            ],
            [
              77.20753891559795,
              28.616174708280134
            ],
            [
              77.20753662920056,
              28.616177344816702
            ],
            [
              77.20753424527427,
              28.616179596781855
            ],
            [
              77.21160264679354,
              28.61611325668714
            ],
            [
              77.21154399646046,
              28.613314997730477
            ],
            [
              77.21026224456779,
              28.613498210605467
            ],
            [
              77.21026259341673,
              28.613498868652577
            ],
            [
              77.210263845882,
              28.613501999187104
            ],
            [
              77.21026474458775,
              28.613505222977007
            ],
            [
              77.21026528087894,
              28.613508508975443
            ],
            [
              77.21026544959075,
              28.61351182553645
            ],
            [
              77.21026524909838,
              28.613515140719738
            ],
            [
              77.21026468133263,
              28.613518422598275
            ],
            [
              77.21026375176135,
              28.613521639565782
            ],
            [
              77.21026246933681,
              28.61352476064109
            ],
            [
              77.21026084640943,
              28.613527755766544
            ],
            [
              77.21025889860884,
              28.61353059609742
            ],
            [
              77.21025664469342,
              28.61353325427977
            ],
            [
              77.21025410636962,
              28.613535704713836
            ],
            [
              77.21025130808285,
              28.613537923800592
            ],
            [
              77.21024827678214,
              28.613539890168983
            ],
            [
              77.2102450416606,
              28.61354158488181
            ],
            [
              77.21024163387423,
              28.613542991618036
            ],
            [
              77.21002446187754,
              28.613621423017733
            ],
            [
              77.21002091423995,
              28.613622528224287
            ],
            [
              77.21001726092257,
              28.613623321262587
            ],
            [
              77.21001353710892,
              28.61362379449524
            ],
            [
              77.21001255145346,
              28.613623833536373
            ],
            [
              77.2097113152715,
              28.613728642734742
            ],
            [
              77.20970775177153,
              28.613729707474306
            ],
            [
              77.20970463057928,
              28.613730347446264
            ],
            [
              77.20969640626612,
              28.61373328666229
            ],
            [
              77.2096928540627,
              28.613734380400793
            ],
            [
              77.2096891974752,
              28.61373516163168
            ],
            [
              77.20968547171859,
              28.613735622831282
            ],
            [
              77.20968171267396,
              28.613735759557958
            ],
            [
              77.20967795654302,
              28.613735570494974
            ],
            [
              77.20967423949938,
              28.613735057463092
            ],
            [
              77.20967059734026,
              28.61373422540312
            ],
            [
              77.20966783844685,
              28.61373333258193
            ],
            [
              77.20966685772332,
              28.613733736348514
            ],
            [
              77.2096633088072,
              28.61373483836551
            ],
            [
              77.20965965457164,
              28.613735628119358
            ],
            [
              77.20946097715895,
              28.613769545216172
            ],
            [
              77.20945725279378,
              28.61377001509576
            ],
            [
              77.20945349416974,
              28.613770160581097
            ],
            [
              77.20944973748445,
              28.613769980271073
            ],
            [
              77.2094460189169,
              28.613769475902185
            ],
            [
              77.20944237427898,
              28.613768652331757
            ],
            [
              77.20943883867054,
              28.61376751749125
            ],
            [
              77.20943544614147,
              28.613766082309812
            ],
            [
              77.20943222936368,
              28.613764360609014
            ],
            [
              77.20942921931655,
              28.613762368969805
            ],
            [
              77.20942644498848,
              28.61376012657277
            ],
            [
              77.20942393309775,
              28.613757655013426
            ],
            [
              77.20942170783526,
              28.613754978094267
            ],
            [
              77.2094197906315,
              28.613752121595493
            ],
            [
              77.20941819995016,
              28.613749113026767
            ],
            [
              77.20941695111036,
              28.613745981362264
            ],
            [
              77.20941605613908,
              28.613742756761635
            ],
            [
              77.20941552365537,
              28.613739470279555
            ],
            [
              77.20941535878727,
              28.61373615356665
            ],
            [
              77.20941556312253,
              28.61373283856468
            ],
            [
              77.20941613469327,
              28.61372955719892
            ],
            [
              77.20941706799492,
              28.613726341070734
            ],
            [
              77.20941835403922,
              28.613723221153165
            ],
            [
              77.20941998044086,
              28.61372022749273
            ],
            [
              77.20942193153664,
              28.61371738892001
            ],
            [
              77.20942418853646,
              28.613714732771985
            ],
            [
              77.20942672970415,
              28.61371228462881
            ],
            [
              77.20942953056688,
              28.613710068067412
            ],
            [
              77.2094325641508,
              28.613708104434494
            ],
            [
              77.20943580124086,
              28.613706412640887
            ],
            [
              77.20943921066213,
              28.613705008979473
            ],
            [
              77.20944275958,
              28.613703906968272
            ],
            [
              77.20944641381654,
              28.61370311722024
            ],
            [
              77.20964509111178,
              28.613669200151108
            ],
            [
              77.2096488154722,
              28.613668730266586
            ],
            [
              77.20965257409199,
              28.613668584776043
            ],
            [
              77.2096563307736,
              28.613668765080625
            ],
            [
              77.20966004933815,
              28.613669269443893
            ],
            [
              77.20966369397388,
              28.61367009300856
            ],
            [
              77.20966655601609,
              28.613671011647057
            ],
            [
              77.20966762418418,
              28.61367057490832
            ],
            [
              77.20999036343522,
              28.61355523345847
            ],
            [
              77.2099939156291,
              28.613554139712644
            ],
            [
              77.20999757220758,
              28.613553358473975
            ],
            [
              77.21000129795584,
              28.613552897266214
            ],
            [
              77.21000505699293,
              28.61355276053104
            ],
            [
              77.21000744619198,
              28.613552880784844
            ],
            [
              77.21001512939037,
              28.613550207554823
            ],
            [
              77.21001869288075,
              28.613549142807653
            ],
            [
              77.21002235748026,
              28.613548391405097
            ],
            [
              77.21002514510239,
              28.61354806946581
            ],
            [
              77.21009832687487,
              28.61352163999369
            ],
            [
              77.20644674682828,
              28.614043520790208
            ],
            [
              77.20646323712837,
              28.61483212347543
            ],
            [
              77.20665574567303,
              28.61476358001345
            ],
            [
              77.2066592995107,
              28.614762490312778
            ],
            [
              77.20666295727715,
              28.61476171323839
            ],
            [
              77.20666668374612,
              28.61476125627394
            ],
            [
              77.20667044302968,
              28.614761123820227
            ],
            [
              77.20667419892393,
              28.614761317152865
            ],
            [
              77.2066779152576,
              28.614761834409933
            ],
            [
              77.20668155624037,
              28.614762670609974
            ],
            [
              77.20668508680764,
              28.61476381769995
            ],
            [
              77.20668847295813,
              28.614765264632737
            ],
            [
              77.2066916820814,
              28.614766997473616
            ],
            [
              77.20669468327185,
              28.614768999534366
            ],
            [
              77.20669744762638,
              28.614771251534094
            ],
            [
              77.20669994852274,
              28.61477373178481
            ],
            [
              77.20670216187597,
              28.614776416400357
            ],
            [
              77.20670406637021,
              28.61477927952643
            ],
            [
              77.20670564366415,
              28.614782293589595
            ],
            [
              77.20670687856757,
              28.61478542956277
            ],
            [
              77.20670775918764,
              28.614788657244834
            ],
            [
              77.20670827704348,
              28.61479194555145
            ],
            [
              77.20670842714783,
              28.614795262814447
            ],
            [
              77.20670820805503,
              28.614798577086766
            ],
            [
              77.2067076218751,
              28.614801856450136
            ],
            [
              77.20670667425317,
              28.614805069322518
            ],
            [
              77.20670537431536,
              28.614808184762175
            ],
            [
              77.20670373458076,
              28.61481117276571
            ],
            [
              77.20670177084087,
              28.61481400455701
            ],
            [
              77.20669950200757,
              28.614816652864363
            ],
            [
              77.20669694993093,
              28.614819092183115
            ],
            [
              77.20669413918887,
              28.61482129902126
            ],
            [
              77.20669109685038,
              28.61482325212574
            ],
            [
              77.2066878522148,
              28.614824932687068
            ],
            [
              77.20668443652981,
              28.614826324520518
            ],
            [
              77.2064905800855,
              28.61489534791994
            ],
            [
              77.20648702624138,
              28.61489643761651
            ],
            [
              77.2064833684687,
              28.614897214686454
            ],
            [
              77.20647964199382,
              28.614897671646165
            ],
            [
              77.20647588270478,
              28.614897804094856
            ],
            [
              77.20647212680562,
              28.614897610756973
            ],
            [
              77.20646841046775,
              28.614897093494477
            ],
            [
              77.20646476948154,
              28.614896257288873
            ],
            [
              77.2064645769377,
              28.614896194730644
            ],
            [
              77.20649177046732,
              28.616196575902023
            ],
            [
              77.20748155162083,
              28.616180455212714
            ]
          ],
          [
            [
              77.20894517613871,
              28.61394051677937
            ],
            [
              77.20894385267268,
              28.613943624488527
            ],
            [
              77.20894219038468,
              28.61394660276283
            ],
            [
              77.20893728472463,
              28.613954401527618
            ],
            [
              77.2089387644206,
              28.613953941098753
            ],
            [
              77.2089424180841,
              28.613953149254215
            ],
            [
              77.20894614210982,
              28.613952677238323
            ],
            [
              77.2089499006334,
              28.613952529596833
            ],
            [
              77.20895365745822,
              28.613952707751608
            ],
            [
              77.20895737640403,
              28.61395320998694
            ],
            [
              77.2089610216554,
              28.613954031466005
            ],
            [
              77.20896451072755,
              28.613955149100857
            ],
            [
              77.20905781367671,
              28.61393036789256
            ],
            [
              77.20906146513877,
              28.6139295681837
            ],
            [
              77.20906518784719,
              28.613929088150996
            ],
            [
              77.20906894595024,
              28.61392893241744
            ],
            [
              77.20907270325542,
              28.61392910248281
            ],
            [
              77.20907642357781,
              28.613929596709312
            ],
            [
              77.20908007108876,
              28.61393041033725
            ],
            [
              77.20908361066074,
              28.613931535530963
            ],
            [
              77.20908700820577,
              28.613932961454218
            ],
            [
              77.20909023100367,
              28.61393467437462
            ],
            [
              77.20909324801714,
              28.613936657795804
            ],
            [
              77.20909603019071,
              28.613938892616364
            ],
            [
              77.20909855073054,
              28.61394135731377
            ],
            [
              77.20910078536244,
              28.613944028151653
            ],
            [
              77.20910271256567,
              28.613946879408406
            ],
            [
              77.20910431378019,
              28.613949883624873
            ],
            [
              77.20910557358545,
              28.613953011868816
            ],
            [
              77.20910647984877,
              28.613956234013553
            ],
            [
              77.20910702384232,
              28.613959519028086
            ],
            [
              77.20910720032711,
              28.61396283527592
            ],
            [
              77.20910700760348,
              28.613966150819792
            ],
            [
              77.2091064475274,
              28.613969433729192
            ],
            [
              77.20910552549269,
              28.613972652387904
            ],
            [
              77.20910425037901,
              28.61397577579849
            ],
            [
              77.20910263446639,
              28.61397877388079
            ],
            [
              77.20910069331693,
              28.61398161776161
            ],
            [
              77.2090984456249,
              28.613984280052826
            ],
            [
              77.20909591303683,
              28.61398673511509
            ],
            [
              77.20909311994292,
              28.613988959304812
            ],
            [
              77.20909009324218,
              28.6139909312018
            ],
            [
              77.20908686208341,
              28.61399263181559
            ],
            [
              77.20908345758446,
              28.613994044768337
            ],
            [
              77.20907991253249,
              28.61399515645253
            ],
            [
              77.20887798217228,
              28.614048788953006
            ],
            [
              77.2088778915347,
              28.61404882165179
            ],
            [
              77.20883036877747,
              28.614124370662992
            ],
            [
              77.20882838367012,
              28.614127190818667
            ],
            [
              77.20882609486678,
              28.61412982569717
            ],
            [
              77.20882352440987,
              28.614132249923166
            ],
            [
              77.20882069705426,
              28.614134440150025
            ],
            [
              77.20881764002898,
              28.61413637528464
            ],
            [
              77.20881438277483,
              28.614138036690594
            ],
            [
              77.20881095666098,
              28.61413940836764
            ],
            [
              77.2088073946828,
              28.614140477105746
            ],
            [
              77.20880373114409,
              28.61414123261238
            ],
            [
              77.20880000132678,
              28.614141667611594
            ],
            [
              77.20879624115109,
              28.6141417779141
            ],
            [
              77.20879248682958,
              28.614141562457604
            ],
            [
              77.20878877451847,
              28.614141023317103
            ],
            [
              77.20878513996938,
              28.614140165684788
            ],
            [
              77.20878161818501,
              28.614138997820145
            ],
            [
              77.20877824308215,
              28.61413753097036
            ],
            [
              77.20877504716485,
              28.614135779262007
            ],
            [
              77.20877206121158,
              28.614133759565004
            ],
            [
              77.20876931397873,
              28.614131491330156
            ],
            [
              77.20876683192364,
              28.614128996401817
            ],
            [
              77.20876463894986,
              28.614126298807527
            ],
            [
              77.20876275617691,
              28.614123424526614
            ],
            [
              77.20876120173692,
              28.61412040123997
            ],
            [
              77.20875999059997,
              28.614117258063533
            ],
            [
              77.20875913442994,
              28.61411402526781
            ],
            [
              77.20875864147219,
              28.6141107339864
            ],
            [
              77.20875851647415,
              28.614107415916152
            ],
            [
              77.20875876063955,
              28.614104103011893
            ],
            [
              77.20875937161696,
              28.6141008271787
            ],
            [
              77.20876034352226,
              28.61409761996465
            ],
            [
              77.20876166699546,
              28.61409451225694
            ],
            [
              77.20876332929075,
              28.614091533984503
            ],
            [
              77.20876483364475,
              28.61408914245129
            ],
            [
              77.20876319600393,
              28.61408949736833
            ],
            [
              77.20875947197223,
              28.6140899693795
            ],
            [
              77.20875571344314,
              28.614090117015984
            ],
            [
              77.20875195661336,
              28.61408993885596
            ],
            [
              77.20874823766326,
              28.61408943661522
            ],
            [
              77.20874459240838,
              28.61408861513061
            ],
            [
              77.20874105595458,
              28.61408748231348
            ],
            [
              77.20873766235984,
              28.614086049073496
            ],
            [
              77.20873444430637,
              28.614084329213537
            ],
            [
              77.20873237983226,
              28.614082965074914
            ],
            [
              77.20872937143766,
              28.614084110273012
            ],
            [
              77.20847651597686,
              28.61416763229328
            ],
            [
              77.20847293201517,
              28.614168642187607
            ],
            [
              77.208469253135,
              28.614169337232486
            ],
            [
              77.208465514766,
              28.614169710734235
            ],
            [
              77.20846175291075,
              28.61416975909583
            ],
            [
              77.208458003798,
              28.614169481851523
            ],
            [
              77.20845430353378,
              28.614168881671322
            ],
            [
              77.20845068775371,
              28.614167964335294
            ],
            [
              77.20844719127975,
              28.6141667386779
            ],
            [
              77.20844384778488,
              28.61416521650289
            ],
            [
              77.2084406894688,
              28.614163412469665
            ],
            [
              77.20843774674785,
              28.614161343952052
            ],
            [
              77.20843504796204,
              28.614159030871022
            ],
            [
              77.20843261910215,
              28.614156495502833
            ],
            [
              77.20843048355945,
              28.61415376226448
            ],
            [
              77.20842866190036,
              28.614150857478553
            ],
            [
              77.20842717166843,
              28.61414780911974
            ],
            [
              77.2084260272154,
              28.61414464654542
            ],
            [
              77.20842523956293,
              28.614141400212926
            ],
            [
              77.20842481629653,
              28.61413810138621
            ],
            [
              77.20842476149244,
              28.614134781834796
            ],
            [
              77.20842507567845,
              28.614131473527774
            ],
            [
              77.2084257558287,
              28.614128208325955
            ],
            [
              77.20842679539295,
              28.614125017675004
            ],
            [
              77.20842818435963,
              28.614121932302627
            ],
            [
              77.20842990935216,
              28.614118981922644
            ],
            [
              77.20843195375794,
              28.61411619494882
            ],
            [
              77.20843429788815,
              28.614113598221216
            ],
            [
              77.20843691916758,
              28.61411121674773
            ],
            [
              77.20843979235185,
              28.614109073463222
            ],
            [
              77.20844288977065,
              28.614107189008696
            ],
            [
              77.20844618159411,
              28.614105581532467
            ],
            [
              77.20844963612024,
              28.614104266515387
            ],
            [
              77.20870249145746,
              28.614020744551762
            ],
            [
              77.20870607541158,
              28.61401973465173
            ],
            [
              77.20870975428458,
              28.614019039600784
            ],
            [
              77.20871349264694,
              28.614018666092623
            ],
            [
              77.20871725449621,
              28.61401861772434
            ],
            [
              77.20872100360373,
              28.61401889496173
            ],
            [
              77.20872470386362,
              28.614019495134855
            ],
            [
              77.20872831964039,
              28.614020412463738
            ],
            [
              77.20873181611212,
              28.61402163811399
            ],
            [
              77.20873515960596,
              28.614023160281942
            ],
            [
              77.20873831792223,
              28.614024964308285
            ],
            [
              77.20873945919976,
              28.614025766540003
            ],
            [
              77.20874138200415,
              28.614024973581934
            ],
            [
              77.20882393095862,
              28.613995192936198
            ],
            [
              77.20887515098397,
              28.613913766134605
            ],
            [
              77.2088771360864,
              28.613910945978446
            ],
            [
              77.20887942488405,
              28.613908311099333
            ],
            [
              77.2088819953345,
              28.613905886872576
            ],
            [
              77.20888482268293,
              28.613903696644776
            ],
            [
              77.20888787970044,
              28.613901761509023
            ],
            [
              77.20889113694628,
              28.613900100101713
            ],
            [
              77.20889456305137,
              28.613898728423077
            ],
            [
              77.20889812502053,
              28.613897659683136
            ],
            [
              77.20890178855004,
              28.613896904174428
            ],
            [
              77.20890551835814,
              28.613896469172893
            ],
            [
              77.20890927852479,
              28.613896358867848
            ],
            [
              77.20891303283753,
              28.61389657432157
            ],
            [
              77.20891674514034,
              28.613897113459124
            ],
            [
              77.20892037968174,
              28.613897971088335
            ],
            [
              77.20892390145914,
              28.613899138949765
            ],
            [
              77.20892727655593,
              28.61390060579628
            ],
            [
              77.20893047246808,
              28.613902357501345
            ],
            [
              77.20893345841728,
              28.613904377195116
            ],
            [
              77.20893620564716,
              28.61390664542683
            ],
            [
              77.20893868770044,
              28.61390914035221
            ],
            [
              77.20894088067357,
              28.61391183794376
            ],
            [
              77.20894276344701,
              28.613914712222233
            ],
            [
              77.20894431788861,
              28.61391773550675
            ],
            [
              77.20894552902821,
              28.613920878681444
            ],
            [
              77.2089463852019,
              28.613924111475853
            ],
            [
              77.20894687816417,
              28.61392740275639
            ],
            [
              77.20894700316752,
              28.613930720826232
            ],
            [
              77.20894675900806,
              28.613934033730565
            ],
            [
              77.20894614803714,
              28.613937309564303
            ],
            [
              77.20894517613871,
              28.61394051677937
            ]
          ],
          [
            [
              77.20803227610816,
              28.614354514431625
            ],
            [
              77.20802925106108,
              28.614356488319032
            ],
            [
              77.20802602132613,
              28.614358191057605
            ],
            [
              77.20802261800746,
              28.614359606249046
            ],
            [
              77.20779429307804,
              28.614442727332086
            ],
            [
              77.20779074894591,
              28.614443841341593
            ],
            [
              77.20778709813834,
              28.614444643446078
            ],
            [
              77.20778337581466,
              28.614445125920838
            ],
            [
              77.2077796178229,
              28.614445284119356
            ],
            [
              77.2077758603546,
              28.6144451165181
            ],
            [
              77.20777213959627,
              28.614444624731156
            ],
            [
              77.20776849138092,
              28.614443813494713
            ],
            [
              77.20776495084283,
              28.614442690621424
            ],
            [
              77.20776155207938,
              28.614441266925176
            ],
            [
              77.20775832782255,
              28.614439556116945
            ],
            [
              77.20775564117075,
              28.614437792625207
            ],
            [
              77.20775473065046,
              28.614438831487824
            ],
            [
              77.20775214833728,
              28.614441245891012
            ],
            [
              77.2077493102728,
              28.614443425317546
            ],
            [
              77.20774624378913,
              28.614445348778336
            ],
            [
              77.20774297841822,
              28.61444699774939
            ],
            [
              77.20773954560738,
              28.614448356350195
            ],
            [
              77.20773359252719,
              28.614450409096825
            ],
            [
              77.20773336207564,
              28.61445052971237
            ],
            [
              77.2077299536466,
              28.614451935301254
            ],
            [
              77.20753611753358,
              28.614521862101384
            ],
            [
              77.20753256938306,
              28.61452296611369
            ],
            [
              77.20752891568684,
              28.614523757921795
            ],
            [
              77.20752519163203,
              28.61452422990013
            ],
            [
              77.20752143308336,
              28.6145243775033
            ],
            [
              77.20751936397494,
              28.61452427936202
            ],
            [
              77.20743194457107,
              28.6145544231864
            ],
            [
              77.20742837737299,
              28.614555478325137
            ],
            [
              77.20742471014965,
              28.61455621984763
            ],
            [
              77.20742097821844,
              28.614556640612605
            ],
            [
              77.20741721751993,
              28.614556736567863
            ],
            [
              77.20741346427174,
              28.614556506789295
            ],
            [
              77.20741117624095,
              28.614556165526498
            ],
            [
              77.2072675457095,
              28.61458405121898
            ],
            [
              77.20714916820963,
              28.614624893622832
            ],
            [
              77.20714560124372,
              28.61462594938034
            ],
            [
              77.20714193418262,
              28.614626691538923
            ],
            [
              77.20713820234215,
              28.614627112951176
            ],
            [
              77.20713444166202,
              28.61462720955866
            ],
            [
              77.20713068835965,
              28.614626980430995
            ],
            [
              77.20712697858147,
              28.614626427774805
            ],
            [
              77.20712334805467,
              28.614625556912458
            ],
            [
              77.20711983174323,
              28.61462437623086
            ],
            [
              77.2071164635112,
              28.614622897100624
            ],
            [
              77.20711327579653,
              28.614621133766597
            ],
            [
              77.20711029929865,
              28.61461910321066
            ],
            [
              77.20710756268288,
              28.61461682498818
            ],
            [
              77.20710509230433,
              28.61461432103971
            ],
            [
              77.20710291195408,
              28.614611615479664
            ],
            [
              77.2071010426301,
              28.61460873436406
            ],
            [
              77.207099502335,
              28.614605705439644
            ],
            [
              77.2070983059026,
              28.614602557876633
            ],
            [
              77.20709746485522,
              28.614599321987775
            ],
            [
              77.20709698729254,
              28.614596028936464
            ],
            [
              77.20709687781374,
              28.614592710436586
            ],
            [
              77.2070971374731,
              28.61458939844712
            ],
            [
              77.20709776376995,
              28.61458612486433
            ],
            [
              77.20709875067269,
              28.614582921214602
            ],
            [
              77.20710008867681,
              28.61457981835083
            ],
            [
              77.20710176489662,
              28.614576846155277
            ],
            [
              77.2071037631892,
              28.614574033251802
            ],
            [
              77.20710606430985,
              28.6145714067302
            ],
            [
              77.20710864609752,
              28.614568991885285
            ],
            [
              77.20711148368817,
              28.61456681197332
            ],
            [
              77.20711454975427,
              28.614564887988035
            ],
            [
              77.20711689703028,
              28.61456370211208
            ],
            [
              77.20711727175369,
              28.61456225884269
            ],
            [
              77.2071184673568,
              28.614559111034485
            ],
            [
              77.20712000685359,
              28.614556081794348
            ],
            [
              77.20712187541776,
              28.614553200295504
            ],
            [
              77.20712405505404,
              28.614550494288363
            ],
            [
              77.20712652477133,
              28.614547989833223
            ],
            [
              77.2071292607849,
              28.61454571104936
            ],
            [
              77.20713223674541,
              28.614543679882665
            ],
            [
              77.20713542399277,
              28.6145419158944
            ],
            [
              77.20713879183205,
              28.61454043607271
            ],
            [
              77.20714230782913,
              28.61453925466906
            ],
            [
              77.20714593812308,
              28.614538383061024
            ],
            [
              77.20724521144417,
              28.614519109371916
            ],
            [
              77.20726946393084,
              28.61451074180416
            ],
            [
              77.20727303089146,
              28.614509686043647
            ],
            [
              77.20727669794738,
              28.614508943881773
            ],
            [
              77.20728042978287,
              28.614508522465965
            ],
            [
              77.20728419045837,
              28.61450842585466
            ],
            [
              77.20728794375651,
              28.614508654978295
            ],
            [
              77.20729165353106,
              28.614509207630263
            ],
            [
              77.2072936928147,
              28.61450969679563
            ],
            [
              77.20741988043638,
              28.61448519759367
            ],
            [
              77.20742359006168,
              28.614484644167955
            ],
            [
              77.20742365293178,
              28.614484640316817
            ],
            [
              77.20749148522708,
              28.61446125048728
            ],
            [
              77.20749306645338,
              28.61445998246885
            ],
            [
              77.20749608535031,
              28.614458001258225
            ],
            [
              77.20749930977816,
              28.614456290699344
            ],
            [
              77.20750270868392,
              28.61445486726582
            ],
            [
              77.20768028451472,
              28.61438971684006
            ],
            [
              77.20768382516076,
              28.614388594235873
            ],
            [
              77.20768747345349,
              28.614387783276552
            ],
            [
              77.20769119425789,
              28.614387291772065
            ],
            [
              77.20769495174059,
              28.614387124455853
            ],
            [
              77.20769870971505,
              28.614387282939266
            ],
            [
              77.20770243198992,
              28.61438776569602
            ],
            [
              77.20770375356236,
              28.614388056159882
            ],
            [
              77.20771163859443,
              28.614385337236403
            ],
            [
              77.20771520578351,
              28.614384282090658
            ],
            [
              77.20771887299836,
              28.61438354056072
            ],
            [
              77.20772260492173,
              28.614383119787927
            ],
            [
              77.20772636561318,
              28.614383023824544
            ],
            [
              77.20773011885522,
              28.614383253594738
            ],
            [
              77.20773382850217,
              28.61438380688571
            ],
            [
              77.20773745882806,
              28.614384678368957
            ],
            [
              77.20774097487096,
              28.61438585965163
            ],
            [
              77.20774434276943,
              28.61438733935735
            ],
            [
              77.20774753008882,
              28.61438910323574
            ],
            [
              77.2077495995393,
              28.614390515575522
            ],
            [
              77.20775007140612,
              28.61438995580519
            ],
            [
              77.20775260193858,
              28.614387499082188
            ],
            [
              77.20775539317209,
              28.61438527306099
            ],
            [
              77.20775841822552,
              28.614383299179384
            ],
            [
              77.207761647966,
              28.614381596446915
            ],
            [
              77.20776505128931,
              28.614380181261808
            ],
            [
              77.20799337611332,
              28.614297060233532
            ],
            [
              77.20799692023812,
              28.614295946219087
            ],
            [
              77.20800057103861,
              28.614295144109303
            ],
            [
              77.20800429335563,
              28.614294661628904
            ],
            [
              77.20800805134127,
              28.614294503424468
            ],
            [
              77.20801180880409,
              28.614294671019554
            ],
            [
              77.20801552955771,
              28.614295162800147
            ],
            [
              77.20801917776929,
              28.614295974030135
            ],
            [
              77.20802271830458,
              28.61429709689693
            ],
            [
              77.20802611706631,
              28.614298520586715
            ],
            [
              77.20802934132257,
              28.614300231388594
            ],
            [
              77.20803236002203,
              28.614302212826622
            ],
            [
              77.20803514409299,
              28.614304445818487
            ],
            [
              77.20803766672331,
              28.61430690885926
            ],
            [
              77.20803990361868,
              28.614309578228536
            ],
            [
              77.20804183323659,
              28.614312428218845
            ],
            [
              77.20804343699373,
              28.614315431383233
            ],
            [
              77.20804469944504,
              28.614318558799596
            ],
            [
              77.20804560843236,
              28.61432178034921
            ],
            [
              77.20804615520166,
              28.61432506500682
            ],
            [
              77.20804633448718,
              28.614328381139373
            ],
            [
              77.2080461445623,
              28.614331696810698
            ],
            [
              77.20804558725607,
              28.614334980089076
            ],
            [
              77.20804466793558,
              28.614338199354734
            ],
            [
              77.2080433954544,
              28.61434132360438
            ],
            [
              77.20804178206716,
              28.614344322749762
            ],
            [
              77.20803984331165,
              28.614347167907482
            ],
            [
              77.20803759785915,
              28.614349831677096
            ],
            [
              77.20803506733454,
              28.614352288405023
            ],
            [
              77.20803227610816,
              28.614354514431625
            ]
          ],
          [
            [
              77.20850103574337,
              28.61465368242593
            ],
            [
              77.20850007227013,
              28.614656891621845
            ],
            [
              77.20849875696622,
              28.614660002031606
            ],
            [
              77.20849802443082,
              28.614661322201286
            ],
            [
              77.2084978276224,
              28.614664040899434
            ],
            [
              77.20849722091899,
              28.614667317351778
            ],
            [
              77.20849625319623,
              28.614670525551954
            ],
            [
              77.20849493377382,
              28.614673634603232
            ],
            [
              77.2084932753585,
              28.614676614563745
            ],
            [
              77.20834287158905,
              28.6149163661446
            ],
            [
              77.20834089014399,
              28.61491918831385
            ],
            [
              77.20833860475925,
              28.61492182551431
            ],
            [
              77.20833603744431,
              28.614924252348267
            ],
            [
              77.20833321292385,
              28.614926445443988
            ],
            [
              77.20833140949732,
              28.614927589801418
            ],
            [
              77.20833088269423,
              28.61492834208824
            ],
            [
              77.20832860080307,
              28.61493098164341
            ],
            [
              77.20832603670334,
              28.614933411122934
            ],
            [
              77.20832321508868,
              28.614935607129578
            ],
            [
              77.2083201631328,
              28.614937548514575
            ],
            [
              77.20831691022771,
              28.614939216581327
            ],
            [
              77.20831348770068,
              28.614940595265413
            ],
            [
              77.20830992851253,
              28.61494167128934
            ],
            [
              77.20830626694024,
              28.614942434290402
            ],
            [
              77.20830253824676,
              28.614942876920484
            ],
            [
              77.20829877834149,
              28.614942994916785
            ],
            [
              77.20829502343439,
              28.614942787142954
            ],
            [
              77.20829130968733,
              28.61494225559996
            ],
            [
              77.20828767286572,
              28.614941405406846
            ],
            [
              77.20828414799422,
              28.61494024475147
            ],
            [
              77.20828076901925,
              28.61493878481155
            ],
            [
              77.20827756848225,
              28.61493703964714
            ],
            [
              77.20827457720613,
              28.614935026065133
            ],
            [
              77.20827182399853,
              28.614932763457446
            ],
            [
              77.20826933537435,
              28.614930273614227
            ],
            [
              77.20826713530043,
              28.614927580514067
            ],
            [
              77.20826524496462,
              28.61492471009298
            ],
            [
              77.20826368257191,
              28.614921689994713
            ],
            [
              77.20826246316896,
              28.614918549304488
            ],
            [
              77.20826159849928,
              28.614915318268874
            ],
            [
              77.20826109689006,
              28.614912028004508
            ],
            [
              77.20826096317204,
              28.614908710198453
            ],
            [
              77.20826119863297,
              28.61490539680299
            ],
            [
              77.2082618010052,
              28.614902119727937
            ],
            [
              77.20826276448751,
              28.614898910533302
            ],
            [
              77.20826407980103,
              28.614895800125392
            ],
            [
              77.20826573427851,
              28.614892818459122
            ],
            [
              77.20842997650396,
              28.61463028435544
            ],
            [
              77.2084319542029,
              28.614627460143875
            ],
            [
              77.20843423608531,
              28.614624820587366
            ],
            [
              77.20843680017542,
              28.61462239110624
            ],
            [
              77.20843962177963,
              28.61462019509773
            ],
            [
              77.20844267372435,
              28.614618253710574
            ],
            [
              77.20844592661769,
              28.61461658564139
            ],
            [
              77.20844934913254,
              28.614615206954564
            ],
            [
              77.2084529083082,
              28.61461413092761
            ],
            [
              77.20845656986793,
              28.614613367923226
            ],
            [
              77.20846029854891,
              28.614612925289574
            ],
            [
              77.20846405844195,
              28.614612807289433
            ],
            [
              77.20846781333725,
              28.61461301505921
            ],
            [
              77.20847152707314,
              28.614613546597987
            ],
            [
              77.20847516388439,
              28.61461439678673
            ],
            [
              77.2084786887465,
              28.614615557437673
            ],
            [
              77.20848206771318,
              28.614617017373135
            ],
            [
              77.20848526824314,
              28.614618762533137
            ],
            [
              77.20848825951354,
              28.61462077611085
            ],
            [
              77.20849101271686,
              28.614623038714424
            ],
            [
              77.20849350133821,
              28.614625528553788
            ],
            [
              77.20849570141084,
              28.61462822165041
            ],
            [
              77.20849759174679,
              28.614631092068347
            ],
            [
              77.20849915414112,
              28.6146341121639
            ],
            [
              77.20850037354708,
              28.614637252851907
            ],
            [
              77.2085012382211,
              28.614640483885847
            ],
            [
              77.20850173983585,
              28.614643774149094
            ],
            [
              77.20850187356051,
              28.614647091954637
            ],
            [
              77.20850163810718,
              28.614650405350183
            ],
            [
              77.20850103574337,
              28.61465368242593
            ]
          ],
          [
            [
              77.20816367299115,
              28.61520204576411
            ],
            [
              77.20816264404176,
              28.615205239095864
            ],
            [
              77.20816126533725,
              28.615208328055143
            ],
            [
              77.20815955015529,
              28.61521128289357
            ],
            [
              77.20798517911112,
              28.615478493167725
            ],
            [
              77.20798314396036,
              28.615481285426398
            ],
            [
              77.20798080844925,
              28.615483888216122
            ],
            [
              77.20797819507004,
              28.615486276470616
            ],
            [
              77.20797532899098,
              28.615488427189657
            ],
            [
              77.20797223781399,
              28.61549031966063
            ],
            [
              77.20796895130883,
              28.61549193565798
            ],
            [
              77.20796550112631,
              28.615493259618788
            ],
            [
              77.20796192049364,
              28.615494278792536
            ],
            [
              77.20795824389427,
              28.61549498336404
            ],
            [
              77.2079545067359,
              28.61549536654787
            ],
            [
              77.20795074500944,
              28.61549542465377
            ],
            [
              77.20794699494242,
              28.615495157122112
            ],
            [
              77.20794329265004,
              28.6154945665294
            ],
            [
              77.20793967378746,
              28.615493658563356
            ],
            [
              77.20793617320633,
              28.615492441968208
            ],
            [
              77.20793282461918,
              28.615490928460424
            ],
            [
              77.20792966027477,
              28.615489132615938
            ],
            [
              77.20792671064747,
              28.615487071729717
            ],
            [
              77.20792400414379,
              28.615484765649242
            ],
            [
              77.2079215668289,
              28.615482236583336
            ],
            [
              77.20791942217542,
              28.615479508888313
            ],
            [
              77.20791759083757,
              28.615476608833376
            ],
            [
              77.20791609045209,
              28.61547356434765
            ],
            [
              77.20791493546848,
              28.615470404751214
            ],
            [
              77.20791413700987,
              28.61546716047272
            ],
            [
              77.2079137027658,
              28.615463862756346
            ],
            [
              77.20791363691824,
              28.61546054336091
            ],
            [
              77.20791367945425,
              28.6154600790994
            ],
            [
              77.20791365901982,
              28.615459944546007
            ],
            [
              77.20791352720695,
              28.615456626680214
            ],
            [
              77.20791376457247,
              28.615453313390148
            ],
            [
              77.20791436883032,
              28.615450036584594
            ],
            [
              77.20791533416117,
              28.615446827820993
            ],
            [
              77.2079166512683,
              28.61544371800147
            ],
            [
              77.20791830746727,
              28.615440737075296
            ],
            [
              77.20807761039158,
              28.615186404377585
            ],
            [
              77.2080795897235,
              28.61518358105075
            ],
            [
              77.20808187313443,
              28.615180942515025
            ],
            [
              77.20808443863389,
              28.615178514180922
            ],
            [
              77.20808726151468,
              28.61517631943462
            ],
            [
              77.20809031459093,
              28.615174379412704
            ],
            [
              77.20809356845987,
              28.615172712798636
            ],
            [
              77.20809699178498,
              28.615171335642813
            ],
            [
              77.20809900152388,
              28.615170729056576
            ],
            [
              77.20810008744313,
              28.615169736677196
            ],
            [
              77.20810295351126,
              28.615167585956037
            ],
            [
              77.20810604467663,
              28.61516569348264
            ],
            [
              77.20810933116964,
              28.615164077482557
            ],
            [
              77.20811278133961,
              28.615162753518728
            ],
            [
              77.20811636195951,
              28.61516173434164
            ],
            [
              77.20812003854606,
              28.615161029766508
            ],
            [
              77.20812377569175,
              28.61516064657878
            ],
            [
              77.20812753740583,
              28.61516058846874
            ],
            [
              77.20813128746101,
              28.61516085599603
            ],
            [
              77.20813498974222,
              28.61516144658422
            ],
            [
              77.20813860859452,
              28.615162354545614
            ],
            [
              77.20814210916639,
              28.615163571136062
            ],
            [
              77.20814545774546,
              28.615165084639145
            ],
            [
              77.20814862208307,
              28.615166880479
            ],
            [
              77.20815157170499,
              28.61516894136072
            ],
            [
              77.2081542782047,
              28.61517124743693
            ],
            [
              77.20815671551716,
              28.615173776498835
            ],
            [
              77.20815886016973,
              28.61517650419022
            ],
            [
              77.2081606915082,
              28.615179404241935
            ],
            [
              77.20816219189578,
              28.615182448724916
            ],
            [
              77.20816334688288,
              28.615185608319138
            ],
            [
              77.20816414534632,
              28.615188852595978
            ],
            [
              77.20816457959643,
              28.615192150311305
            ],
            [
              77.20816464545112,
              28.615195469706315
            ],
            [
              77.20816434227612,
              28.615198778813422
            ],
            [
              77.20816367299115,
              28.61520204576411
            ]
          ]
        ]
      }
    },
    {
      "type": "Feature",
      "properties": {
        "parcel_id": "ULPIN-2026-3038-00002",
        "survey_number": "UNSURVEYED-2",
        "area_sqm": 110362.51,
        "perimeter_m": 2020.19,
        "confidence_score": 0.602,
        "verification_status": "Needs GT Verification",
        "building_count": 5,
        "building_coverage_ratio": 0.013,
        "landuse_class": "Vacant/Green",
        "owner_record": "Unregistered / Pending Survey",
        "has_gnss_control": false,
        "tax_assessment_annual_inr": 49663129,
        "tax_rate_per_sqm": 450,
        "lulc_confidence": 0.899
      },
      "geometry": {
        "type": "Polygon",
        "coordinates": [
          [
            [
              77.21043244295959,
              28.611620938709
            ],
            [
              77.21043333959446,
              28.6116243403678
            ],
            [
              77.21043399167328,
              28.611628729342634
            ],
            [
              77.21043415310933,
              28.61163315358477
            ],
            [
              77.21043382234781,
              28.611637570486355
            ],
            [
              77.21043300257408,
              28.611641937510193
            ],
            [
              77.21043170168295,
              28.611646212599467
            ],
            [
              77.21042993220266,
              28.611650354582704
            ],
            [
              77.21042771117422,
              28.61165432357034
            ],
            [
              77.21013280696323,
              28.612122004442398
            ],
            [
              77.21013015575481,
              28.612125762206105
            ],
            [
              77.21012709991903,
              28.61212927256047
            ],
            [
              77.21012366888525,
              28.612132501698852
            ],
            [
              77.21011989569617,
              28.612135418522836
            ],
            [
              77.21011581668967,
              28.61213799494179
            ],
            [
              77.21011147114882,
              28.612140206143387
            ],
            [
              77.2101069009236,
              28.612142030832487
            ],
            [
              77.21010215002784,
              28.61214345143634
            ],
            [
              77.21009726421525,
              28.61214445427372
            ],
            [
              77.21009229053897,
              28.612145029686765
            ],
            [
              77.21008727689826,
              28.612145172133893
            ],
            [
              77.21008227157729,
              28.612144880243275
            ],
            [
              77.21007732278012,
              28.612144156825956
            ],
            [
              77.21007247816641,
              28.612143008848864
            ],
            [
              77.21006778439248,
              28.612141447367662
            ],
            [
              77.21006328666202,
              28.612139487420258
            ],
            [
              77.21005902829064,
              28.612137147882056
            ],
            [
              77.21005505028886,
              28.612134451284106
            ],
            [
              77.21005139096698,
              28.612131423596143
            ],
            [
              77.2100480855663,
              28.612128093976487
            ],
            [
              77.21004516591965,
              28.61212449449122
            ],
            [
              77.21004266014478,
              28.61212065980537
            ],
            [
              77.21004059237366,
              28.612116626849115
            ],
            [
              77.21003898252,
              28.612112434462006
            ],
            [
              77.21003784608754,
              28.61210812301907
            ],
            [
              77.2100371940207,
              28.612103734041877
            ],
            [
              77.21003703259916,
              28.612099309798673
            ],
            [
              77.21003736337744,
              28.61209489289734
            ],
            [
              77.21003818316993,
              28.61209052587507
            ],
            [
              77.21003948408149,
              28.612086250788668
            ],
            [
              77.21004125358358,
              28.612082108809524
            ],
            [
              77.21004347463489,
              28.612078139827165
            ],
            [
              77.21033072493599,
              28.611622597784628
            ],
            [
              77.20639746766776,
              28.611686692757722
            ],
            [
              77.20644674682828,
              28.614043520790208
            ],
            [
              77.21009832687487,
              28.61352163999369
            ],
            [
              77.21021259174486,
              28.613480373327658
            ],
            [
              77.21021613937542,
              28.61347926811644
            ],
            [
              77.21021979268599,
              28.613478475073116
            ],
            [
              77.21022351649323,
              28.613478001835123
            ],
            [
              77.21022727493488,
              28.613477852959992
            ],
            [
              77.21023103181513,
              28.613478029881467
            ],
            [
              77.21023475095319,
              28.613478530895698
            ],
            [
              77.21023839653175,
              28.61347935117766
            ],
            [
              77.21024193344195,
              28.613480482827573
            ],
            [
              77.21024532762145,
              28.613481914947055
            ],
            [
              77.21024854638243,
              28.613483633744014
            ],
            [
              77.21025155872653,
              28.61348562266551
            ],
            [
              77.21025433564317,
              28.613487862557157
            ],
            [
              77.2102568503892,
              28.613490331847583
            ],
            [
              77.21025907874622,
              28.6134930067562
            ],
            [
              77.21026099925392,
              28.613495861522175
            ],
            [
              77.21026224456779,
              28.613498210605467
            ],
            [
              77.21154399646046,
              28.613314997730477
            ],
            [
              77.21153907231854,
              28.613080044382322
            ],
            [
              77.21086077323868,
              28.613318881088457
            ],
            [
              77.21085602854752,
              28.61332031787965
            ],
            [
              77.21085114710986,
              28.61332133736774
            ],
            [
              77.2108461759367,
              28.613321929734486
            ],
            [
              77.21084116290315,
              28.613322089275066
            ],
            [
              77.21084018096661,
              28.61332203537483
            ],
            [
              77.21083627741652,
              28.613322174807852
            ],
            [
              77.21083126947711,
              28.61332191945756
            ],
            [
              77.21082631401568,
              28.613321232183047
            ],
            [
              77.21082145875612,
              28.61332011960316
            ],
            [
              77.21081675045725,
              28.613318592432652
            ],
            [
              77.21081223446265,
              28.613316665379028
            ],
            [
              77.21080795426384,
              28.613314357000874
            ],
            [
              77.21080395108152,
              28.613311689529176
            ],
            [
              77.21080123858735,
              28.613309482177552
            ],
            [
              77.21079987204119,
              28.61331083782851
            ],
            [
              77.21079710807386,
              28.613313090151724
            ],
            [
              77.2107941072361,
              28.61331509256443
            ],
            [
              77.2107908984276,
              28.613316825782274
            ],
            [
              77.210787512551,
              28.613318273113414
            ],
            [
              77.21061402927461,
              28.61338336072167
            ],
            [
              77.21061049893339,
              28.613384508223195
            ],
            [
              77.21060685813144,
              28.61338534484812
            ],
            [
              77.21060314193168,
              28.61338586253929
            ],
            [
              77.21059938612319,
              28.61338605631104
            ],
            [
              77.21059562687648,
              28.61338592429725
            ],
            [
              77.21059190039522,
              28.61338546776928
            ],
            [
              77.21058824256744,
              28.61338469112375
            ],
            [
              77.2105846886201,
              28.613383601840173
            ],
            [
              77.21058127277965,
              28.613382210408975
            ],
            [
              77.21057802794256,
              28.613380530230387
            ],
            [
              77.21057498535838,
              28.61337857748547
            ],
            [
              77.21057217432887,
              28.613376370980244
            ],
            [
              77.21056962192581,
              28.613373931964563
            ],
            [
              77.21056735273021,
              28.613371283927503
            ],
            [
              77.21056538859568,
              28.613368452371123
            ],
            [
              77.21056374843788,
              28.61336546456488
            ],
            [
              77.2105624480524,
              28.613362349282987
            ],
            [
              77.21056149996267,
              28.61335913652732
            ],
            [
              77.21056091329922,
              28.613355857238485
            ],
            [
              77.21056069371198,
              28.613352542997834
            ],
            [
              77.21056084331562,
              28.613349225723322
            ],
            [
              77.21056136066935,
              28.613345937362105
            ],
            [
              77.21056224079074,
              28.613342709582913
            ],
            [
              77.2105634752037,
              28.613339573471006
            ],
            [
              77.21056505202013,
              28.613336559228852
            ],
            [
              77.21056695605441,
              28.613333695885245
            ],
            [
              77.21056916896963,
              28.613331011015735
            ],
            [
              77.21057166945418,
              28.61332853047707
            ],
            [
              77.21057443342704,
              28.613326278158166
            ],
            [
              77.21057743426962,
              28.613324275750088
            ],
            [
              77.2105806430822,
              28.613322542537095
            ],
            [
              77.21058402896216,
              28.61332109521097
            ],
            [
              77.21075751216004,
              28.61325600764521
            ],
            [
              77.2107610424952,
              28.61325486014016
            ],
            [
              77.21076468329119,
              28.61325402351139
            ],
            [
              77.21076839948525,
              28.61325350581608
            ],
            [
              77.21077215528838,
              28.61325331203991
            ],
            [
              77.21077591453023,
              28.613253444049047
            ],
            [
              77.21077964100725,
              28.613253900572175
            ],
            [
              77.21078329883146,
              28.613254677212723
            ],
            [
              77.21078685277604,
              28.61325576649123
            ],
            [
              77.21079026861462,
              28.613257157917346
            ],
            [
              77.21079077597521,
              28.613257420628262
            ],
            [
              77.21079184792252,
              28.61325546451147
            ],
            [
              77.21079446385154,
              28.613251687530678
            ],
            [
              77.2107974867165,
              28.613248154997713
            ],
            [
              77.21080088740555,
              28.613244900932788
            ],
            [
              77.21080463316821,
              28.613241956674294
            ],
            [
              77.2108086879307,
              28.61323935057702
            ],
            [
              77.21081301264346,
              28.61323710773909
            ],
            [
              77.2108175656572,
              28.613235249760223
            ],
            [
              77.21150161470214,
              28.612991299427147
            ],
            [
              77.211506352147,
              28.61298984417783
            ],
            [
              77.21151122842276,
              28.612988805694695
            ],
            [
              77.21151619656828,
              28.61298819397889
            ],
            [
              77.21152120873766,
              28.612988014921566
            ],
            [
              77.21152621666104,
              28.61298827024714
            ],
            [
              77.21152703422679,
              28.612988383631784
            ],
            [
              77.21153073096883,
              28.612987943107033
            ],
            [
              77.21153574398366,
              28.612987783541854
            ],
            [
              77.21153714034232,
              28.61298786018374
            ],
            [
              77.21150812599484,
              28.61160338906689
            ],
            [
              77.21043244295959,
              28.611620938709
            ]
          ],
          [
            [
              77.20992748939972,
              28.61241476396776
            ],
            [
              77.20992648812718,
              28.61241796413444
            ],
            [
              77.20992513621658,
              28.612421062287236
            ],
            [
              77.20992344668754,
              28.61242402858922
            ],
            [
              77.20977789540532,
              28.61265107049262
            ],
            [
              77.20977588452098,
              28.61265387637489
            ],
            [
              77.20977357165461,
              28.612656494816726
            ],
            [
              77.20977097908039,
              28.6126589006011
            ],
            [
              77.20976813176622,
              28.612661070558968
            ],
            [
              77.20976505713331,
              28.612662983792433
            ],
            [
              77.20976178479205,
              28.612664621876004
            ],
            [
              77.2097583462569,
              28.612665969034012
            ],
            [
              77.20975477464285,
              28.612667012292604
            ],
            [
              77.20975110434652,
              28.612667741604593
            ],
            [
              77.2097473707149,
              28.612668149946305
            ],
            [
              77.20974360970493,
              28.612668233385186
            ],
            [
              77.20973985753727,
              28.61266799111766
            ],
            [
              77.20973615034733,
              28.61266742547691
            ],
            [
              77.2097325238374,
              28.612666541910354
            ],
            [
              77.20972901293284,
              28.612665348927248
            ],
            [
              77.20972565144558,
              28.612663858016656
            ],
            [
              77.20972247174858,
              28.612662083536886
            ],
            [
              77.2097195044641,
              28.61266004257717
            ],
            [
              77.20971677816873,
              28.612657754793055
            ],
            [
              77.20971431911816,
              28.612655242217187
            ],
            [
              77.20971215099443,
              28.612652529047057
            ],
            [
              77.2097102946777,
              28.612649641411984
            ],
            [
              77.20970876804535,
              28.612646607121505
            ],
            [
              77.2097075857996,
              28.61264345539749
            ],
            [
              77.20970675932615,
              28.61264021659278
            ],
            [
              77.20970629658433,
              28.612636921898837
            ],
            [
              77.20970620203059,
              28.612633603045378
            ],
            [
              77.20970647657549,
              28.612630291994783
            ],
            [
              77.20970711757495,
              28.61262702063427
            ],
            [
              77.2097081188558,
              28.612623820468823
            ],
            [
              77.2097094707751,
              28.612620722317793
            ],
            [
              77.20971116031312,
              28.612617756018043
            ],
            [
              77.20985671170315,
              28.612390714179973
            ],
            [
              77.20985872258075,
              28.612387908296792
            ],
            [
              77.20986103543949,
              28.612385289853844
            ],
            [
              77.20986362800524,
              28.612382884068147
            ],
            [
              77.20986647531018,
              28.612380714108706
            ],
            [
              77.20986954993323,
              28.612378800873422
            ],
            [
              77.20987282226407,
              28.612377162787762
            ],
            [
              77.20987626078839,
              28.61237581562738
            ],
            [
              77.20987983239138,
              28.61237477236616
            ],
            [
              77.2098835026765,
              28.612374043051258
            ],
            [
              77.20988723629699,
              28.612373634706383
            ],
            [
              77.20989099729609,
              28.612373551264103
            ],
            [
              77.20989474945328,
              28.612373793527997
            ],
            [
              77.20989845663334,
              28.61237435916495
            ],
            [
              77.2099020831341,
              28.612375242727573
            ],
            [
              77.20990559403042,
              28.61237643570667
            ],
            [
              77.20990895551047,
              28.612377926613213
            ],
            [
              77.20991213520139,
              28.612379701088976
            ],
            [
              77.20991510248102,
              28.612381742044782
            ],
            [
              77.20991782877286,
              28.612384029825137
            ],
            [
              77.20992028782122,
              28.612386542397484
            ],
            [
              77.20992245594414,
              28.612389255564388
            ],
            [
              77.20992431226138,
              28.612392143196576
            ],
            [
              77.20992583889556,
              28.6123951774846
            ],
            [
              77.20992702114438,
              28.612398329206616
            ],
            [
              77.20992784762208,
              28.612401568009826
            ],
            [
              77.20992831036921,
              28.612404862702796
            ],
            [
              77.20992840492922,
              28.612408181555825
            ],
            [
              77.20992813039142,
              28.612411492606558
            ],
            [
              77.20992748939972,
              28.61241476396776
            ]
          ],
          [
            [
              77.20974849257121,
              28.61270361622811
            ],
            [
              77.20974750124701,
              28.6127068188065
            ],
            [
              77.20974615896796,
              28.612709920220112
            ],
            [
              77.20974447866094,
              28.612712890600598
            ],
            [
              77.20961380549701,
              28.612918034954518
            ],
            [
              77.20961180333713,
              28.612920845693903
            ],
            [
              77.20960949861292,
              28.612923469724524
            ],
            [
              77.20960691352013,
              28.61292588177553
            ],
            [
              77.20960407295462,
              28.612928058617527
            ],
            [
              77.20960100427257,
              28.612929979286324
            ],
            [
              77.2095977370271,
              28.612931625284816
            ],
            [
              77.20959430268357,
              28.612932980761123
            ],
            [
              77.2095907343166,
              28.612934032661254
            ],
            [
              77.20958706629156,
              28.61293477085483
            ],
            [
              77.20958333393357,
              28.61293518823262
            ],
            [
              77.20957957318728,
              28.612935280775062
            ],
            [
              77.20957582027081,
              28.61293504759091
            ],
            [
              77.20957211132679,
              28.61293449092585
            ],
            [
              77.20956848207443,
              28.61293361614089
            ],
            [
              77.20956496746545,
              28.61293243166067
            ],
            [
              77.20956160134749,
              28.612930948892412
            ],
            [
              77.20955841613811,
              28.612929182115984
            ],
            [
              77.20955544251262,
              28.612927148346426
            ],
            [
              77.20955270910872,
              28.61292486717006
            ],
            [
              77.20955024225054,
              28.612922360555885
            ],
            [
              77.2095480656953,
              28.61291965264397
            ],
            [
              77.20954620040439,
              28.61291676951301
            ],
            [
              77.20954466434158,
              28.612913738929148
            ],
            [
              77.20954347229996,
              28.612910590078567
            ],
            [
              77.20954263575952,
              28.61290735328643
            ],
            [
              77.20954216277659,
              28.612904059724833
            ],
            [
              77.20954205790618,
              28.612900741112583
            ],
            [
              77.20954232215824,
              28.612897429409713
            ],
            [
              77.20954295298786,
              28.612894156509746
            ],
            [
              77.20954394431975,
              28.612890953932496
            ],
            [
              77.2095452866068,
              28.612887852520522
            ],
            [
              77.20954696692205,
              28.61288488214211
            ],
            [
              77.20967764018403,
              28.61267973784686
            ],
            [
              77.20967964233796,
              28.61267692710676
            ],
            [
              77.20968194705539,
              28.612674303075245
            ],
            [
              77.20968453214059,
              28.612671891023158
            ],
            [
              77.2096873726978,
              28.612669714179873
            ],
            [
              77.2096904413709,
              28.612667793509555
            ],
            [
              77.20969370860689,
              28.612666147509298
            ],
            [
              77.2096971429405,
              28.612664792030966
            ],
            [
              77.20970071129727,
              28.61266374012855
            ],
            [
              77.20970437931202,
              28.612663001932432
            ],
            [
              77.20970811165974,
              28.61266258455185
            ],
            [
              77.20971187239596,
              28.612662492006375
            ],
            [
              77.20971562530274,
              28.612662725187285
            ],
            [
              77.20971933423758,
              28.612663281848913
            ],
            [
              77.20972296348143,
              28.612664156630313
            ],
            [
              77.20972647808274,
              28.612665341106865
            ],
            [
              77.209729844194,
              28.612666823871418
            ],
            [
              77.20973302939774,
              28.612668590644155
            ],
            [
              77.2097360030187,
              28.612670624410093
            ],
            [
              77.20973873641935,
              28.612672905582986
            ],
            [
              77.20974120327551,
              28.61267541219389
            ],
            [
              77.20974337983,
              28.612678120102796
            ],
            [
              77.20974524512143,
              28.612681003231064
            ],
            [
              77.20974678118598,
              28.61268403381262
            ],
            [
              77.2097479732305,
              28.61268718266132
            ],
            [
              77.20974880977494,
              28.612690419452026
            ],
            [
              77.20974928276286,
              28.6126937130127
            ],
            [
              77.2097493876391,
              28.612697031624542
            ],
            [
              77.20974912339362,
              28.61270034332752
            ],
            [
              77.20974849257121,
              28.61270361622811
            ]
          ],
          [
            [
              77.20942971583597,
              28.613202272191295
            ],
            [
              77.20942873447545,
              28.6132054771598
            ],
            [
              77.20942740184493,
              28.61320858181421
            ],
            [
              77.20942573077834,
              28.613211556255006
            ],
            [
              77.20929013452492,
              28.613425803426306
            ],
            [
              77.2092881411081,
              28.613428619006324
            ],
            [
              77.20928584454568,
              28.613431248611324
            ],
            [
              77.20928326695476,
              28.61343366691678
            ],
            [
              77.20928043315895,
              28.61343585063306
            ],
            [
              77.20927737044927,
              28.61343777872978
            ],
            [
              77.20927410832128,
              28.61343943263829
            ],
            [
              77.20927067819109,
              28.61344079643053
            ],
            [
              77.20926711309274,
              28.613441856972443
            ],
            [
              77.2092634473601,
              28.613442604050398
            ],
            [
              77.20925971629622,
              28.613443030469618
            ],
            [
              77.20925595583331,
              28.61344313212346
            ],
            [
              77.20925220218673,
              28.61344290803293
            ],
            [
              77.20924849150616,
              28.613442360356146
            ],
            [
              77.20924485952753,
              28.61344149436754
            ],
            [
              77.20924134122882,
              28.613440318407058
            ],
            [
              77.20923797049318,
              28.61343884379985
            ],
            [
              77.20923477978265,
              28.613437084747204
            ],
            [
              77.20923179982557,
              28.613435058189772
            ],
            [
              77.20922905932055,
              28.613432783644413
            ],
            [
              77.20922658466014,
              28.613430283016278
            ],
            [
              77.20922439967669,
              28.613427580387775
            ],
            [
              77.20922252541277,
              28.61342470178673
            ],
            [
              77.20922097991854,
              28.61342167493564
            ],
            [
              77.20921977807794,
              28.613418528984763
            ],
            [
              77.20921893146534,
              28.613415294231324
            ],
            [
              77.20921844823404,
              28.613412001827776
            ],
            [
              77.20921833303778,
              28.613408683481786
            ],
            [
              77.20921839785696,
              28.613407838023427
            ],
            [
              77.20921836719553,
              28.613407635895857
            ],
            [
              77.20921823594618,
              28.613404318014073
            ],
            [
              77.20921847386698,
              28.61340100475662
            ],
            [
              77.20921907866656,
              28.61339772803195
            ],
            [
              77.20922004452036,
              28.61339451939672
            ],
            [
              77.20922136212666,
              28.61339140975185
            ],
            [
              77.20922301879611,
              28.613388429044893
            ],
            [
              77.20934867695763,
              28.61318787820495
            ],
            [
              77.20935065672874,
              28.61318505514022
            ],
            [
              77.20935294054163,
              28.613182416906614
            ],
            [
              77.2093555064019,
              28.61317998891173
            ],
            [
              77.20935832959891,
              28.6131777945385
            ],
            [
              77.20936015667813,
              28.613176633897634
            ],
            [
              77.20936078248215,
              28.61317574998452
            ],
            [
              77.2093630790375,
              28.613173120378555
            ],
            [
              77.20936565662055,
              28.613170702071947
            ],
            [
              77.20936849040771,
              28.613168518354286
            ],
            [
              77.20937155310813,
              28.61316659025596
            ],
            [
              77.20937481522628,
              28.61316493634559
            ],
            [
              77.20937824534622,
              28.613163572551223
            ],
            [
              77.20938181043402,
              28.61316251200693
            ],
            [
              77.209385476156,
              28.61316176492633
            ],
            [
              77.20938920720926,
              28.613161338504202
            ],
            [
              77.20939296766174,
              28.613161236847215
            ],
            [
              77.20939672129829,
              28.61316146093438
            ],
            [
              77.20940043196936,
              28.613162008607624
            ],
            [
              77.20940406393917,
              28.613162874592554
            ],
            [
              77.20940758222993,
              28.61316405054926
            ],
            [
              77.20941095295858,
              28.613165525152652
            ],
            [
              77.20941414366322,
              28.613167284201502
            ],
            [
              77.20941712361558,
              28.613169310755225
            ],
            [
              77.20941986411715,
              28.613171585297003
            ],
            [
              77.2094223387754,
              28.613174085921784
            ],
            [
              77.20942452375797,
              28.61317678854719
            ],
            [
              77.20942639802233,
              28.613179667145488
            ],
            [
              77.20942794351825,
              28.613182693994194
            ],
            [
              77.20942914536174,
              28.613185839943146
            ],
            [
              77.20942999197837,
              28.613189074695107
            ],
            [
              77.2094304752147,
              28.613192367097685
            ],
            [
              77.2094305904169,
              28.613195685443245
            ],
            [
              77.20943033647548,
              28.613198997774305
            ],
            [
              77.20942971583597,
              28.613202272191295
            ]
          ]
        ]
      }
    }
  ]
}