{
  "type": "FeatureCollection",
  "features": [
    {
      "type": "Feature",
      "properties": {
        "road_id": "AI-RD-001",
        "hierarchy": "Access Lane / Footpath",
        "estimated_width_m": 3.5,
        "length_m": 33.24,
        "surface_type": "Paved Asphalt",
        "connectivity_degree": 2
      },
      "geometry": {
        "type": "LineString",
        "coordinates": [
          [
            77.20829929733473,
            28.614909168172925
          ],
          [
            77.20846353949634,
            28.61464663403231
          ]
        ]
      }
    },
    {
      "type": "Feature",
      "properties": {
        "road_id": "AI-RD-002",
        "hierarchy": "Access Lane / Footpath",
        "estimated_width_m": 3.5,
        "length_m": 27.2,
        "surface_type": "Paved Asphalt",
        "connectivity_degree": 2
      },
      "geometry": {
        "type": "LineString",
        "coordinates": [
          [
            77.20925666361497,
            28.61340930805544
          ],
          [
            77.20939225991991,
            28.6131950609146
          ]
        ]
      }
    },
    {
      "type": "Feature",
      "properties": {
        "road_id": "AI-RD-003",
        "hierarchy": "Secondary Access",
        "estimated_width_m": 6.0,
        "length_m": 59.33,
        "surface_type": "Paved Asphalt",
        "connectivity_degree": 2
      },
      "geometry": {
        "type": "LineString",
        "coordinates": [
          [
            77.21008814079012,
            28.61210007214269
          ],
          [
            77.2103830451516,
            28.611632391358977
          ]
        ]
      }
    },
    {
      "type": "Feature",
      "properties": {
        "road_id": "AI-RD-004",
        "hierarchy": "Secondary Access",
        "estimated_width_m": 6.0,
        "length_m": 73.01,
        "surface_type": "Paved Asphalt",
        "connectivity_degree": 2
      },
      "geometry": {
        "type": "LineString",
        "coordinates": [
          [
            77.2108418293215,
            28.61327698669996
          ],
          [
            77.21153507785543,
            28.613032886105724
          ]
        ]
      }
    },
    {
      "type": "Feature",
      "properties": {
        "road_id": "AI-RD-005",
        "hierarchy": "Access Lane / Footpath",
        "estimated_width_m": 3.5,
        "length_m": 32.3,
        "surface_type": "Paved Asphalt",
        "connectivity_degree": 2
      },
      "geometry": {
        "type": "LineString",
        "coordinates": [
          [
            77.20741799113355,
            28.614522913595007
          ],
          [
            77.20772559209645,
            28.61441684679432
          ]
        ]
      }
    },
    {
      "type": "Feature",
      "properties": {
        "road_id": "AI-RD-006",
        "hierarchy": "Access Lane / Footpath",
        "estimated_width_m": 3.5,
        "length_m": 28.92,
        "surface_type": "Paved Asphalt",
        "connectivity_degree": 2
      },
      "geometry": {
        "type": "LineString",
        "coordinates": [
          [
            77.20974452785416,
            28.612634413259755
          ],
          [
            77.20989007919027,
            28.61240737138903
          ]
        ]
      }
    },
    {
      "type": "Feature",
      "properties": {
        "road_id": "AI-RD-007",
        "hierarchy": "Access Lane / Footpath",
        "estimated_width_m": 3.5,
        "length_m": 22.95,
        "surface_type": "Paved Asphalt",
        "connectivity_degree": 2
      },
      "geometry": {
        "type": "LineString",
        "coordinates": [
          [
            77.21000994085865,
            28.61359011384773
          ],
          [
            77.21022711280496,
            28.613511682473934
          ]
        ]
      }
    },
    {
      "type": "Feature",
      "properties": {
        "road_id": "AI-RD-008",
        "hierarchy": "Access Lane / Footpath",
        "estimated_width_m": 3.5,
        "length_m": 22.54,
        "surface_type": "Paved Asphalt",
        "connectivity_degree": 2
      },
      "geometry": {
        "type": "LineString",
        "coordinates": [
          [
            77.20879684902908,
            28.614107952328208
          ],
          [
            77.2089086706793,
            28.613930184453174
          ]
        ]
      }
    },
    {
      "type": "Feature",
      "properties": {
        "road_id": "AI-RD-009",
        "hierarchy": "Access Lane / Footpath",
        "estimated_width_m": 3.5,
        "length_m": 34.06,
        "surface_type": "Paved Asphalt",
        "connectivity_degree": 2
      },
      "geometry": {
        "type": "LineString",
        "coordinates": [
          [
            77.2096820152206,
            28.61370193078637
          ],
          [
            77.21000475454701,
            28.61358658929831
          ]
        ]
      }
    },
    {
      "type": "Feature",
      "properties": {
        "road_id": "AI-RD-010",
        "hierarchy": "Access Lane / Footpath",
        "estimated_width_m": 3.5,
        "length_m": 32.21,
        "surface_type": "Paved Asphalt",
        "connectivity_degree": 2
      },
      "geometry": {
        "type": "LineString",
        "coordinates": [
          [
            77.2079518613078,
            28.615457101801084
          ],
          [
            77.20811116417033,
            28.615202769067555
          ]
        ]
      }
    },
    {
      "type": "Feature",
      "properties": {
        "road_id": "AI-RD-011",
        "hierarchy": "Access Lane / Footpath",
        "estimated_width_m": 3.5,
        "length_m": 20.45,
        "surface_type": "Paved Asphalt",
        "connectivity_degree": 2
      },
      "geometry": {
        "type": "LineString",
        "coordinates": [
          [
            77.20647623469794,
            28.614863975644585
          ],
          [
            77.20667009109688,
            28.614794952268042
          ]
        ]
      }
    },
    {
      "type": "Feature",
      "properties": {
        "road_id": "AI-RD-012",
        "hierarchy": "Access Lane / Footpath",
        "estimated_width_m": 3.5,
        "length_m": 30.38,
        "surface_type": "Paved Asphalt",
        "connectivity_degree": 2
      },
      "geometry": {
        "type": "LineString",
        "coordinates": [
          [
            77.20830933019944,
            28.61489998184346
          ],
          [
            77.20845973402706,
            28.614660230296415
          ]
        ]
      }
    },
    {
      "type": "Feature",
      "properties": {
        "road_id": "AI-RD-013",
        "hierarchy": "Access Lane / Footpath",
        "estimated_width_m": 3.5,
        "length_m": 34.9,
        "surface_type": "Paved Asphalt",
        "connectivity_degree": 2
      },
      "geometry": {
        "type": "LineString",
        "coordinates": [
          [
            77.20969725304583,
            28.613697170902203
          ],
          [
            77.21002919168589,
            28.613581679350858
          ]
        ]
      }
    },
    {
      "type": "Feature",
      "properties": {
        "road_id": "AI-RD-014",
        "hierarchy": "Access Lane / Footpath",
        "estimated_width_m": 3.5,
        "length_m": 34.18,
        "surface_type": "Paved Asphalt",
        "connectivity_degree": 2
      },
      "geometry": {
        "type": "LineString",
        "coordinates": [
          [
            77.20795195568093,
            28.615461611678633
          ],
          [
            77.20812632678741,
            28.61519440144355
          ]
        ]
      }
    },
    {
      "type": "Feature",
      "properties": {
        "road_id": "AI-RD-015",
        "hierarchy": "Access Lane / Footpath",
        "estimated_width_m": 3.5,
        "length_m": 26.41,
        "surface_type": "Paved Asphalt",
        "connectivity_degree": 2
      },
      "geometry": {
        "type": "LineString",
        "coordinates": [
          [
            77.20846307604421,
            28.61413594940529
          ],
          [
            77.20871593144322,
            28.61405242741335
          ]
        ]
      }
    },
    {
      "type": "Feature",
      "properties": {
        "road_id": "AI-RD-016",
        "hierarchy": "Access Lane / Footpath",
        "estimated_width_m": 3.5,
        "length_m": 21.37,
        "surface_type": "Paved Asphalt",
        "connectivity_degree": 2
      },
      "geometry": {
        "type": "LineString",
        "coordinates": [
          [
            77.20750736243694,
            28.616155492631165
          ],
          [
            77.20761324393817,
            28.615986845306068
          ]
        ]
      }
    },
    {
      "type": "Feature",
      "properties": {
        "road_id": "AI-RD-017",
        "hierarchy": "Access Lane / Footpath",
        "estimated_width_m": 3.5,
        "length_m": 26.09,
        "surface_type": "Paved Asphalt",
        "connectivity_degree": 2
      },
      "geometry": {
        "type": "LineString",
        "coordinates": [
          [
            77.20958038620448,
            28.612901458552745
          ],
          [
            77.20971105941743,
            28.612696314228163
          ]
        ]
      }
    },
    {
      "type": "Feature",
      "properties": {
        "road_id": "AI-RD-018",
        "hierarchy": "Access Lane / Footpath",
        "estimated_width_m": 3.5,
        "length_m": 27.44,
        "surface_type": "Paved Asphalt",
        "connectivity_degree": 2
      },
      "geometry": {
        "type": "LineString",
        "coordinates": [
          [
            77.20715417599969,
            28.61457142269619
          ],
          [
            77.20742811839231,
            28.614518237207925
          ]
        ]
      }
    },
    {
      "type": "Feature",
      "properties": {
        "road_id": "AI-RD-019",
        "hierarchy": "Access Lane / Footpath",
        "estimated_width_m": 3.5,
        "length_m": 21.81,
        "surface_type": "Paved Asphalt",
        "connectivity_degree": 2
      },
      "geometry": {
        "type": "LineString",
        "coordinates": [
          [
            77.2088553247269,
            28.61401947773462
          ],
          [
            77.20906886310088,
            28.613962762173255
          ]
        ]
      }
    },
    {
      "type": "Feature",
      "properties": {
        "road_id": "AI-RD-020",
        "hierarchy": "Access Lane / Footpath",
        "estimated_width_m": 3.5,
        "length_m": 18.44,
        "surface_type": "Paved Asphalt",
        "connectivity_degree": 2
      },
      "geometry": {
        "type": "LineString",
        "coordinates": [
          [
            77.21059902911368,
            28.613352227967464
          ],
          [
            77.21077251235083,
            28.613287140380457
          ]
        ]
      }
    },
    {
      "type": "Feature",
      "properties": {
        "road_id": "AI-RD-021",
        "hierarchy": "Access Lane / Footpath",
        "estimated_width_m": 3.5,
        "length_m": 19.79,
        "surface_type": "Paved Asphalt",
        "connectivity_degree": 2
      },
      "geometry": {
        "type": "LineString",
        "coordinates": [
          [
            77.2094536954851,
            28.613736331218607
          ],
          [
            77.20965237283905,
            28.613702414135627
          ]
        ]
      }
    },
    {
      "type": "Feature",
      "properties": {
        "road_id": "AI-RD-022",
        "hierarchy": "Access Lane / Footpath",
        "estimated_width_m": 3.5,
        "length_m": 20.48,
        "surface_type": "Paved Asphalt",
        "connectivity_degree": 2
      },
      "geometry": {
        "type": "LineString",
        "coordinates": [
          [
            77.20875588989486,
            28.614056287534563
          ],
          [
            77.20894972424176,
            28.613986359075557
          ]
        ]
      }
    },
    {
      "type": "Feature",
      "properties": {
        "road_id": "AI-RD-023",
        "hierarchy": "Access Lane / Footpath",
        "estimated_width_m": 3.5,
        "length_m": 24.16,
        "surface_type": "Paved Asphalt",
        "connectivity_degree": 2
      },
      "geometry": {
        "type": "LineString",
        "coordinates": [
          [
            77.20777967217906,
            28.61441145429805
          ],
          [
            77.20800799705577,
            28.61432833324238
          ]
        ]
      }
    },
    {
      "type": "Feature",
      "properties": {
        "road_id": "AI-RD-024",
        "hierarchy": "Access Lane / Footpath",
        "estimated_width_m": 3.5,
        "length_m": 37.87,
        "surface_type": "Paved Asphalt",
        "connectivity_degree": 2
      },
      "geometry": {
        "type": "LineString",
        "coordinates": [
          [
            77.2100831245647,
            28.61210466536356
          ],
          [
            77.2102721748017,
            28.611806535667405
          ]
        ]
      }
    },
    {
      "type": "Feature",
      "properties": {
        "road_id": "AI-RD-025",
        "hierarchy": "Secondary Access",
        "estimated_width_m": 6.0,
        "length_m": 72.17,
        "surface_type": "Paved Asphalt",
        "connectivity_degree": 2
      },
      "geometry": {
        "type": "LineString",
        "coordinates": [
          [
            77.21083671859067,
            28.613277070079093
          ],
          [
            77.21152076784891,
            28.613033119638164
          ]
        ]
      }
    },
    {
      "type": "Feature",
      "properties": {
        "road_id": "AI-RD-026",
        "hierarchy": "Access Lane / Footpath",
        "estimated_width_m": 3.5,
        "length_m": 25.4,
        "surface_type": "Paved Asphalt",
        "connectivity_degree": 2
      },
      "geometry": {
        "type": "LineString",
        "coordinates": [
          [
            77.20925656919412,
            28.613404798180508
          ],
          [
            77.20938222730695,
            28.61320424731232
          ]
        ]
      }
    },
    {
      "type": "Feature",
      "properties": {
        "road_id": "AI-RD-027",
        "hierarchy": "Access Lane / Footpath",
        "estimated_width_m": 3.5,
        "length_m": 20.99,
        "surface_type": "Paved Asphalt",
        "connectivity_degree": 2
      },
      "geometry": {
        "type": "LineString",
        "coordinates": [
          [
            77.20751135678525,
            28.616150916143738
          ],
          [
            77.2076183548113,
            28.615986762041263
          ]
        ]
      }
    },
    {
      "type": "Feature",
      "properties": {
        "road_id": "AI-RD-028",
        "hierarchy": "Access Lane / Footpath",
        "estimated_width_m": 3.5,
        "length_m": 15.57,
        "surface_type": "Paved Asphalt",
        "connectivity_degree": 2
      },
      "geometry": {
        "type": "LineString",
        "coordinates": [
          [
            77.20713520774301,
            28.61459338644763
          ],
          [
            77.20728342442392,
            28.614542248964266
          ]
        ]
      }
    },
    {
      "type": "Feature",
      "properties": {
        "road_id": "AI-RD-029",
        "hierarchy": "Access Lane / Footpath",
        "estimated_width_m": 3.5,
        "length_m": 20.48,
        "surface_type": "Paved Asphalt",
        "connectivity_degree": 2
      },
      "geometry": {
        "type": "LineString",
        "coordinates": [
          [
            77.20752160992205,
            28.614490548003687
          ],
          [
            77.20771544599008,
            28.61442062122667
          ]
        ]
      }
    },
    {
      "type": "Feature",
      "properties": {
        "road_id": "AI-RD-030",
        "hierarchy": "Access Lane / Footpath",
        "estimated_width_m": 3.5,
        "length_m": 18.81,
        "surface_type": "Paved Asphalt",
        "connectivity_degree": 2
      },
      "geometry": {
        "type": "LineString",
        "coordinates": [
          [
            77.20751742693047,
            28.614486104729945
          ],
          [
            77.20769500280205,
            28.614420954282775
          ]
        ]
      }
    }
  ]
}