{
  "type": "FeatureCollection",
  "features": [
    {
      "type": "Feature",
      "properties": {
        "building_id": "AI-BLD-upload_1787996203038-0001",
        "height_mean_m": null,
        "height_max_m": null,
        "estimated_floors": null,
        "height_data_available": false,
        "footprint_area_sqm": 904.56,
        "perimeter_m": 165.17,
        "confidence_score": 0.872,
        "extraction_method": "RGB-Only Edge/Contour Segmentation (no DSM/DTM survey)"
      },
      "geometry": {
        "type": "Polygon",
        "coordinates": [
          [
            [
              77.21007493434614,
              28.61218408461969
            ],
            [
              77.21006929778801,
              28.61215333680171
            ],
            [
              77.21000432388408,
              28.61214999073067
            ],
            [
              77.21000395494734,
              28.61213237403733
            ],
            [
              77.21028853835828,
              28.611609285575238
            ],
            [
              77.21043263713892,
              28.611623135267056
            ],
            [
              77.21040848326078,
              28.61166753248735
            ],
            [
              77.21012226725303,
              28.612193622890334
            ],
            [
              77.21007493434614,
              28.61218408461969
            ]
          ]
        ]
      }
    },
    {
      "type": "Feature",
      "properties": {
        "building_id": "AI-BLD-upload_1787996203038-0002",
        "height_mean_m": null,
        "height_max_m": null,
        "estimated_floors": null,
        "height_data_available": false,
        "footprint_area_sqm": 873.31,
        "perimeter_m": 181.76,
        "confidence_score": 0.866,
        "extraction_method": "RGB-Only Edge/Contour Segmentation (no DSM/DTM survey)"
      },
      "geometry": {
        "type": "Polygon",
        "coordinates": [
          [
            [
              77.20959179811256,
              28.612954145253454
            ],
            [
              77.20949188715247,
              28.612951368605916
            ],
            [
              77.20949151828896,
              28.61293375190855
            ],
            [
              77.20959333774587,
              28.612748957746216
            ],
            [
              77.20963728084106,
              28.612741931112357
            ],
            [
              77.20966168450728,
              28.612697640267395
            ],
            [
              77.2098501663234,
              28.61235555843354
            ],
            [
              77.20986872904255,
              28.61235045742974
            ],
            [
              77.20997852900318,
              28.61234866687564
            ],
            [
              77.209978990173,
              28.612370687741976
            ],
            [
              77.20988016355987,
              28.612550052164718
            ],
            [
              77.20981816375274,
              28.612558348836984
            ],
            [
              77.20981464848289,
              28.612628897000096
            ],
            [
              77.20963757820222,
              28.612950266773936
            ],
            [
              77.20959179811256,
              28.612954145253454
            ]
          ]
        ]
      }
    },
    {
      "type": "Feature",
      "properties": {
        "building_id": "AI-BLD-upload_1787996203038-0003",
        "height_mean_m": null,
        "height_max_m": null,
        "estimated_floors": null,
        "height_data_available": false,
        "footprint_area_sqm": 881.31,
        "perimeter_m": 388.47,
        "confidence_score": 0.776,
        "extraction_method": "RGB-Only Edge/Contour Segmentation (no DSM/DTM survey)"
      },
      "geometry": {
        "type": "Polygon",
        "coordinates": [
          [
            [
              77.21055549219207,
              28.613436270000918
            ],
            [
              77.21054847147803,
              28.613339459655908
            ],
            [
              77.21055808433455,
              28.613321680143116
            ],
            [
              77.21149454350075,
              28.612980381038213
            ],
            [
              77.21153447095463,
              28.612979729446057
            ],
            [
              77.21153539396799,
              28.61302377112821
            ],
            [
              77.21148539233029,
              28.613020181449706
            ],
            [
              77.21126736016237,
              28.61309863585895
            ],
            [
              77.21080162592364,
              28.613269244730294
            ],
            [
              77.21079709633388,
              28.613291347004896
            ],
            [
              77.21086706189067,
              28.613294611229076
            ],
            [
              77.21091170359965,
              28.613280665877966
            ],
            [
              77.21151616863843,
              28.61305933027232
            ],
            [
              77.21153613238016,
              28.613059004473705
            ],
            [
              77.21153677849192,
              28.613089833650847
            ],
            [
              77.21088767161416,
              28.613325114713213
            ],
            [
              77.21073803536926,
              28.613331961606196
            ],
            [
              77.21072906842683,
              28.6133805703228
            ],
            [
              77.21058543793094,
              28.613435781508212
            ],
            [
              77.21055549219207,
              28.613436270000918
            ]
          ]
        ]
      }
    },
    {
      "type": "Feature",
      "properties": {
        "building_id": "AI-BLD-upload_1787996203038-0004",
        "height_mean_m": null,
        "height_max_m": null,
        "estimated_floors": null,
        "height_data_available": false,
        "footprint_area_sqm": 758.76,
        "perimeter_m": 183.81,
        "confidence_score": 0.84,
        "extraction_method": "RGB-Only Edge/Contour Segmentation (no DSM/DTM survey)"
      },
      "geometry": {
        "type": "Polygon",
        "coordinates": [
          [
            [
              77.20909922636335,
              28.613750792245
            ],
            [
              77.20898443390242,
              28.613752663524917
            ],
            [
              77.20898406511135,
              28.613735046823592
            ],
            [
              77.20908067486972,
              28.613554743856184
            ],
            [
              77.20910505920156,
              28.613552441644302
            ],
            [
              77.20919979536345,
              28.61354649156202
            ],
            [
              77.20920636567259,
              28.613383374361806
            ],
            [
              77.20933554047353,
              28.613142293205648
            ],
            [
              77.20947108215654,
              28.613149963321263
            ],
            [
              77.20945810319992,
              28.613174186292902
            ],
            [
              77.20909922636335,
              28.613750792245
            ]
          ]
        ]
      }
    },
    {
      "type": "Feature",
      "properties": {
        "building_id": "AI-BLD-upload_1787996203038-0005",
        "height_mean_m": null,
        "height_max_m": null,
        "estimated_floors": null,
        "height_data_available": false,
        "footprint_area_sqm": 946.15,
        "perimeter_m": 197.1,
        "confidence_score": 0.846,
        "extraction_method": "RGB-Only Edge/Contour Segmentation (no DSM/DTM survey)"
      },
      "geometry": {
        "type": "Polygon",
        "coordinates": [
          [
            [
              77.20966366768664,
              28.613763618021775
            ],
            [
              77.20964879980039,
              28.613748923215464
            ],
            [
              77.20942373199686,
              28.613749907494398
            ],
            [
              77.20942336313253,
              28.613732290798307
            ],
            [
              77.20995851424377,
              28.613538526092103
            ],
            [
              77.21008827928492,
              28.613536409807168
            ],
            [
              77.21010170505211,
              28.613525832220887
            ],
            [
              77.21011212717154,
              28.61348315274959
            ],
            [
              77.21028080504965,
              28.613431939199504
            ],
            [
              77.21027821261124,
              28.613546529066994
            ],
            [
              77.20968862256152,
              28.613763211104892
            ],
            [
              77.20966366768664,
              28.613763618021775
            ]
          ]
        ]
      }
    },
    {
      "type": "Feature",
      "properties": {
        "building_id": "AI-BLD-upload_1787996203038-0006",
        "height_mean_m": null,
        "height_max_m": null,
        "estimated_floors": null,
        "height_data_available": false,
        "footprint_area_sqm": 216.96,
        "perimeter_m": 61.52,
        "confidence_score": 0.863,
        "extraction_method": "RGB-Only Edge/Contour Segmentation (no DSM/DTM survey)"
      },
      "geometry": {
        "type": "Polygon",
        "coordinates": [
          [
            [
              77.20921770712484,
              28.61392508785123
            ],
            [
              77.2092153097186,
              28.613810579312705
            ],
            [
              77.20938888738472,
              28.61375488128238
            ],
            [
              77.20939128497369,
              28.61386938980841
            ],
            [
              77.20921770712484,
              28.61392508785123
            ]
          ]
        ]
      }
    },
    {
      "type": "Feature",
      "properties": {
        "building_id": "AI-BLD-upload_1787996203038-0007",
        "height_mean_m": null,
        "height_max_m": null,
        "estimated_floors": null,
        "height_data_available": false,
        "footprint_area_sqm": 1153.59,
        "perimeter_m": 238.15,
        "confidence_score": 0.715,
        "extraction_method": "RGB-Only Edge/Contour Segmentation (no DSM/DTM survey)"
      },
      "geometry": {
        "type": "Polygon",
        "coordinates": [
          [
            [
              77.20832578164529,
              28.614248023318883
            ],
            [
              77.20831913154986,
              28.6141688294676
            ],
            [
              77.20827911138947,
              28.614165075960354
            ],
            [
              77.20827874270978,
              28.614147459251704
            ],
            [
              77.20882887125724,
              28.613953454791044
            ],
            [
              77.2088584484046,
              28.613935349969363
            ],
            [
              77.20892601730701,
              28.61382410661396
            ],
            [
              77.20894598122835,
              28.61382378118881
            ],
            [
              77.20894329516126,
              28.613933966929586
            ],
            [
              77.20895355372393,
              28.613947016741417
            ],
            [
              77.20914820216582,
              28.613943843669002
            ],
            [
              77.20914857098748,
              28.61396146036783
            ],
            [
              77.20892055293734,
              28.614040073920272
            ],
            [
              77.20879484359158,
              28.61423597284982
            ],
            [
              77.20876988858988,
              28.614236379608318
            ],
            [
              77.20876832135082,
              28.61416150862183
            ],
            [
              77.20872820899794,
              28.614153351072222
            ],
            [
              77.20872756367788,
              28.61412252184136
            ],
            [
              77.20869752551934,
              28.61411860575844
            ],
            [
              77.20860842507341,
              28.614155303407163
            ],
            [
              77.20850869730671,
              28.614161334448674
            ],
            [
              77.20849446174532,
              28.614196811884206
            ],
            [
              77.20832578164529,
              28.614248023318883
            ]
          ]
        ]
      }
    },
    {
      "type": "Feature",
      "properties": {
        "building_id": "AI-BLD-upload_1787996203038-0008",
        "height_mean_m": null,
        "height_max_m": null,
        "estimated_floors": null,
        "height_data_available": false,
        "footprint_area_sqm": 1184.59,
        "perimeter_m": 261.98,
        "confidence_score": 0.827,
        "extraction_method": "RGB-Only Edge/Contour Segmentation (no DSM/DTM survey)"
      },
      "geometry": {
        "type": "Polygon",
        "coordinates": [
          [
            [
              77.2069879746546,
              28.614736820222394
            ],
            [
              77.20698557958625,
              28.614622311525064
            ],
            [
              77.20767426377937,
              28.614368781090533
            ],
            [
              77.20785893114805,
              28.61436577244864
            ],
            [
              77.20787146981017,
              28.614354378444684
            ],
            [
              77.2078727983323,
              28.614312678354693
            ],
            [
              77.2078930760323,
              28.614294251797638
            ],
            [
              77.20802114613889,
              28.614244176051958
            ],
            [
              77.20805109215823,
              28.614243688106466
            ],
            [
              77.20804849733615,
              28.614358278052862
            ],
            [
              77.20744891555685,
              28.614575113467758
            ],
            [
              77.20716941835622,
              28.614579666175374
            ],
            [
              77.20715656416198,
              28.6146812061987
            ],
            [
              77.2069879746546,
              28.614736820222394
            ]
          ]
        ]
      }
    },
    {
      "type": "Feature",
      "properties": {
        "building_id": "AI-BLD-upload_1787996203038-0009",
        "height_mean_m": null,
        "height_max_m": null,
        "estimated_floors": null,
        "height_data_available": false,
        "footprint_area_sqm": 585.94,
        "perimeter_m": 107.2,
        "confidence_score": 0.83,
        "extraction_method": "RGB-Only Edge/Contour Segmentation (no DSM/DTM survey)"
      },
      "geometry": {
        "type": "Polygon",
        "coordinates": [
          [
            [
              77.20646750816172,
              28.614917117441856
            ],
            [
              77.20646520573673,
              28.614807012889468
            ],
            [
              77.20666540495625,
              28.614690004757147
            ],
            [
              77.20670095732852,
              28.61473737045358
            ],
            [
              77.20671870074518,
              28.61476100962311
            ],
            [
              77.20673367300547,
              28.614780956830373
            ],
            [
              77.20685894476973,
              28.614774167068756
            ],
            [
              77.20684942326857,
              28.61479635053799
            ],
            [
              77.20655958766801,
              28.614965747655088
            ],
            [
              77.20646750816172,
              28.614917117441856
            ]
          ]
        ]
      }
    },
    {
      "type": "Feature",
      "properties": {
        "building_id": "AI-BLD-upload_1787996203038-0010",
        "height_mean_m": null,
        "height_max_m": null,
        "estimated_floors": null,
        "height_data_available": false,
        "footprint_area_sqm": 708.22,
        "perimeter_m": 176.86,
        "confidence_score": 0.857,
        "extraction_method": "RGB-Only Edge/Contour Segmentation (no DSM/DTM survey)"
      },
      "geometry": {
        "type": "Polygon",
        "coordinates": [
          [
            [
              77.20833553843045,
              28.61495277293006
            ],
            [
              77.20822074460327,
              28.614954643634967
            ],
            [
              77.2082251826153,
              28.614928137241122
            ],
            [
              77.20860020601377,
              28.614364634177193
            ],
            [
              77.20870241147212,
              28.6143520270789
            ],
            [
              77.20869325915201,
              28.61439182735876
            ],
            [
              77.20859354406679,
              28.61454165824442
            ],
            [
              77.20857189472734,
              28.614556815537238
            ],
            [
              77.20851209471252,
              28.614562195837618
            ],
            [
              77.20850959259016,
              28.614681189936906
            ],
            [
              77.20833553843045,
              28.61495277293006
            ]
          ]
        ]
      }
    },
    {
      "type": "Feature",
      "properties": {
        "building_id": "AI-BLD-upload_1787996203038-0011",
        "height_mean_m": null,
        "height_max_m": null,
        "estimated_floors": null,
        "height_data_available": false,
        "footprint_area_sqm": 920.85,
        "perimeter_m": 181.02,
        "confidence_score": 0.862,
        "extraction_method": "RGB-Only Edge/Contour Segmentation (no DSM/DTM survey)"
      },
      "geometry": {
        "type": "Polygon",
        "coordinates": [
          [
            [
              77.2077233470959,
              28.615760176177023
            ],
            [
              77.20771281202956,
              28.615733913743107
            ],
            [
              77.20781572218827,
              28.615556344983307
            ],
            [
              77.20789860214391,
              28.61554584814715
            ],
            [
              77.20790138138535,
              28.61544006656656
            ],
            [
              77.20806433350862,
              28.615158894921144
            ],
            [
              77.20808514301497,
              28.61515510885605
            ],
            [
              77.20819494602499,
              28.615153319586554
            ],
            [
              77.20819540687638,
              28.615175340470337
            ],
            [
              77.20785821360457,
              28.615757162554683
            ],
            [
              77.2078081953843,
              28.615758793767277
            ],
            [
              77.2077233470959,
              28.615760176177023
            ]
          ]
        ]
      }
    },
    {
      "type": "Feature",
      "properties": {
        "building_id": "AI-BLD-upload_1787996203038-0012",
        "height_mean_m": null,
        "height_max_m": null,
        "estimated_floors": null,
        "height_data_available": false,
        "footprint_area_sqm": 375.2,
        "perimeter_m": 91.2,
        "confidence_score": 0.847,
        "extraction_method": "RGB-Only Edge/Contour Segmentation (no DSM/DTM survey)"
      },
      "geometry": {
        "type": "Polygon",
        "coordinates": [
          [
            [
              77.20746249036951,
              28.616178559781062
            ],
            [
              77.2074566699833,
              28.616139003484346
            ],
            [
              77.20746582795022,
              28.616121037837548
            ],
            [
              77.20759614719891,
              28.615865383297162
            ],
            [
              77.20763842384773,
              28.615882163404272
            ],
            [
              77.20763719370687,
              28.61593780696627
            ],
            [
              77.20765752664865,
              28.615955098420404
            ],
            [
              77.20768248207538,
              28.6159546918444
            ],
            [
              77.20765913387206,
              28.616000495466437
            ],
            [
              77.20756800048629,
              28.61617927710467
            ],
            [
              77.20746249036951,
              28.616178559781062
            ]
          ]
        ]
      }
    }
  ]
}