{
  "type": "FeatureCollection",
  "features": [
    {
      "type": "Feature",
      "properties": {
        "conflict_id": "CONF-OVR-0001",
        "type": "Parcel Overlap",
        "severity": "High",
        "parcel_1": "ULPIN-2026-d_07-00044",
        "parcel_2": "ULPIN-2026-d_07-00045",
        "survey_number_1": "SY-102/44",
        "survey_number_2": "SY-102/45",
        "overlap_area_sqm": 0.0,
        "description": "Overlapping boundary (0.0 sqm) between SY-102/44 and SY-102/45",
        "suggested_action": "Execute interactive polygon trim or merge boundary in Cadastral Editor",
        "status": "Open"
      },
      "geometry": {
        "type": "Polygon",
        "coordinates": [
          [
            [
              77.21101936446405,
              28.611816444830293
            ],
            [
              77.21100040876824,
              28.61181703166356
            ],
            [
              77.2110092100424,
              28.612237103309234
            ],
            [
              77.21105199889303,
              28.61223640512456
            ],
            [
              77.21101936446405,
              28.611816444830293
            ]
          ]
        ]
      }
    },
    {
      "type": "Feature",
      "properties": {
        "conflict_id": "CONF-OVR-0002",
        "type": "Parcel Overlap",
        "severity": "High",
        "parcel_1": "ULPIN-2026-d_07-00062",
        "parcel_2": "ULPIN-2026-d_07-00063",
        "survey_number_1": "SY-103/62",
        "survey_number_2": "SY-103/63",
        "overlap_area_sqm": 0.0,
        "description": "Overlapping boundary (0.0 sqm) between SY-103/62 and SY-103/63",
        "suggested_action": "Execute interactive polygon trim or merge boundary in Cadastral Editor",
        "status": "Open"
      },
      "geometry": {
        "type": "Polygon",
        "coordinates": [
          [
            [
              77.21123475976353,
              28.612550445355744
            ],
            [
              77.21120268928858,
              28.612550968697217
            ],
            [
              77.2112106548838,
              28.61293110852894
            ],
            [
              77.2112468823826,
              28.612930608541113
            ],
            [
              77.21123476270043,
              28.612550445353435
            ],
            [
              77.21123475976353,
              28.612550445355744
            ]
          ]
        ]
      }
    },
    {
      "type": "Feature",
      "properties": {
        "conflict_id": "CONF-OVR-0003",
        "type": "Parcel Overlap",
        "severity": "High",
        "parcel_1": "ULPIN-2026-d_07-00116",
        "parcel_2": "ULPIN-2026-d_07-00117",
        "survey_number_1": "SY-106/116",
        "survey_number_2": "SY-106/117",
        "overlap_area_sqm": 0.0,
        "description": "Overlapping boundary (0.0 sqm) between SY-106/116 and SY-106/117",
        "suggested_action": "Execute interactive polygon trim or merge boundary in Cadastral Editor",
        "status": "Open"
      },
      "geometry": {
        "type": "Polygon",
        "coordinates": [
          [
            [
              77.2086196360579,
              28.615802306100438
            ],
            [
              77.20858823380331,
              28.615802817975187
            ],
            [
              77.20859602232834,
              28.616174897658382
            ],
            [
              77.20863068237726,
              28.616174707415674
            ],
            [
              77.20861964415911,
              28.61580230601995
            ],
            [
              77.2086196360579,
              28.615802306100438
            ]
          ]
        ]
      }
    },
    {
      "type": "Feature",
      "properties": {
        "conflict_id": "CONF-OVR-0004",
        "type": "Parcel Overlap",
        "severity": "High",
        "parcel_1": "ULPIN-2026-d_07-00170",
        "parcel_2": "ULPIN-2026-d_07-00171",
        "survey_number_1": "SY-109/170",
        "survey_number_2": "SY-109/171",
        "overlap_area_sqm": 0.0,
        "description": "Overlapping boundary (0.0 sqm) between SY-109/170 and SY-109/171",
        "suggested_action": "Execute interactive polygon trim or merge boundary in Cadastral Editor",
        "status": "Open"
      },
      "geometry": {
        "type": "Polygon",
        "coordinates": [
          [
            [
              77.20688923675758,
              28.612796120935677
            ],
            [
              77.20689883023326,
              28.61325483777654
            ],
            [
              77.2069301682099,
              28.61325463779796
            ],
            [
              77.20691660328703,
              28.612795527738538
            ],
            [
              77.20688923675758,
              28.612796120935677
            ]
          ]
        ]
      }
    },
    {
      "type": "Feature",
      "properties": {
        "conflict_id": "CONF-OVR-0005",
        "type": "Parcel Overlap",
        "severity": "High",
        "parcel_1": "ULPIN-2026-d_07-00206",
        "parcel_2": "ULPIN-2026-d_07-00207",
        "survey_number_1": "SY-110/206",
        "survey_number_2": "SY-110/207",
        "overlap_area_sqm": 0.0,
        "description": "Overlapping boundary (0.0 sqm) between SY-110/206 and SY-110/207",
        "suggested_action": "Execute interactive polygon trim or merge boundary in Cadastral Editor",
        "status": "Open"
      },
      "geometry": {
        "type": "Polygon",
        "coordinates": [
          [
            [
              77.20935373934586,
              28.614786365237254
            ],
            [
              77.20930659228142,
              28.61478713399189
            ],
            [
              77.2093167260871,
              28.615271115873156
            ],
            [
              77.20934776997763,
              28.615270609680394
            ],
            [
              77.20935374619567,
              28.614786365197983
            ],
            [
              77.20935373934586,
              28.614786365237254
            ]
          ]
        ]
      }
    },
    {
      "type": "Feature",
      "properties": {
        "conflict_id": "CONF-OVR-0006",
        "type": "Parcel Overlap",
        "severity": "High",
        "parcel_1": "ULPIN-2026-d_07-00230",
        "parcel_2": "ULPIN-2026-d_07-00243",
        "survey_number_1": "SY-111/230",
        "survey_number_2": "SY-111/243",
        "overlap_area_sqm": 0.0,
        "description": "Overlapping boundary (0.0 sqm) between SY-111/230 and SY-111/243",
        "suggested_action": "Execute interactive polygon trim or merge boundary in Cadastral Editor",
        "status": "Open"
      },
      "geometry": {
        "type": "Polygon",
        "coordinates": [
          [
            [
              77.20796427260451,
              28.61378657758398
            ],
            [
              77.20796400616939,
              28.613388952343648
            ],
            [
              77.20793116875619,
              28.613389538599346
            ],
            [
              77.2079394825235,
              28.61378686857697
            ],
            [
              77.20796427260451,
              28.61378657758398
            ]
          ]
        ]
      }
    },
    {
      "type": "Feature",
      "properties": {
        "conflict_id": "CONF-ENC-0007",
        "type": "Building Encroachment",
        "severity": "Critical",
        "building_id": "AI-BLD-urban_ward_07-0011",
        "parcels_involved": [
          "SY-100/9",
          "SY-100/10"
        ],
        "encroachment_type": "Multi-Parcel Straddle",
        "description": "Building AI-BLD-urban_ward_07-0011 extends across boundary of SY-100/9, SY-100/10",
        "suggested_action": "Verify setback in field with GNSS CORS survey or initiate boundary adjustment",
        "status": "Open"
      },
      "geometry": {
        "type": "Polygon",
        "coordinates": [
          [
            [
              77.2075563988991,
              28.611733231536654
            ],
            [
              77.20718313146831,
              28.611730288603376
            ],
            [
              77.20718494074308,
              28.611572359481787
            ],
            [
              77.20753682157368,
              28.611530536629022
            ],
            [
              77.2075563988991,
              28.611733231536654
            ]
          ]
        ]
      }
    },
    {
      "type": "Feature",
      "properties": {
        "conflict_id": "CONF-ENC-0008",
        "type": "Building Encroachment",
        "severity": "Critical",
        "building_id": "AI-BLD-urban_ward_07-0021",
        "parcels_involved": [
          "SY-101/27",
          "SY-101/36"
        ],
        "encroachment_type": "Multi-Parcel Straddle",
        "description": "Building AI-BLD-urban_ward_07-0021 extends across boundary of SY-101/27, SY-101/36",
        "suggested_action": "Verify setback in field with GNSS CORS survey or initiate boundary adjustment",
        "status": "Open"
      },
      "geometry": {
        "type": "Polygon",
        "coordinates": [
          [
            [
              77.20953742446149,
              28.61209795121216
            ],
            [
              77.2095221984904,
              28.61185909448719
            ],
            [
              77.20964987072011,
              28.611852501409256
            ],
            [
              77.20964599904508,
              28.611667596541043
            ],
            [
              77.20979931874606,
              28.61166509655806
            ],
            [
              77.20982362240844,
              28.612093284602405
            ],
            [
              77.20953742446149,
              28.61209795121216
            ]
          ]
        ]
      }
    },
    {
      "type": "Feature",
      "properties": {
        "conflict_id": "CONF-ENC-0009",
        "type": "Building Encroachment",
        "severity": "Critical",
        "building_id": "AI-BLD-urban_ward_07-0025",
        "parcels_involved": [
          "SY-100/13",
          "SY-100/14"
        ],
        "encroachment_type": "Multi-Parcel Straddle",
        "description": "Building AI-BLD-urban_ward_07-0025 extends across boundary of SY-100/13, SY-100/14",
        "suggested_action": "Verify setback in field with GNSS CORS survey or initiate boundary adjustment",
        "status": "Open"
      },
      "geometry": {
        "type": "Polygon",
        "coordinates": [
          [
            [
              77.20643627603108,
              28.612198103937416
            ],
            [
              77.20642239595806,
              28.611778767889337
            ],
            [
              77.20674957332743,
              28.61177795202432
            ],
            [
              77.20691169737633,
              28.61216334275001
            ],
            [
              77.20643627603108,
              28.612198103937416
            ]
          ]
        ]
      }
    },
    {
      "type": "Feature",
      "properties": {
        "conflict_id": "CONF-ENC-0010",
        "type": "Building Encroachment",
        "severity": "Critical",
        "building_id": "AI-BLD-urban_ward_07-0027",
        "parcels_involved": [
          "SY-102/37",
          "SY-102/45"
        ],
        "encroachment_type": "Multi-Parcel Straddle",
        "description": "Building AI-BLD-urban_ward_07-0027 extends across boundary of SY-102/37, SY-102/45",
        "suggested_action": "Verify setback in field with GNSS CORS survey or initiate boundary adjustment",
        "status": "Open"
      },
      "geometry": {
        "type": "Polygon",
        "coordinates": [
          [
            [
              77.21147673271749,
              28.61217910321171
            ],
            [
              77.21137164559853,
              28.611849044646533
            ],
            [
              77.21149625524326,
              28.611818149982906
            ],
            [
              77.21160758980358,
              28.61216782922025
            ],
            [
              77.21147673271749,
              28.61217910321171
            ]
          ]
        ]
      }
    },
    {
      "type": "Feature",
      "properties": {
        "conflict_id": "CONF-ENC-0011",
        "type": "Building Encroachment",
        "severity": "Critical",
        "building_id": "AI-BLD-urban_ward_07-0029",
        "parcels_involved": [
          "SY-102/44",
          "SY-102/45"
        ],
        "encroachment_type": "Multi-Parcel Straddle",
        "description": "Building AI-BLD-urban_ward_07-0029 extends across boundary of SY-102/44, SY-102/45",
        "suggested_action": "Verify setback in field with GNSS CORS survey or initiate boundary adjustment",
        "status": "Open"
      },
      "geometry": {
        "type": "Polygon",
        "coordinates": [
          [
            [
              77.21078726374053,
              28.612212909846683
            ],
            [
              77.21077979976668,
              28.611856630022814
            ],
            [
              77.21098422623956,
              28.61185329494414
            ],
            [
              77.21101203912536,
              28.612204731318823
            ],
            [
              77.21078726374053,
              28.612212909846683
            ]
          ]
        ]
      }
    },
    {
      "type": "Feature",
      "properties": {
        "conflict_id": "CONF-ENC-0012",
        "type": "Building Encroachment",
        "severity": "Critical",
        "building_id": "AI-BLD-urban_ward_07-0063",
        "parcels_involved": [
          "SY-103/62",
          "SY-103/63"
        ],
        "encroachment_type": "Multi-Parcel Straddle",
        "description": "Building AI-BLD-urban_ward_07-0063 extends across boundary of SY-103/62, SY-103/63",
        "suggested_action": "Verify setback in field with GNSS CORS survey or initiate boundary adjustment",
        "status": "Open"
      },
      "geometry": {
        "type": "Polygon",
        "coordinates": [
          [
            [
              77.2108529212843,
              28.612906596173687
            ],
            [
              77.21085633966635,
              28.612581718741126
            ],
            [
              77.21120386701833,
              28.612576048597074
            ],
            [
              77.21121578184042,
              28.61290067580362
            ],
            [
              77.2108529212843,
              28.612906596173687
            ]
          ]
        ]
      }
    },
    {
      "type": "Feature",
      "properties": {
        "conflict_id": "CONF-ENC-0013",
        "type": "Building Encroachment",
        "severity": "Critical",
        "building_id": "AI-BLD-urban_ward_07-0074",
        "parcels_involved": [
          "SY-109/170",
          "SY-109/171"
        ],
        "encroachment_type": "Multi-Parcel Straddle",
        "description": "Building AI-BLD-urban_ward_07-0074 extends across boundary of SY-109/170, SY-109/171",
        "suggested_action": "Verify setback in field with GNSS CORS survey or initiate boundary adjustment",
        "status": "Open"
      },
      "geometry": {
        "type": "Polygon",
        "coordinates": [
          [
            [
              77.20663684062204,
              28.613232464643033
            ],
            [
              77.20664368513893,
              28.612826325498485
            ],
            [
              77.20688899984111,
              28.612822330727212
            ],
            [
              77.20690259923738,
              28.613228136911587
            ],
            [
              77.20663684062204,
              28.613232464643033
            ]
          ]
        ]
      }
    },
    {
      "type": "Feature",
      "properties": {
        "conflict_id": "CONF-ENC-0014",
        "type": "Building Encroachment",
        "severity": "Critical",
        "building_id": "AI-BLD-urban_ward_07-0133",
        "parcels_involved": [
          "SY-104/72",
          "SY-104/73"
        ],
        "encroachment_type": "Multi-Parcel Straddle",
        "description": "Building AI-BLD-urban_ward_07-0133 extends across boundary of SY-104/72, SY-104/73",
        "suggested_action": "Verify setback in field with GNSS CORS survey or initiate boundary adjustment",
        "status": "Open"
      },
      "geometry": {
        "type": "Polygon",
        "coordinates": [
          [
            [
              77.21090587732482,
              28.614214041532236
            ],
            [
              77.21086298637859,
              28.614117341776698
            ],
            [
              77.21102493373205,
              28.614061408578774
            ],
            [
              77.2110401827708,
              28.61403590519917
            ],
            [
              77.21120874355839,
              28.614028643398054
            ],
            [
              77.21121754010896,
              28.614204444873824
            ],
            [
              77.21090587732482,
              28.614214041532236
            ]
          ]
        ]
      }
    },
    {
      "type": "Feature",
      "properties": {
        "conflict_id": "CONF-ENC-0015",
        "type": "Building Encroachment",
        "severity": "Critical",
        "building_id": "AI-BLD-urban_ward_07-0136",
        "parcels_involved": [
          "SY-110/187",
          "SY-110/188"
        ],
        "encroachment_type": "Multi-Parcel Straddle",
        "description": "Building AI-BLD-urban_ward_07-0136 extends across boundary of SY-110/187, SY-110/188",
        "suggested_action": "Verify setback in field with GNSS CORS survey or initiate boundary adjustment",
        "status": "Open"
      },
      "geometry": {
        "type": "Polygon",
        "coordinates": [
          [
            [
              77.21013007820714,
              28.614276322285875
            ],
            [
              77.21007058596342,
              28.614117836015176
            ],
            [
              77.21015823547272,
              28.61409221637351
            ],
            [
              77.21022372427902,
              28.614266676971695
            ],
            [
              77.21013007820714,
              28.614276322285875
            ]
          ]
        ]
      }
    },
    {
      "type": "Feature",
      "properties": {
        "conflict_id": "CONF-ENC-0016",
        "type": "Building Encroachment",
        "severity": "Critical",
        "building_id": "AI-BLD-urban_ward_07-0144",
        "parcels_involved": [
          "SY-108/131",
          "SY-108/145"
        ],
        "encroachment_type": "Multi-Parcel Straddle",
        "description": "Building AI-BLD-urban_ward_07-0144 extends across boundary of SY-108/131, SY-108/145",
        "suggested_action": "Verify setback in field with GNSS CORS survey or initiate boundary adjustment",
        "status": "Open"
      },
      "geometry": {
        "type": "Polygon",
        "coordinates": [
          [
            [
              77.20616995129735,
              28.614620560649858
            ],
            [
              77.20611798908483,
              28.614412793146
            ],
            [
              77.20606537725895,
              28.61420242722182
            ],
            [
              77.2061839916772,
              28.614179327867546
            ],
            [
              77.2062916879845,
              28.61460994354512
            ],
            [
              77.20616995129735,
              28.614620560649858
            ]
          ]
        ]
      }
    },
    {
      "type": "Feature",
      "properties": {
        "conflict_id": "CONF-ENC-0017",
        "type": "Building Encroachment",
        "severity": "Critical",
        "building_id": "AI-BLD-urban_ward_07-0150",
        "parcels_involved": [
          "SY-104/72",
          "SY-104/84",
          "SY-104/85",
          "SY-104/86"
        ],
        "encroachment_type": "Multi-Parcel Straddle",
        "description": "Building AI-BLD-urban_ward_07-0150 extends across boundary of SY-104/72, SY-104/84, SY-104/85, SY-104/86",
        "suggested_action": "Verify setback in field with GNSS CORS survey or initiate boundary adjustment",
        "status": "Open"
      },
      "geometry": {
        "type": "Polygon",
        "coordinates": [
          [
            [
              77.21094154235091,
              28.614696180604167
            ],
            [
              77.21078668710902,
              28.61429934055611
            ],
            [
              77.21118708465058,
              28.61417767826058
            ],
            [
              77.21137713153348,
              28.614664697123647
            ],
            [
              77.21094154235091,
              28.614696180604167
            ]
          ]
        ]
      }
    },
    {
      "type": "Feature",
      "properties": {
        "conflict_id": "CONF-ENC-0018",
        "type": "Building Encroachment",
        "severity": "Critical",
        "building_id": "AI-BLD-urban_ward_07-0167",
        "parcels_involved": [
          "SY-110/185",
          "SY-110/208"
        ],
        "encroachment_type": "Multi-Parcel Straddle",
        "description": "Building AI-BLD-urban_ward_07-0167 extends across boundary of SY-110/185, SY-110/208",
        "suggested_action": "Verify setback in field with GNSS CORS survey or initiate boundary adjustment",
        "status": "Open"
      },
      "geometry": {
        "type": "Polygon",
        "coordinates": [
          [
            [
              77.21016004279913,
              28.61521871868045
            ],
            [
              77.21004736573356,
              28.614825099475308
            ],
            [
              77.21020354864267,
              28.614790286491885
            ],
            [
              77.21032238765328,
              28.615205429251642
            ],
            [
              77.21016004279913,
              28.61521871868045
            ]
          ]
        ]
      }
    },
    {
      "type": "Feature",
      "properties": {
        "conflict_id": "CONF-ENC-0019",
        "type": "Building Encroachment",
        "severity": "Critical",
        "building_id": "AI-BLD-urban_ward_07-0170",
        "parcels_involved": [
          "SY-110/206",
          "SY-110/207"
        ],
        "encroachment_type": "Multi-Parcel Straddle",
        "description": "Building AI-BLD-urban_ward_07-0170 extends across boundary of SY-110/206, SY-110/207",
        "suggested_action": "Verify setback in field with GNSS CORS survey or initiate boundary adjustment",
        "status": "Open"
      },
      "geometry": {
        "type": "Polygon",
        "coordinates": [
          [
            [
              77.20906130887882,
              28.61524114622356
            ],
            [
              77.20906098862791,
              28.61482594650193
            ],
            [
              77.20931331356168,
              28.61482579474942
            ],
            [
              77.20931363176581,
              28.615237065692824
            ],
            [
              77.20906130887882,
              28.61524114622356
            ]
          ]
        ]
      }
    },
    {
      "type": "Feature",
      "properties": {
        "conflict_id": "CONF-ENC-0020",
        "type": "Building Encroachment",
        "severity": "Critical",
        "building_id": "AI-BLD-urban_ward_07-0195",
        "parcels_involved": [
          "SY-104/80",
          "SY-104/81"
        ],
        "encroachment_type": "Multi-Parcel Straddle",
        "description": "Building AI-BLD-urban_ward_07-0195 extends across boundary of SY-104/80, SY-104/81",
        "suggested_action": "Verify setback in field with GNSS CORS survey or initiate boundary adjustment",
        "status": "Open"
      },
      "geometry": {
        "type": "Polygon",
        "coordinates": [
          [
            [
              77.21152594977167,
              28.61550320940016
            ],
            [
              77.21132653262563,
              28.61550195241282
            ],
            [
              77.21131754659996,
              28.615317131256486
            ],
            [
              77.21152709052637,
              28.61531371158901
            ],
            [
              77.21152594977167,
              28.61550320940016
            ]
          ]
        ]
      }
    },
    {
      "type": "Feature",
      "properties": {
        "conflict_id": "CONF-ENC-0021",
        "type": "Building Encroachment",
        "severity": "Critical",
        "building_id": "AI-BLD-urban_ward_07-0218",
        "parcels_involved": [
          "SY-106/116",
          "SY-106/117"
        ],
        "encroachment_type": "Multi-Parcel Straddle",
        "description": "Building AI-BLD-urban_ward_07-0218 extends across boundary of SY-106/116, SY-106/117",
        "suggested_action": "Verify setback in field with GNSS CORS survey or initiate boundary adjustment",
        "status": "Open"
      },
      "geometry": {
        "type": "Polygon",
        "coordinates": [
          [
            [
              77.20832378341385,
              28.616155450334844
            ],
            [
              77.20831982936542,
              28.615826068162676
            ],
            [
              77.20859801979331,
              28.615823467600784
            ],
            [
              77.20860195137801,
              28.61615090659547
            ],
            [
              77.20832378341385,
              28.616155450334844
            ]
          ]
        ]
      }
    }
  ]
}