{
  "type": "FeatureCollection",
  "features": [
    {
      "type": "Feature",
      "properties": {
        "point_id": "CORS-PT-0001",
        "parcel_ref": "ULPIN-IND-DL-00003",
        "easting": 1068924.8895,
        "northing": 1433638.0001,
        "elevation_m": 212.983,
        "accuracy_cm": 1.02,
        "surveyor_status": "GNSS Fixed"
      },
      "geometry": {
        "type": "Point",
        "coordinates": [
          80.23799526939187,
          12.915700129274521
        ]
      }
    },
    {
      "type": "Feature",
      "properties": {
        "point_id": "CORS-PT-0002",
        "parcel_ref": "ULPIN-IND-DL-00006",
        "easting": 1068924.8895,
        "northing": 1433565.0001,
        "elevation_m": 212.225,
        "accuracy_cm": 0.8,
        "surveyor_status": "GNSS Fixed"
      },
      "geometry": {
        "type": "Point",
        "coordinates": [
          80.23798153753333,
          12.915042780075048
        ]
      }
    },
    {
      "type": "Feature",
      "properties": {
        "point_id": "CORS-PT-0003",
        "parcel_ref": "ULPIN-IND-DL-00009",
        "easting": 1068973.6395,
        "northing": 1433565.0001,
        "elevation_m": 212.985,
        "accuracy_cm": 1.09,
        "surveyor_status": "GNSS Fixed"
      },
      "geometry": {
        "type": "Point",
        "coordinates": [
          80.23842904862236,
          12.915033784449234
        ]
      }
    },
    {
      "type": "Feature",
      "properties": {
        "point_id": "CORS-PT-0004",
        "parcel_ref": "ULPIN-IND-DL-00012",
        "easting": 1069022.3895,
        "northing": 1433638.0001,
        "elevation_m": 213.465,
        "accuracy_cm": 1.77,
        "surveyor_status": "GNSS Fixed"
      },
      "geometry": {
        "type": "Point",
        "coordinates": [
          80.23889029355166,
          12.915682136316319
        ]
      }
    },
    {
      "type": "Feature",
      "properties": {
        "point_id": "CORS-PT-0005",
        "parcel_ref": "ULPIN-IND-DL-00015",
        "easting": 1069071.1395,
        "northing": 1433601.5001,
        "elevation_m": 213.344,
        "accuracy_cm": 1.37,
        "surveyor_status": "GNSS Fixed"
      },
      "geometry": {
        "type": "Point",
        "coordinates": [
          80.23933093735961,
          12.915344464812726
        ]
      }
    },
    {
      "type": "Feature",
      "properties": {
        "point_id": "CORS-PT-0006",
        "parcel_ref": "ULPIN-IND-DL-00018",
        "easting": 1068924.8895,
        "northing": 1433758.5001,
        "elevation_m": 213.621,
        "accuracy_cm": 0.94,
        "surveyor_status": "GNSS Fixed"
      },
      "geometry": {
        "type": "Point",
        "coordinates": [
          80.23801793802394,
          12.916785205589225
        ]
      }
    },
    {
      "type": "Feature",
      "properties": {
        "point_id": "CORS-PT-0007",
        "parcel_ref": "ULPIN-IND-DL-00021",
        "easting": 1068924.8895,
        "northing": 1433834.5001,
        "elevation_m": 213.705,
        "accuracy_cm": 0.97,
        "surveyor_status": "GNSS Fixed"
      },
      "geometry": {
        "type": "Point",
        "coordinates": [
          80.23803223631576,
          12.917469569007642
        ]
      }
    },
    {
      "type": "Feature",
      "properties": {
        "point_id": "CORS-PT-0008",
        "parcel_ref": "ULPIN-IND-DL-00024",
        "easting": 1068924.8895,
        "northing": 1433758.5001,
        "elevation_m": 213.621,
        "accuracy_cm": 2.16,
        "surveyor_status": "GNSS Fixed"
      },
      "geometry": {
        "type": "Point",
        "coordinates": [
          80.23801793802394,
          12.916785205589225
        ]
      }
    },
    {
      "type": "Feature",
      "properties": {
        "point_id": "CORS-PT-0009",
        "parcel_ref": "ULPIN-IND-DL-00027",
        "easting": 1068973.6395,
        "northing": 1433720.5001,
        "elevation_m": 213.42,
        "accuracy_cm": 2.09,
        "surveyor_status": "GNSS Fixed"
      },
      "geometry": {
        "type": "Point",
        "coordinates": [
          80.23845830274672,
          12.916434027227089
        ]
      }
    },
    {
      "type": "Feature",
      "properties": {
        "point_id": "CORS-PT-0010",
        "parcel_ref": "ULPIN-IND-DL-00030",
        "easting": 1068973.6395,
        "northing": 1433796.5001,
        "elevation_m": 214.075,
        "accuracy_cm": 1.53,
        "surveyor_status": "GNSS Fixed"
      },
      "geometry": {
        "type": "Point",
        "coordinates": [
          80.2384726018352,
          12.917118390178588
        ]
      }
    },
    {
      "type": "Feature",
      "properties": {
        "point_id": "CORS-PT-0011",
        "parcel_ref": "ULPIN-IND-DL-00033",
        "easting": 1069071.1395,
        "northing": 1433720.5001,
        "elevation_m": 213.951,
        "accuracy_cm": 0.9,
        "surveyor_status": "GNSS Fixed"
      },
      "geometry": {
        "type": "Point",
        "coordinates": [
          80.23935332885188,
          12.916416031678716
        ]
      }
    },
    {
      "type": "Feature",
      "properties": {
        "point_id": "CORS-PT-0012",
        "parcel_ref": "ULPIN-IND-DL-00036",
        "easting": 1069071.1395,
        "northing": 1433834.5001,
        "elevation_m": 214.543,
        "accuracy_cm": 1.98,
        "surveyor_status": "GNSS Fixed"
      },
      "geometry": {
        "type": "Point",
        "coordinates": [
          80.2393747814168,
          12.917442574608746
        ]
      }
    },
    {
      "type": "Feature",
      "properties": {
        "point_id": "CORS-PT-0013",
        "parcel_ref": "ULPIN-IND-DL-00039",
        "easting": 1068924.8895,
        "northing": 1434004.5001,
        "elevation_m": 214.873,
        "accuracy_cm": 1.8,
        "surveyor_status": "GNSS Fixed"
      },
      "geometry": {
        "type": "Point",
        "coordinates": [
          80.23806422231453,
          12.919000381731392
        ]
      }
    },
    {
      "type": "Feature",
      "properties": {
        "point_id": "CORS-PT-0014",
        "parcel_ref": "ULPIN-IND-DL-00042",
        "easting": 1068924.8895,
        "northing": 1433924.5001,
        "elevation_m": 214.058,
        "accuracy_cm": 1.25,
        "surveyor_status": "GNSS Fixed"
      },
      "geometry": {
        "type": "Point",
        "coordinates": [
          80.23804916956716,
          12.91827999930516
        ]
      }
    },
    {
      "type": "Feature",
      "properties": {
        "point_id": "CORS-PT-0015",
        "parcel_ref": "ULPIN-IND-DL-00045",
        "easting": 1068973.6395,
        "northing": 1433924.5001,
        "elevation_m": 214.737,
        "accuracy_cm": 1.62,
        "surveyor_status": "GNSS Fixed"
      },
      "geometry": {
        "type": "Point",
        "coordinates": [
          80.23849668636986,
          12.918271001349261
        ]
      }
    },
    {
      "type": "Feature",
      "properties": {
        "point_id": "CORS-PT-0016",
        "parcel_ref": "ULPIN-IND-DL-00048",
        "easting": 1069022.3895,
        "northing": 1434004.5001,
        "elevation_m": 215.353,
        "accuracy_cm": 0.81,
        "surveyor_status": "GNSS Fixed"
      },
      "geometry": {
        "type": "Point",
        "coordinates": [
          80.23895925812481,
          12.918982384022046
        ]
      }
    },
    {
      "type": "Feature",
      "properties": {
        "point_id": "CORS-PT-0017",
        "parcel_ref": "ULPIN-IND-DL-00051",
        "easting": 1069071.1395,
        "northing": 1433964.5001,
        "elevation_m": 215.185,
        "accuracy_cm": 1.92,
        "surveyor_status": "GNSS Fixed"
      },
      "geometry": {
        "type": "Point",
        "coordinates": [
          80.23939924712707,
          12.918613193598476
        ]
      }
    },
    {
      "type": "Feature",
      "properties": {
        "point_id": "CORS-PT-0018",
        "parcel_ref": "ULPIN-IND-DL-00054",
        "easting": 1068924.8895,
        "northing": 1434090.5001,
        "elevation_m": 215.037,
        "accuracy_cm": 1.69,
        "surveyor_status": "GNSS Fixed"
      },
      "geometry": {
        "type": "Point",
        "coordinates": [
          80.23808040503444,
          12.919774792776135
        ]
      }
    },
    {
      "type": "Feature",
      "properties": {
        "point_id": "CORS-PT-0019",
        "parcel_ref": "ULPIN-IND-DL-00057",
        "easting": 1068973.6395,
        "northing": 1434090.5001,
        "elevation_m": 215.375,
        "accuracy_cm": 2.16,
        "surveyor_status": "GNSS Fixed"
      },
      "geometry": {
        "type": "Point",
        "coordinates": [
          80.23852792447595,
          12.91976579374429
        ]
      }
    },
    {
      "type": "Feature",
      "properties": {
        "point_id": "CORS-PT-0020",
        "parcel_ref": "ULPIN-IND-DL-00060",
        "easting": 1069071.1395,
        "northing": 1434090.5001,
        "elevation_m": 215.814,
        "accuracy_cm": 2.02,
        "surveyor_status": "GNSS Fixed"
      },
      "geometry": {
        "type": "Point",
        "coordinates": [
          80.23942296234354,
          12.919747793398972
        ]
      }
    },
    {
      "type": "Feature",
      "properties": {
        "point_id": "CORS-PT-0021",
        "parcel_ref": "ULPIN-IND-DL-00063",
        "easting": 1068708.6395,
        "northing": 1434090.5001,
        "elevation_m": 214.038,
        "accuracy_cm": 1.37,
        "surveyor_status": "GNSS Fixed"
      },
      "geometry": {
        "type": "Point",
        "coordinates": [
          80.23609525061134,
          12.91981470238878
        ]
      }
    },
    {
      "type": "Feature",
      "properties": {
        "point_id": "CORS-PT-0022",
        "parcel_ref": "ULPIN-IND-DL-00066",
        "easting": 1068813.6395,
        "northing": 1434090.5001,
        "elevation_m": 214.515,
        "accuracy_cm": 1.55,
        "surveyor_status": "GNSS Fixed"
      },
      "geometry": {
        "type": "Point",
        "coordinates": [
          80.23705914145185,
          12.9197953261801
        ]
      }
    },
    {
      "type": "Feature",
      "properties": {
        "point_id": "CORS-PT-0023",
        "parcel_ref": "ULPIN-IND-DL-00069",
        "easting": 1068529.4728,
        "northing": 1434090.5001,
        "elevation_m": 213.049,
        "accuracy_cm": 1.18,
        "surveyor_status": "GNSS Fixed"
      },
      "geometry": {
        "type": "Point",
        "coordinates": [
          80.23445051261699,
          12.91984775682031
        ]
      }
    },
    {
      "type": "Feature",
      "properties": {
        "point_id": "CORS-PT-0024",
        "parcel_ref": "ULPIN-IND-DL-00072",
        "easting": 1068587.8062,
        "northing": 1434090.5001,
        "elevation_m": 213.439,
        "accuracy_cm": 1.25,
        "surveyor_status": "GNSS Fixed"
      },
      "geometry": {
        "type": "Point",
        "coordinates": [
          80.23498600920979,
          12.919836996040246
        ]
      }
    },
    {
      "type": "Feature",
      "properties": {
        "point_id": "CORS-PT-0025",
        "parcel_ref": "ULPIN-IND-DL-00075",
        "easting": 1068529.4728,
        "northing": 1433924.5001,
        "elevation_m": 212.033,
        "accuracy_cm": 1.29,
        "surveyor_status": "GNSS Fixed"
      },
      "geometry": {
        "type": "Point",
        "coordinates": [
          80.23441929855382,
          12.918352954625595
        ]
      }
    },
    {
      "type": "Feature",
      "properties": {
        "point_id": "CORS-PT-0026",
        "parcel_ref": "ULPIN-IND-DL-00078",
        "easting": 1068529.4728,
        "northing": 1434004.5001,
        "elevation_m": 212.953,
        "accuracy_cm": 1.92,
        "surveyor_status": "GNSS Fixed"
      },
      "geometry": {
        "type": "Point",
        "coordinates": [
          80.2344343409863,
          12.919073341256027
        ]
      }
    },
    {
      "type": "Feature",
      "properties": {
        "point_id": "CORS-PT-0027",
        "parcel_ref": "ULPIN-IND-DL-00081",
        "easting": 1068529.4728,
        "northing": 1433964.5001,
        "elevation_m": 212.415,
        "accuracy_cm": 1.46,
        "surveyor_status": "GNSS Fixed"
      },
      "geometry": {
        "type": "Point",
        "coordinates": [
          80.2344268196562,
          12.91871314794792
        ]
      }
    },
    {
      "type": "Feature",
      "properties": {
        "point_id": "CORS-PT-0028",
        "parcel_ref": "ULPIN-IND-DL-00084",
        "easting": 1068646.1395,
        "northing": 1433924.5001,
        "elevation_m": 212.664,
        "accuracy_cm": 2.03,
        "surveyor_status": "GNSS Fixed"
      },
      "geometry": {
        "type": "Point",
        "coordinates": [
          80.23549028493983,
          12.918331434549778
        ]
      }
    },
    {
      "type": "Feature",
      "properties": {
        "point_id": "CORS-PT-0029",
        "parcel_ref": "ULPIN-IND-DL-00087",
        "easting": 1068529.4728,
        "northing": 1433720.5001,
        "elevation_m": 211.301,
        "accuracy_cm": 1.88,
        "surveyor_status": "GNSS Fixed"
      },
      "geometry": {
        "type": "Point",
        "coordinates": [
          80.2343809444733,
          12.91651596846059
        ]
      }
    },
    {
      "type": "Feature",
      "properties": {
        "point_id": "CORS-PT-0030",
        "parcel_ref": "ULPIN-IND-DL-00090",
        "easting": 1068529.4728,
        "northing": 1433834.5001,
        "elevation_m": 211.704,
        "accuracy_cm": 1.86,
        "surveyor_status": "GNSS Fixed"
      },
      "geometry": {
        "type": "Point",
        "coordinates": [
          80.23440237690593,
          12.917542519598381
        ]
      }
    },
    {
      "type": "Feature",
      "properties": {
        "point_id": "CORS-PT-0031",
        "parcel_ref": "ULPIN-IND-DL-00093",
        "easting": 1068529.4728,
        "northing": 1433720.5001,
        "elevation_m": 211.301,
        "accuracy_cm": 2.05,
        "surveyor_status": "GNSS Fixed"
      },
      "geometry": {
        "type": "Point",
        "coordinates": [
          80.2343809444733,
          12.91651596846059
        ]
      }
    },
    {
      "type": "Feature",
      "properties": {
        "point_id": "CORS-PT-0032",
        "parcel_ref": "ULPIN-IND-DL-00096",
        "easting": 1068587.8062,
        "northing": 1433834.5001,
        "elevation_m": 212.219,
        "accuracy_cm": 1.1,
        "surveyor_status": "GNSS Fixed"
      },
      "geometry": {
        "type": "Point",
        "coordinates": [
          80.23493786862926,
          12.917531760802438
        ]
      }
    },
    {
      "type": "Feature",
      "properties": {
        "point_id": "CORS-PT-0033",
        "parcel_ref": "ULPIN-IND-DL-00099",
        "easting": 1068646.1395,
        "northing": 1433758.5001,
        "elevation_m": 212.23,
        "accuracy_cm": 2.12,
        "surveyor_status": "GNSS Fixed"
      },
      "geometry": {
        "type": "Point",
        "coordinates": [
          80.23545906848354,
          12.916836634683467
        ]
      }
    },
    {
      "type": "Feature",
      "properties": {
        "point_id": "CORS-PT-0034",
        "parcel_ref": "ULPIN-IND-DL-00102",
        "easting": 1068529.4728,
        "northing": 1433565.0001,
        "elevation_m": 210.191,
        "accuracy_cm": 1.26,
        "surveyor_status": "GNSS Fixed"
      },
      "geometry": {
        "type": "Point",
        "coordinates": [
          80.23435171286486,
          12.91511571650314
        ]
      }
    },
    {
      "type": "Feature",
      "properties": {
        "point_id": "CORS-PT-0035",
        "parcel_ref": "ULPIN-IND-DL-00105",
        "easting": 1068529.4728,
        "northing": 1433638.0001,
        "elevation_m": 211.048,
        "accuracy_cm": 1.28,
        "surveyor_status": "GNSS Fixed"
      },
      "geometry": {
        "type": "Point",
        "coordinates": [
          80.23436543531363,
          12.915773069538856
        ]
      }
    },
    {
      "type": "Feature",
      "properties": {
        "point_id": "CORS-PT-0036",
        "parcel_ref": "ULPIN-IND-DL-00108",
        "easting": 1068529.4728,
        "northing": 1433601.5001,
        "elevation_m": 210.797,
        "accuracy_cm": 1.21,
        "surveyor_status": "GNSS Fixed"
      },
      "geometry": {
        "type": "Point",
        "coordinates": [
          80.23435857399446,
          12.915444393026915
        ]
      }
    },
    {
      "type": "Feature",
      "properties": {
        "point_id": "CORS-PT-0037",
        "parcel_ref": "ULPIN-IND-DL-00111",
        "easting": 1068646.1395,
        "northing": 1433565.0001,
        "elevation_m": 210.831,
        "accuracy_cm": 1.81,
        "surveyor_status": "GNSS Fixed"
      },
      "geometry": {
        "type": "Point",
        "coordinates": [
          80.2354226855768,
          12.915094202000112
        ]
      }
    },
    {
      "type": "Feature",
      "properties": {
        "point_id": "CORS-PT-0038",
        "parcel_ref": "ULPIN-IND-DL-00114",
        "easting": 1068708.6395,
        "northing": 1433565.0001,
        "elevation_m": 211.594,
        "accuracy_cm": 1.74,
        "surveyor_status": "GNSS Fixed"
      },
      "geometry": {
        "type": "Point",
        "coordinates": [
          80.23599642016133,
          12.91508267458235
        ]
      }
    },
    {
      "type": "Feature",
      "properties": {
        "point_id": "CORS-PT-0039",
        "parcel_ref": "ULPIN-IND-DL-00117",
        "easting": 1068708.6395,
        "northing": 1433638.0001,
        "elevation_m": 211.568,
        "accuracy_cm": 1.64,
        "surveyor_status": "GNSS Fixed"
      },
      "geometry": {
        "type": "Point",
        "coordinates": [
          80.23601014687378,
          12.915740025880158
        ]
      }
    },
    {
      "type": "Feature",
      "properties": {
        "point_id": "CORS-PT-0040",
        "parcel_ref": "ULPIN-IND-DL-00120",
        "easting": 1068708.6395,
        "northing": 1433601.5001,
        "elevation_m": 211.44,
        "accuracy_cm": 1.29,
        "surveyor_status": "GNSS Fixed"
      },
      "geometry": {
        "type": "Point",
        "coordinates": [
          80.23600328342273,
          12.915411350237173
        ]
      }
    },
    {
      "type": "Feature",
      "properties": {
        "point_id": "CORS-PT-0041",
        "parcel_ref": "ULPIN-IND-DL-00123",
        "easting": 1068761.1395,
        "northing": 1433565.0001,
        "elevation_m": 211.529,
        "accuracy_cm": 1.84,
        "surveyor_status": "GNSS Fixed"
      },
      "geometry": {
        "type": "Point",
        "coordinates": [
          80.23647835678265,
          12.915072990585715
        ]
      }
    },
    {
      "type": "Feature",
      "properties": {
        "point_id": "CORS-PT-0042",
        "parcel_ref": "ULPIN-IND-DL-00126",
        "easting": 1068866.1395,
        "northing": 1433528.5001,
        "elevation_m": 211.975,
        "accuracy_cm": 1.14,
        "surveyor_status": "GNSS Fixed"
      },
      "geometry": {
        "type": "Point",
        "coordinates": [
          80.23743536390248,
          12.914724945044673
        ]
      }
    },
    {
      "type": "Feature",
      "properties": {
        "point_id": "CORS-PT-0043",
        "parcel_ref": "ULPIN-IND-DL-00129",
        "easting": 1068866.1395,
        "northing": 1433638.0001,
        "elevation_m": 212.388,
        "accuracy_cm": 1.06,
        "surveyor_status": "GNSS Fixed"
      },
      "geometry": {
        "type": "Point",
        "coordinates": [
          80.23745595930866,
          12.915710969716871
        ]
      }
    },
    {
      "type": "Feature",
      "properties": {
        "point_id": "CORS-PT-0044",
        "parcel_ref": "ULPIN-IND-DL-00132",
        "easting": 1068708.6395,
        "northing": 1434004.5001,
        "elevation_m": 213.343,
        "accuracy_cm": 2.01,
        "surveyor_status": "GNSS Fixed"
      },
      "geometry": {
        "type": "Point",
        "coordinates": [
          80.236079073956,
          12.919040288871958
        ]
      }
    },
    {
      "type": "Feature",
      "properties": {
        "point_id": "CORS-PT-0045",
        "parcel_ref": "ULPIN-IND-DL-00135",
        "easting": 1068708.6395,
        "northing": 1433924.5001,
        "elevation_m": 213.356,
        "accuracy_cm": 1.8,
        "surveyor_status": "GNSS Fixed"
      },
      "geometry": {
        "type": "Point",
        "coordinates": [
          80.23606402684972,
          12.918319904146127
        ]
      }
    },
    {
      "type": "Feature",
      "properties": {
        "point_id": "CORS-PT-0046",
        "parcel_ref": "ULPIN-IND-DL-00138",
        "easting": 1068761.1395,
        "northing": 1433924.5001,
        "elevation_m": 213.343,
        "accuracy_cm": 1.62,
        "surveyor_status": "GNSS Fixed"
      },
      "geometry": {
        "type": "Point",
        "coordinates": [
          80.23654596962432,
          12.918310217641098
        ]
      }
    },
    {
      "type": "Feature",
      "properties": {
        "point_id": "CORS-PT-0047",
        "parcel_ref": "ULPIN-IND-DL-00141",
        "easting": 1068813.6395,
        "northing": 1434004.5001,
        "elevation_m": 214.137,
        "accuracy_cm": 0.94,
        "surveyor_status": "GNSS Fixed"
      },
      "geometry": {
        "type": "Point",
        "coordinates": [
          80.23704296185184,
          12.919020913863479
        ]
      }
    },
    {
      "type": "Feature",
      "properties": {
        "point_id": "CORS-PT-0048",
        "parcel_ref": "ULPIN-IND-DL-00144",
        "easting": 1068866.1395,
        "northing": 1433964.5001,
        "elevation_m": 214.19,
        "accuracy_cm": 1.77,
        "surveyor_status": "GNSS Fixed"
      },
      "geometry": {
        "type": "Point",
        "coordinates": [
          80.2375173794898,
          12.9186510335178
        ]
      }
    },
    {
      "type": "Feature",
      "properties": {
        "point_id": "CORS-PT-0049",
        "parcel_ref": "ULPIN-IND-DL-00147",
        "easting": 1068708.6395,
        "northing": 1433758.5001,
        "elevation_m": 212.135,
        "accuracy_cm": 0.8,
        "surveyor_status": "GNSS Fixed"
      },
      "geometry": {
        "type": "Point",
        "coordinates": [
          80.23603280701067,
          12.916825105658564
        ]
      }
    },
    {
      "type": "Feature",
      "properties": {
        "point_id": "CORS-PT-0050",
        "parcel_ref": "ULPIN-IND-DL-00150",
        "easting": 1068708.6395,
        "northing": 1433834.5001,
        "elevation_m": 212.809,
        "accuracy_cm": 1.31,
        "surveyor_status": "GNSS Fixed"
      },
      "geometry": {
        "type": "Point",
        "coordinates": [
          80.23604709994413,
          12.917509471261576
        ]
      }
    },
    {
      "type": "Feature",
      "properties": {
        "point_id": "CORS-PT-0051",
        "parcel_ref": "ULPIN-IND-DL-00153",
        "easting": 1068708.6395,
        "northing": 1433758.5001,
        "elevation_m": 212.135,
        "accuracy_cm": 1.25,
        "surveyor_status": "GNSS Fixed"
      },
      "geometry": {
        "type": "Point",
        "coordinates": [
          80.23603280701067,
          12.916825105658564
        ]
      }
    },
    {
      "type": "Feature",
      "properties": {
        "point_id": "CORS-PT-0052",
        "parcel_ref": "ULPIN-IND-DL-00156",
        "easting": 1068761.1395,
        "northing": 1433720.5001,
        "elevation_m": 212.429,
        "accuracy_cm": 0.86,
        "surveyor_status": "GNSS Fixed"
      },
      "geometry": {
        "type": "Point",
        "coordinates": [
          80.23650760013494,
          12.91647323775619
        ]
      }
    },
    {
      "type": "Feature",
      "properties": {
        "point_id": "CORS-PT-0053",
        "parcel_ref": "ULPIN-IND-DL-00159",
        "easting": 1068761.1395,
        "northing": 1433796.5001,
        "elevation_m": 212.711,
        "accuracy_cm": 1.59,
        "surveyor_status": "GNSS Fixed"
      },
      "geometry": {
        "type": "Point",
        "coordinates": [
          80.23652189395816,
          12.917157602854582
        ]
      }
    },
    {
      "type": "Feature",
      "properties": {
        "point_id": "CORS-PT-0054",
        "parcel_ref": "ULPIN-IND-DL-00162",
        "easting": 1068866.1395,
        "northing": 1433720.5001,
        "elevation_m": 212.903,
        "accuracy_cm": 1.53,
        "surveyor_status": "GNSS Fixed"
      },
      "geometry": {
        "type": "Point",
        "coordinates": [
          80.23747147752317,
          12.916453864947455
        ]
      }
    },
    {
      "type": "Feature",
      "properties": {
        "point_id": "CORS-PT-0055",
        "parcel_ref": "ULPIN-IND-DL-00165",
        "easting": 1068866.1395,
        "northing": 1433834.5001,
        "elevation_m": 213.579,
        "accuracy_cm": 1.61,
        "surveyor_status": "GNSS Fixed"
      },
      "geometry": {
        "type": "Point",
        "coordinates": [
          80.2374929224689,
          12.91748041098471
        ]
      }
    }
  ]
}