{
  "type": "FeatureCollection",
  "features": [
    {
      "type": "Feature",
      "properties": {
        "road_id": "RD_EW_1",
        "name": "Ward Lane EW-1",
        "hierarchy": "Secondary Access",
        "width_m": 8.0,
        "surface": "Asphalt"
      },
      "geometry": {
        "type": "LineString",
        "coordinates": [
          [
            80.23383755953941,
            12.916148521878934
          ],
          [
            80.23934542574194,
            12.91603783162274
          ]
        ]
      }
    },
    {
      "type": "Feature",
      "properties": {
        "road_id": "RD_EW_2",
        "name": "MG Road (Primary ROW)",
        "hierarchy": "Major Arterial",
        "width_m": 12.0,
        "surface": "Asphalt"
      },
      "geometry": {
        "type": "LineString",
        "coordinates": [
          [
            80.23387515652313,
            12.917949490335479
          ],
          [
            80.23938306184925,
            12.917838784129783
          ]
        ]
      }
    },
    {
      "type": "Feature",
      "properties": {
        "road_id": "RD_EW_3",
        "name": "Ward Lane EW-3",
        "hierarchy": "Secondary Access",
        "width_m": 8.0,
        "surface": "Asphalt"
      },
      "geometry": {
        "type": "LineString",
        "coordinates": [
          [
            80.23390711843429,
            12.919480313244106
          ],
          [
            80.23941505702011,
            12.919369593481157
          ]
        ]
      }
    },
    {
      "type": "Feature",
      "properties": {
        "road_id": "RD_NS_1",
        "name": "Ward Main Avenue NS-1",
        "hierarchy": "Secondary Access",
        "width_m": 10.0,
        "surface": "Asphalt"
      },
      "geometry": {
        "type": "LineString",
        "coordinates": [
          [
            80.23546172197636,
            12.914764603907116
          ],
          [
            80.23557455240947,
            12.920167494660776
          ]
        ]
      }
    },
    {
      "type": "Feature",
      "properties": {
        "road_id": "RD_NS_2",
        "name": "Ward Main Avenue NS-2",
        "hierarchy": "Secondary Access",
        "width_m": 10.0,
        "surface": "Asphalt"
      },
      "geometry": {
        "type": "LineString",
        "coordinates": [
          [
            80.23748126247362,
            12.914724022569608
          ],
          [
            80.23759413594433,
            12.920126895779063
          ]
        ]
      }
    }
  ]
}